<?xml version="1.0" encoding="UTF-8"?>
<gpx version="1.1" creator="https://occult.alokm.com" xmlns="http://www.topografix.com/GPX/1/1">
<metadata><name>The Moon occults Alcyone — 2028-03-30 — graze limits</name></metadata>
<trk><name>south graze limit</name><trkseg><trkpt lat="11.0065" lon="95.88"/><trkpt lat="11.1064" lon="95.66"/><trkpt lat="11.179" lon="95.5"/><trkpt lat="11.2335" lon="95.38"/><trkpt lat="11.3516" lon="95.12"/><trkpt lat="11.4061" lon="95.0"/><trkpt lat="11.4832" lon="94.83"/><trkpt lat="11.5785" lon="94.62"/><trkpt lat="11.633" lon="94.5"/><trkpt lat="11.7328" lon="94.28"/><trkpt lat="11.8054" lon="94.12"/><trkpt lat="11.8598" lon="94.0"/><trkpt lat="11.9725" lon="93.75"/><trkpt lat="12.0313" lon="93.62"/><trkpt lat="12.1039" lon="93.46"/><trkpt lat="12.199" lon="93.25"/><trkpt lat="12.258" lon="93.12"/><trkpt lat="12.3531" lon="92.91"/><trkpt lat="12.4255" lon="92.75"/><trkpt lat="12.4844" lon="92.62"/><trkpt lat="12.5924" lon="92.38"/><trkpt lat="12.6512" lon="92.25"/><trkpt lat="12.7281" lon="92.08"/><trkpt lat="12.8186" lon="91.88"/><trkpt lat="12.8774" lon="91.75"/><trkpt lat="12.9808" lon="91.52"/><trkpt lat="13.044" lon="91.38"/><trkpt lat="13.1027" lon="91.25"/><trkpt lat="13.2158" lon="91.0"/><trkpt lat="13.2694" lon="90.88"/><trkpt lat="13.355" lon="90.69"/><trkpt lat="13.4405" lon="90.5"/><trkpt lat="13.4945" lon="90.38"/><trkpt lat="13.6023" lon="90.14"/><trkpt lat="13.6652" lon="90.0"/><trkpt lat="13.7281" lon="89.86"/><trkpt lat="13.8356" lon="89.62"/><trkpt lat="13.8894" lon="89.5"/><trkpt lat="13.9791" lon="89.3"/><trkpt lat="14.0595" lon="89.12"/><trkpt lat="14.1132" lon="89.0"/><trkpt lat="14.2251" lon="88.75"/><trkpt lat="14.2829" lon="88.62"/><trkpt lat="14.3544" lon="88.46"/><trkpt lat="14.4482" lon="88.25"/><trkpt lat="14.5061" lon="88.12"/><trkpt lat="14.6043" lon="87.9"/><trkpt lat="14.6706" lon="87.75"/><trkpt lat="14.7284" lon="87.62"/><trkpt lat="14.8342" lon="87.38"/><trkpt lat="14.8919" lon="87.25"/><trkpt lat="14.9762" lon="87.06"/><trkpt lat="15.0551" lon="86.88"/><trkpt lat="15.1127" lon="86.75"/><trkpt lat="15.2224" lon="86.5"/><trkpt lat="15.2754" lon="86.38"/><trkpt lat="15.3498" lon="86.21"/><trkpt lat="15.4421" lon="86.0"/><trkpt lat="15.495" lon="85.88"/><trkpt lat="15.596" lon="85.65"/><trkpt lat="15.662" lon="85.5"/><trkpt lat="15.7234" lon="85.36"/><trkpt lat="15.8285" lon="85.12"/><trkpt lat="15.8811" lon="85.0"/><trkpt lat="15.9724" lon="84.79"/><trkpt lat="16.0462" lon="84.62"/><trkpt lat="16.0985" lon="84.5"/><trkpt lat="16.2063" lon="84.25"/><trkpt lat="16.2625" lon="84.12"/><trkpt lat="16.3451" lon="83.93"/><trkpt lat="16.4225" lon="83.75"/><trkpt lat="16.4781" lon="83.62"/><trkpt lat="16.5815" lon="83.38"/><trkpt lat="16.6376" lon="83.25"/><trkpt lat="16.715" lon="83.07"/><trkpt lat="16.7969" lon="82.88"/><trkpt lat="16.8525" lon="82.75"/><trkpt lat="16.9597" lon="82.5"/><trkpt lat="17.0109" lon="82.38"/><trkpt lat="17.092" lon="82.19"/><trkpt lat="17.173" lon="82.0"/><trkpt lat="17.2236" lon="81.88"/><trkpt lat="17.3341" lon="81.62"/><trkpt lat="17.3846" lon="81.5"/><trkpt lat="17.4645" lon="81.31"/><trkpt lat="17.5442" lon="81.12"/><trkpt lat="17.5951" lon="81.0"/><trkpt lat="17.7" lon="80.75"/><trkpt lat="17.7546" lon="80.62"/><trkpt lat="17.834" lon="80.43"/><trkpt lat="17.9094" lon="80.25"/><trkpt lat="17.9643" lon="80.12"/><trkpt lat="18.0656" lon="79.88"/><trkpt lat="18.1199" lon="79.75"/><trkpt lat="18.2108" lon="79.53"/><trkpt lat="18.2728" lon="79.38"/><trkpt lat="18.3357" lon="79.23"/><trkpt lat="18.4311" lon="79.0"/><trkpt lat="18.4814" lon="78.88"/><trkpt lat="18.5856" lon="78.63"/><trkpt lat="18.6392" lon="78.5"/><trkpt lat="18.7126" lon="78.32"/><trkpt lat="18.794" lon="78.12"/><trkpt lat="18.8428" lon="78.0"/><trkpt lat="18.9454" lon="77.75"/><trkpt lat="18.999" lon="77.62"/><trkpt lat="19.0884" lon="77.4"/><trkpt lat="19.149" lon="77.25"/><trkpt lat="19.2139" lon="77.09"/><trkpt lat="19.2997" lon="76.88"/><trkpt lat="19.352" lon="76.75"/><trkpt lat="19.451" lon="76.5"/><trkpt lat="19.4983" lon="76.38"/><trkpt lat="19.5886" lon="76.15"/><trkpt lat="19.6475" lon="76.0"/><trkpt lat="19.7102" lon="75.84"/><trkpt lat="19.7959" lon="75.62"/><trkpt lat="19.8431" lon="75.5"/><trkpt lat="19.9414" lon="75.25"/><trkpt lat="19.9923" lon="75.12"/><trkpt lat="20.0863" lon="74.88"/><trkpt lat="20.1371" lon="74.75"/><trkpt lat="20.2122" lon="74.56"/><trkpt lat="20.2816" lon="74.38"/><trkpt lat="20.3396" lon="74.23"/><trkpt lat="20.4281" lon="74.0"/><trkpt lat="20.4742" lon="73.88"/><trkpt lat="20.5742" lon="73.62"/><trkpt lat="20.6202" lon="73.5"/><trkpt lat="20.7166" lon="73.25"/><trkpt lat="20.7663" lon="73.12"/><trkpt lat="20.8465" lon="72.91"/><trkpt lat="20.9072" lon="72.75"/><trkpt lat="20.9717" lon="72.58"/><trkpt lat="21.0477" lon="72.38"/><trkpt lat="21.1009" lon="72.24"/><trkpt lat="21.1895" lon="72.0"/><trkpt lat="21.2339" lon="71.88"/><trkpt lat="21.3301" lon="71.62"/><trkpt lat="21.3743" lon="71.5"/><trkpt lat="21.466" lon="71.25"/><trkpt lat="21.5128" lon="71.12"/><trkpt lat="21.5997" lon="70.88"/><trkpt lat="21.6462" lon="70.75"/><trkpt lat="21.7315" lon="70.51"/><trkpt lat="21.7782" lon="70.38"/><trkpt lat="21.857" lon="70.16"/><trkpt lat="21.9143" lon="70.0"/><trkpt lat="21.9857" lon="69.8"/><trkpt lat="22.049" lon="69.62"/><trkpt lat="22.1121" lon="69.44"/><trkpt lat="22.1794" lon="69.25"/><trkpt lat="22.2392" lon="69.08"/><trkpt lat="22.3087" lon="68.88"/><trkpt lat="22.367" lon="68.71"/><trkpt lat="22.4394" lon="68.5"/><trkpt lat="22.495" lon="68.34"/><trkpt lat="22.57" lon="68.12"/><trkpt lat="22.6245" lon="67.96"/><trkpt lat="22.6957" lon="67.75"/><trkpt lat="22.7504" lon="67.58"/><trkpt lat="22.814" lon="67.38"/><trkpt lat="22.8727" lon="67.2"/><trkpt lat="22.9389" lon="67.0"/><trkpt lat="23.0013" lon="66.81"/><trkpt lat="23.0642" lon="66.62"/><trkpt lat="23.1322" lon="66.41"/><trkpt lat="23.1834" lon="66.25"/><trkpt lat="23.2604" lon="66.01"/></trkseg></trk>
</gpx>
