<?xml version="1.0" encoding="UTF-8"?>
<kml xmlns="http://www.opengis.net/kml/2.2"><Document><name>The Moon occults Alcyone — 2028-03-30</name>
<description>Graze limits and visibility from https://occult.alokm.com/alcyone-2028-03-30. Solid limits are traced against the real lunar limb (LRO LOLA); the dotted line is the mean-sphere limit. Times in the city placemarks are IST, real limb.</description>
<Style id="exact"><LineStyle><color>ff06b6d9</color><width>4</width></LineStyle></Style>
<Style id="mean"><LineStyle><color>8006b6d9</color><width>2</width></LineStyle></Style>
<Style id="region"><LineStyle><color>80e6c07d</color><width>1</width></LineStyle><PolyStyle><color>3fe6c07d</color></PolyStyle></Style>
<Style id="night"><LineStyle><width>0</width></LineStyle><PolyStyle><color>3fed3ac4</color></PolyStyle></Style>
<Style id="city"><IconStyle><scale>0.8</scale></IconStyle></Style>
<Folder><name>Graze limits (real lunar limb)</name>
<Placemark><name>south limit — real limb</name><styleUrl>#exact</styleUrl><LineString><tessellate>1</tessellate><coordinates>95.88,11.0065,0 95.66,11.1064,0 95.5,11.179,0 95.38,11.2335,0 95.12,11.3516,0 95.0,11.4061,0 94.83,11.4832,0 94.62,11.5785,0 94.5,11.633,0 94.28,11.7328,0 94.12,11.8054,0 94.0,11.8598,0 93.75,11.9725,0 93.62,12.0313,0 93.46,12.1039,0 93.25,12.199,0 93.12,12.258,0 92.91,12.3531,0 92.75,12.4255,0 92.62,12.4844,0 92.38,12.5924,0 92.25,12.6512,0 92.08,12.7281,0 91.88,12.8186,0 91.75,12.8774,0 91.52,12.9808,0 91.38,13.044,0 91.25,13.1027,0 91.0,13.2158,0 90.88,13.2694,0 90.69,13.355,0 90.5,13.4405,0 90.38,13.4945,0 90.14,13.6023,0 90.0,13.6652,0 89.86,13.7281,0 89.62,13.8356,0 89.5,13.8894,0 89.3,13.9791,0 89.12,14.0595,0 89.0,14.1132,0 88.75,14.2251,0 88.62,14.2829,0 88.46,14.3544,0 88.25,14.4482,0 88.12,14.5061,0 87.9,14.6043,0 87.75,14.6706,0 87.62,14.7284,0 87.38,14.8342,0 87.25,14.8919,0 87.06,14.9762,0 86.88,15.0551,0 86.75,15.1127,0 86.5,15.2224,0 86.38,15.2754,0 86.21,15.3498,0 86.0,15.4421,0 85.88,15.495,0 85.65,15.596,0 85.5,15.662,0 85.36,15.7234,0 85.12,15.8285,0 85.0,15.8811,0 84.79,15.9724,0 84.62,16.0462,0 84.5,16.0985,0 84.25,16.2063,0 84.12,16.2625,0 83.93,16.3451,0 83.75,16.4225,0 83.62,16.4781,0 83.38,16.5815,0 83.25,16.6376,0 83.07,16.715,0 82.88,16.7969,0 82.75,16.8525,0 82.5,16.9597,0 82.38,17.0109,0 82.19,17.092,0 82.0,17.173,0 81.88,17.2236,0 81.62,17.3341,0 81.5,17.3846,0 81.31,17.4645,0 81.12,17.5442,0 81.0,17.5951,0 80.75,17.7,0 80.62,17.7546,0 80.43,17.834,0 80.25,17.9094,0 80.12,17.9643,0 79.88,18.0656,0 79.75,18.1199,0 79.53,18.2108,0 79.38,18.2728,0 79.23,18.3357,0 79.0,18.4311,0 78.88,18.4814,0 78.63,18.5856,0 78.5,18.6392,0 78.32,18.7126,0 78.12,18.794,0 78.0,18.8428,0 77.75,18.9454,0 77.62,18.999,0 77.4,19.0884,0 77.25,19.149,0 77.09,19.2139,0 76.88,19.2997,0 76.75,19.352,0 76.5,19.451,0 76.38,19.4983,0 76.15,19.5886,0 76.0,19.6475,0 75.84,19.7102,0 75.62,19.7959,0 75.5,19.8431,0 75.25,19.9414,0 75.12,19.9923,0 74.88,20.0863,0 74.75,20.1371,0 74.56,20.2122,0 74.38,20.2816,0 74.23,20.3396,0 74.0,20.4281,0 73.88,20.4742,0 73.62,20.5742,0 73.5,20.6202,0 73.25,20.7166,0 73.12,20.7663,0 72.91,20.8465,0 72.75,20.9072,0 72.58,20.9717,0 72.38,21.0477,0 72.24,21.1009,0 72.0,21.1895,0 71.88,21.2339,0 71.62,21.3301,0 71.5,21.3743,0 71.25,21.466,0 71.12,21.5128,0 70.88,21.5997,0 70.75,21.6462,0 70.51,21.7315,0 70.38,21.7782,0 70.16,21.857,0 70.0,21.9143,0 69.8,21.9857,0 69.62,22.049,0 69.44,22.1121,0 69.25,22.1794,0 69.08,22.2392,0 68.88,22.3087,0 68.71,22.367,0 68.5,22.4394,0 68.34,22.495,0 68.12,22.57,0 67.96,22.6245,0 67.75,22.6957,0 67.58,22.7504,0 67.38,22.814,0 67.2,22.8727,0 67.0,22.9389,0 66.81,23.0013,0 66.62,23.0642,0 66.41,23.1322,0 66.25,23.1834,0 66.01,23.2604,0</coordinates></LineString></Placemark>
</Folder><Folder><name>Mean-sphere limits</name>
<Placemark><name>south limit — mean sphere</name><styleUrl>#mean</styleUrl><LineString><tessellate>1</tessellate><coordinates>95.88,11.03,0 95.75,11.08,0 95.66,11.12,0 95.62,11.14,0 95.5,11.2,0 95.39,11.25,0 95.38,11.25,0 95.25,11.31,0 95.12,11.37,0 95.11,11.38,0 95.0,11.42,0 94.88,11.48,0 94.83,11.5,0 94.75,11.54,0 94.62,11.6,0 94.56,11.62,0 94.5,11.65,0 94.38,11.71,0 94.28,11.75,0 94.25,11.77,0 94.12,11.82,0 94.01,11.88,0 94.0,11.88,0 93.88,11.94,0 93.75,11.99,0 93.73,12.0,0 93.62,12.05,0 93.5,12.11,0 93.46,12.13,0 93.38,12.16,0 93.25,12.22,0 93.18,12.25,0 93.12,12.28,0 93.0,12.33,0 92.91,12.38,0 92.88,12.39,0 92.75,12.45,0 92.63,12.5,0 92.62,12.5,0 92.5,12.56,0 92.38,12.61,0 92.35,12.62,0 92.25,12.67,0 92.12,12.73,0 92.08,12.75,0 92.0,12.78,0 91.88,12.84,0 91.8,12.88,0 91.75,12.9,0 91.63,12.95,0 91.52,13.0,0 91.5,13.01,0 91.38,13.07,0 91.25,13.12,0 91.25,13.13,0 91.12,13.18,0 91.0,13.24,0 90.97,13.25,0 90.88,13.29,0 90.75,13.35,0 90.69,13.38,0 90.62,13.41,0 90.5,13.46,0 90.42,13.5,0 90.38,13.52,0 90.25,13.57,0 90.14,13.62,0 90.12,13.63,0 90.0,13.69,0 89.88,13.74,0 89.86,13.75,0 89.75,13.8,0 89.62,13.86,0 89.58,13.88,0 89.5,13.91,0 89.38,13.97,0 89.3,14.0,0 89.25,14.02,0 89.12,14.08,0 89.02,14.12,0 89.0,14.14,0 88.88,14.19,0 88.75,14.25,0 88.74,14.25,0 88.62,14.3,0 88.5,14.36,0 88.46,14.38,0 88.38,14.41,0 88.25,14.47,0 88.18,14.5,0 88.12,14.53,0 88.0,14.58,0 87.9,14.62,0 87.88,14.64,0 87.75,14.69,0 87.62,14.75,0 87.62,14.75,0 87.5,14.8,0 87.38,14.86,0 87.34,14.88,0 87.25,14.92,0 87.12,14.97,0 87.06,15.0,0 87.0,15.03,0 86.88,15.08,0 86.78,15.12,0 86.75,15.14,0 86.62,15.19,0 86.5,15.25,0 86.5,15.25,0 86.38,15.3,0 86.25,15.36,0 86.21,15.38,0 86.12,15.41,0 86.0,15.47,0 85.93,15.5,0 85.88,15.52,0 85.75,15.58,0 85.65,15.62,0 85.62,15.63,0 85.5,15.69,0 85.38,15.74,0 85.36,15.75,0 85.25,15.8,0 85.12,15.85,0 85.08,15.88,0 85.0,15.91,0 84.88,15.96,0 84.79,16.0,0 84.75,16.02,0 84.62,16.07,0 84.51,16.12,0 84.5,16.13,0 84.38,16.18,0 84.25,16.24,0 84.22,16.25,0 84.12,16.29,0 84.0,16.35,0 83.93,16.38,0 83.88,16.4,0 83.75,16.45,0 83.64,16.5,0 83.62,16.51,0 83.5,16.56,0 83.38,16.62,0 83.36,16.62,0 83.25,16.67,0 83.12,16.72,0 83.07,16.75,0 83.0,16.78,0 82.88,16.83,0 82.78,16.88,0 82.75,16.89,0 82.62,16.94,0 82.5,16.99,0 82.49,17.0,0 82.38,17.05,0 82.25,17.1,0 82.19,17.12,0 82.12,17.15,0 82.0,17.21,0 81.9,17.25,0 81.88,17.26,0 81.75,17.31,0 81.62,17.37,0 81.61,17.38,0 81.5,17.42,0 81.38,17.47,0 81.31,17.5,0 81.25,17.53,0 81.12,17.58,0 81.02,17.62,0 81.0,17.63,0 80.88,17.69,0 80.75,17.74,0 80.72,17.75,0 80.62,17.79,0 80.5,17.84,0 80.43,17.88,0 80.38,17.9,0 80.25,17.95,0 80.13,18.0,0 80.12,18.0,0 80.0,18.05,0 79.88,18.11,0 79.83,18.12,0 79.75,18.16,0 79.62,18.21,0 79.53,18.25,0 79.5,18.26,0 79.38,18.32,0 79.25,18.37,0 79.23,18.38,0 79.12,18.42,0 79.0,18.47,0 78.93,18.5,0 78.88,18.52,0 78.75,18.57,0 78.63,18.62,0 78.62,18.63,0 78.5,18.68,0 78.38,18.73,0 78.32,18.75,0 78.25,18.78,0 78.12,18.83,0 78.02,18.88,0 78.0,18.88,0 77.88,18.93,0 77.75,18.98,0 77.71,19.0,0 77.62,19.03,0 77.5,19.08,0 77.4,19.12,0 77.38,19.14,0 77.25,19.19,0 77.12,19.24,0 77.09,19.25,0 77.0,19.29,0 76.88,19.34,0 76.78,19.38,0 76.75,19.39,0 76.62,19.44,0 76.5,19.49,0 76.47,19.5,0 76.38,19.54,0 76.25,19.59,0 76.15,19.62,0 76.12,19.64,0 76.0,19.69,0 75.87,19.74,0 75.84,19.75,0 75.75,19.78,0 75.62,19.83,0 75.52,19.88,0 75.5,19.88,0 75.38,19.93,0 75.25,19.98,0 75.2,20.0,0 75.12,20.03,0 75.0,20.08,0 74.88,20.12,0 74.88,20.13,0 74.75,20.18,0 74.62,20.22,0 74.56,20.25,0 74.5,20.27,0 74.38,20.32,0 74.25,20.37,0 74.23,20.38,0 74.12,20.42,0 74.0,20.46,0 73.91,20.5,0 73.88,20.51,0 73.75,20.56,0 73.62,20.61,0 73.58,20.62,0 73.5,20.65,0 73.38,20.7,0 73.25,20.75,0 73.25,20.75,0 73.12,20.8,0 73.0,20.84,0 72.91,20.88,0 72.88,20.89,0 72.75,20.94,0 72.62,20.98,0 72.58,21.0,0 72.5,21.03,0 72.38,21.08,0 72.25,21.12,0 72.24,21.13,0 72.12,21.17,0 72.0,21.21,0 71.9,21.25,0 71.88,21.26,0 71.75,21.31,0 71.62,21.35,0 71.56,21.38,0 71.5,21.4,0 71.38,21.44,0 71.25,21.49,0 71.21,21.5,0 71.12,21.53,0 71.0,21.58,0 70.88,21.62,0 70.87,21.62,0 70.75,21.67,0 70.62,21.71,0 70.51,21.75,0 70.5,21.75,0 70.38,21.8,0 70.25,21.84,0 70.16,21.88,0 70.12,21.89,0 70.0,21.93,0 69.88,21.97,0 69.8,22.0,0 69.75,22.02,0 69.62,22.06,0 69.5,22.1,0 69.44,22.12,0 69.38,22.15,0 69.25,22.19,0 69.12,22.23,0 69.08,22.25,0 69.0,22.28,0 68.88,22.32,0 68.75,22.36,0 68.71,22.38,0 68.62,22.4,0 68.5,22.45,0 68.38,22.49,0 68.34,22.5,0 68.25,22.53,0 68.12,22.57,0 68.0,22.61,0 67.96,22.62,0 67.88,22.65,0 67.75,22.7,0 67.62,22.74,0 67.58,22.75,0 67.5,22.78,0 67.38,22.82,0 67.25,22.86,0 67.2,22.88,0 67.12,22.9,0 67.0,22.94,0 66.88,22.98,0 66.81,23.0,0 66.75,23.02,0 66.62,23.06,0 66.5,23.1,0 66.41,23.12,0 66.38,23.14,0 66.25,23.18,0 66.12,23.22,0 66.01,23.25,0 66.0,23.25,0</coordinates></LineString></Placemark>
</Folder><Folder><name>Visibility</name>
<Placemark><name>sees the occultation</name><styleUrl>#region</styleUrl><Polygon><outerBoundaryIs><LinearRing><coordinates>97.86,10.12,0 97.88,10.12,0 98.0,10.06,0 98.0,10.12,0 98.0,10.25,0 98.0,10.38,0 98.0,10.5,0 98.0,10.62,0 98.0,10.75,0 98.0,10.88,0 98.0,11.0,0 98.0,11.12,0 98.0,11.25,0 98.0,11.38,0 98.0,11.5,0 98.0,11.62,0 98.0,11.75,0 98.0,11.88,0 98.0,12.0,0 98.0,12.12,0 98.0,12.25,0 98.0,12.38,0 98.0,12.5,0 98.0,12.62,0 98.0,12.75,0 98.0,12.88,0 98.0,13.0,0 98.0,13.12,0 98.0,13.25,0 98.0,13.38,0 98.0,13.5,0 98.0,13.62,0 98.0,13.75,0 98.0,13.88,0 98.0,14.0,0 98.0,14.12,0 98.0,14.25,0 98.0,14.38,0 98.0,14.5,0 98.0,14.62,0 98.0,14.75,0 98.0,14.88,0 98.0,15.0,0 98.0,15.12,0 98.0,15.25,0 98.0,15.38,0 98.0,15.5,0 98.0,15.62,0 98.0,15.75,0 98.0,15.88,0 98.0,16.0,0 98.0,16.12,0 98.0,16.25,0 98.0,16.38,0 98.0,16.5,0 98.0,16.62,0 98.0,16.75,0 98.0,16.88,0 98.0,17.0,0 98.0,17.12,0 98.0,17.25,0 98.0,17.38,0 98.0,17.5,0 98.0,17.62,0 98.0,17.75,0 98.0,17.88,0 98.0,18.0,0 98.0,18.12,0 98.0,18.25,0 98.0,18.38,0 98.0,18.5,0 98.0,18.62,0 98.0,18.75,0 98.0,18.88,0 98.0,19.0,0 98.0,19.12,0 98.0,19.25,0 98.0,19.38,0 98.0,19.5,0 98.0,19.62,0 98.0,19.75,0 98.0,19.88,0 98.0,20.0,0 98.0,20.12,0 98.0,20.25,0 98.0,20.38,0 98.0,20.5,0 98.0,20.62,0 98.0,20.75,0 98.0,20.88,0 98.0,21.0,0 98.0,21.12,0 98.0,21.25,0 98.0,21.38,0 98.0,21.5,0 98.0,21.62,0 98.0,21.75,0 98.0,21.88,0 98.0,22.0,0 98.0,22.12,0 98.0,22.25,0 98.0,22.38,0 98.0,22.5,0 98.0,22.62,0 98.0,22.75,0 98.0,22.88,0 98.0,23.0,0 98.0,23.12,0 98.0,23.25,0 98.0,23.38,0 98.0,23.5,0 98.0,23.62,0 98.0,23.75,0 98.0,23.88,0 98.0,24.0,0 98.0,24.12,0 98.0,24.25,0 98.0,24.38,0 98.0,24.5,0 98.0,24.62,0 98.0,24.75,0 98.0,24.88,0 98.0,25.0,0 98.0,25.12,0 98.0,25.25,0 98.0,25.38,0 98.0,25.5,0 98.0,25.62,0 98.0,25.75,0 98.0,25.88,0 98.0,26.0,0 98.0,26.12,0 98.0,26.25,0 98.0,26.38,0 98.0,26.5,0 98.0,26.62,0 98.0,26.75,0 98.0,26.88,0 98.0,27.0,0 98.0,27.12,0 98.0,27.25,0 98.0,27.38,0 98.0,27.5,0 98.0,27.62,0 98.0,27.75,0 98.0,27.88,0 98.0,28.0,0 98.0,28.12,0 98.0,28.25,0 98.0,28.38,0 98.0,28.5,0 98.0,28.62,0 98.0,28.75,0 98.0,28.88,0 98.0,29.0,0 98.0,29.12,0 98.0,29.25,0 98.0,29.38,0 98.0,29.5,0 98.0,29.62,0 98.0,29.75,0 98.0,29.88,0 98.0,30.0,0 98.0,30.12,0 98.0,30.25,0 98.0,30.38,0 98.0,30.5,0 98.0,30.62,0 98.0,30.75,0 98.0,30.88,0 98.0,31.0,0 98.0,31.12,0 98.0,31.25,0 98.0,31.38,0 98.0,31.5,0 98.0,31.62,0 98.0,31.75,0 98.0,31.88,0 98.0,32.0,0 98.0,32.12,0 98.0,32.25,0 98.0,32.38,0 98.0,32.5,0 98.0,32.62,0 98.0,32.75,0 98.0,32.88,0 98.0,33.0,0 98.0,33.12,0 98.0,33.25,0 98.0,33.38,0 98.0,33.5,0 98.0,33.62,0 98.0,33.75,0 98.0,33.88,0 98.0,34.0,0 98.0,34.12,0 98.0,34.25,0 98.0,34.38,0 98.0,34.5,0 98.0,34.62,0 98.0,34.75,0 98.0,34.88,0 98.0,35.0,0 98.0,35.12,0 98.0,35.25,0 98.0,35.38,0 98.0,35.5,0 98.0,35.62,0 98.0,35.75,0 98.0,35.88,0 98.0,36.0,0 98.0,36.12,0 98.0,36.25,0 98.0,36.38,0 98.0,36.5,0 98.0,36.62,0 98.0,36.75,0 98.0,36.88,0 98.0,37.0,0 98.0,37.12,0 98.0,37.25,0 98.0,37.38,0 98.0,37.5,0 98.0,37.62,0 98.0,37.75,0 98.0,37.88,0 98.0,38.0,0 97.88,38.0,0 97.75,38.0,0 97.62,38.0,0 97.5,38.0,0 97.38,38.0,0 97.25,38.0,0 97.12,38.0,0 97.0,38.0,0 96.88,38.0,0 96.75,38.0,0 96.62,38.0,0 96.5,38.0,0 96.38,38.0,0 96.25,38.0,0 96.12,38.0,0 96.0,38.0,0 95.88,38.0,0 95.75,38.0,0 95.62,38.0,0 95.5,38.0,0 95.38,38.0,0 95.25,38.0,0 95.12,38.0,0 95.0,38.0,0 94.88,38.0,0 94.75,38.0,0 94.62,38.0,0 94.5,38.0,0 94.38,38.0,0 94.25,38.0,0 94.12,38.0,0 94.0,38.0,0 93.88,38.0,0 93.75,38.0,0 93.62,38.0,0 93.5,38.0,0 93.38,38.0,0 93.25,38.0,0 93.12,38.0,0 93.0,38.0,0 92.88,38.0,0 92.75,38.0,0 92.62,38.0,0 92.5,38.0,0 92.38,38.0,0 92.25,38.0,0 92.12,38.0,0 92.0,38.0,0 91.88,38.0,0 91.75,38.0,0 91.62,38.0,0 91.5,38.0,0 91.38,38.0,0 91.25,38.0,0 91.12,38.0,0 91.0,38.0,0 90.88,38.0,0 90.75,38.0,0 90.62,38.0,0 90.5,38.0,0 90.38,38.0,0 90.25,38.0,0 90.12,38.0,0 90.0,38.0,0 89.88,38.0,0 89.75,38.0,0 89.62,38.0,0 89.5,38.0,0 89.38,38.0,0 89.25,38.0,0 89.12,38.0,0 89.0,38.0,0 88.88,38.0,0 88.75,38.0,0 88.62,38.0,0 88.5,38.0,0 88.38,38.0,0 88.25,38.0,0 88.12,38.0,0 88.0,38.0,0 87.88,38.0,0 87.75,38.0,0 87.62,38.0,0 87.5,38.0,0 87.38,38.0,0 87.25,38.0,0 87.12,38.0,0 87.0,38.0,0 86.88,38.0,0 86.75,38.0,0 86.62,38.0,0 86.5,38.0,0 86.38,38.0,0 86.25,38.0,0 86.12,38.0,0 86.0,38.0,0 85.88,38.0,0 85.75,38.0,0 85.62,38.0,0 85.5,38.0,0 85.38,38.0,0 85.25,38.0,0 85.12,38.0,0 85.0,38.0,0 84.88,38.0,0 84.75,38.0,0 84.62,38.0,0 84.5,38.0,0 84.38,38.0,0 84.25,38.0,0 84.12,38.0,0 84.0,38.0,0 83.88,38.0,0 83.75,38.0,0 83.62,38.0,0 83.5,38.0,0 83.38,38.0,0 83.25,38.0,0 83.12,38.0,0 83.0,38.0,0 82.88,38.0,0 82.75,38.0,0 82.62,38.0,0 82.5,38.0,0 82.38,38.0,0 82.25,38.0,0 82.12,38.0,0 82.0,38.0,0 81.88,38.0,0 81.75,38.0,0 81.62,38.0,0 81.5,38.0,0 81.38,38.0,0 81.25,38.0,0 81.12,38.0,0 81.0,38.0,0 80.88,38.0,0 80.75,38.0,0 80.62,38.0,0 80.5,38.0,0 80.38,38.0,0 80.25,38.0,0 80.12,38.0,0 80.0,38.0,0 79.88,38.0,0 79.75,38.0,0 79.62,38.0,0 79.5,38.0,0 79.38,38.0,0 79.25,38.0,0 79.12,38.0,0 79.0,38.0,0 78.88,38.0,0 78.75,38.0,0 78.62,38.0,0 78.5,38.0,0 78.38,38.0,0 78.25,38.0,0 78.12,38.0,0 78.0,38.0,0 77.88,38.0,0 77.75,38.0,0 77.62,38.0,0 77.5,38.0,0 77.38,38.0,0 77.25,38.0,0 77.12,38.0,0 77.0,38.0,0 76.88,38.0,0 76.75,38.0,0 76.62,38.0,0 76.5,38.0,0 76.38,38.0,0 76.25,38.0,0 76.12,38.0,0 76.0,38.0,0 75.88,38.0,0 75.75,38.0,0 75.62,38.0,0 75.5,38.0,0 75.38,38.0,0 75.25,38.0,0 75.12,38.0,0 75.0,38.0,0 74.88,38.0,0 74.75,38.0,0 74.62,38.0,0 74.5,38.0,0 74.38,38.0,0 74.25,38.0,0 74.12,38.0,0 74.0,38.0,0 73.88,38.0,0 73.75,38.0,0 73.62,38.0,0 73.5,38.0,0 73.38,38.0,0 73.25,38.0,0 73.12,38.0,0 73.0,38.0,0 72.88,38.0,0 72.75,38.0,0 72.62,38.0,0 72.5,38.0,0 72.38,38.0,0 72.25,38.0,0 72.12,38.0,0 72.0,38.0,0 71.88,38.0,0 71.75,38.0,0 71.62,38.0,0 71.5,38.0,0 71.38,38.0,0 71.25,38.0,0 71.12,38.0,0 71.0,38.0,0 70.88,38.0,0 70.75,38.0,0 70.62,38.0,0 70.5,38.0,0 70.38,38.0,0 70.25,38.0,0 70.12,38.0,0 70.0,38.0,0 69.88,38.0,0 69.75,38.0,0 69.62,38.0,0 69.5,38.0,0 69.38,38.0,0 69.25,38.0,0 69.12,38.0,0 69.0,38.0,0 68.88,38.0,0 68.75,38.0,0 68.62,38.0,0 68.5,38.0,0 68.38,38.0,0 68.25,38.0,0 68.12,38.0,0 68.0,38.0,0 67.88,38.0,0 67.75,38.0,0 67.62,38.0,0 67.5,38.0,0 67.38,38.0,0 67.25,38.0,0 67.12,38.0,0 67.0,38.0,0 66.88,38.0,0 66.75,38.0,0 66.62,38.0,0 66.5,38.0,0 66.38,38.0,0 66.25,38.0,0 66.12,38.0,0 66.0,38.0,0 66.0,37.88,0 66.0,37.75,0 66.0,37.62,0 66.0,37.5,0 66.0,37.38,0 66.0,37.25,0 66.0,37.12,0 66.0,37.0,0 66.0,36.88,0 66.0,36.75,0 66.0,36.62,0 66.0,36.5,0 66.0,36.38,0 66.0,36.25,0 66.0,36.12,0 66.0,36.0,0 66.0,35.88,0 66.0,35.75,0 66.0,35.62,0 66.0,35.5,0 66.0,35.38,0 66.0,35.25,0 66.0,35.12,0 66.0,35.0,0 66.0,34.88,0 66.0,34.75,0 66.0,34.62,0 66.0,34.5,0 66.0,34.38,0 66.0,34.25,0 66.0,34.12,0 66.0,34.0,0 66.0,33.88,0 66.0,33.75,0 66.0,33.62,0 66.0,33.5,0 66.0,33.38,0 66.0,33.25,0 66.0,33.12,0 66.0,33.0,0 66.0,32.88,0 66.0,32.75,0 66.0,32.62,0 66.0,32.5,0 66.0,32.38,0 66.0,32.25,0 66.0,32.12,0 66.0,32.0,0 66.0,31.88,0 66.0,31.75,0 66.0,31.62,0 66.0,31.5,0 66.0,31.38,0 66.0,31.25,0 66.0,31.12,0 66.0,31.0,0 66.0,30.88,0 66.0,30.75,0 66.0,30.62,0 66.0,30.5,0 66.0,30.38,0 66.0,30.25,0 66.0,30.12,0 66.0,30.0,0 66.0,29.88,0 66.0,29.75,0 66.0,29.62,0 66.0,29.5,0 66.0,29.38,0 66.0,29.25,0 66.0,29.12,0 66.0,29.0,0 66.0,28.88,0 66.0,28.75,0 66.0,28.62,0 66.0,28.5,0 66.0,28.38,0 66.0,28.25,0 66.0,28.12,0 66.0,28.0,0 66.0,27.88,0 66.0,27.75,0 66.0,27.62,0 66.0,27.5,0 66.0,27.38,0 66.0,27.25,0 66.0,27.12,0 66.0,27.0,0 66.0,26.88,0 66.0,26.75,0 66.0,26.62,0 66.0,26.5,0 66.0,26.38,0 66.0,26.25,0 66.0,26.12,0 66.0,26.0,0 66.0,25.88,0 66.0,25.75,0 66.0,25.62,0 66.0,25.5,0 66.0,25.38,0 66.0,25.25,0 66.0,25.12,0 66.0,25.0,0 66.0,24.88,0 66.0,24.75,0 66.0,24.62,0 66.0,24.5,0 66.0,24.38,0 66.0,24.25,0 66.0,24.12,0 66.0,24.0,0 66.0,23.88,0 66.0,23.75,0 66.0,23.62,0 66.0,23.5,0 66.0,23.38,0 66.0,23.25,0 66.01,23.25,0 66.12,23.22,0 66.25,23.18,0 66.38,23.14,0 66.41,23.12,0 66.5,23.1,0 66.62,23.06,0 66.75,23.02,0 66.81,23.0,0 66.88,22.98,0 67.0,22.94,0 67.12,22.9,0 67.2,22.88,0 67.25,22.86,0 67.38,22.82,0 67.5,22.78,0 67.58,22.75,0 67.62,22.74,0 67.75,22.7,0 67.88,22.65,0 67.96,22.62,0 68.0,22.61,0 68.12,22.57,0 68.25,22.53,0 68.34,22.5,0 68.38,22.49,0 68.5,22.45,0 68.62,22.4,0 68.71,22.38,0 68.75,22.36,0 68.88,22.32,0 69.0,22.28,0 69.08,22.25,0 69.12,22.23,0 69.25,22.19,0 69.38,22.15,0 69.44,22.12,0 69.5,22.1,0 69.62,22.06,0 69.75,22.02,0 69.8,22.0,0 69.88,21.97,0 70.0,21.93,0 70.12,21.89,0 70.16,21.88,0 70.25,21.84,0 70.38,21.8,0 70.5,21.75,0 70.51,21.75,0 70.62,21.71,0 70.75,21.67,0 70.87,21.62,0 70.88,21.62,0 71.0,21.58,0 71.12,21.53,0 71.21,21.5,0 71.25,21.49,0 71.38,21.44,0 71.5,21.4,0 71.56,21.38,0 71.62,21.35,0 71.75,21.31,0 71.88,21.26,0 71.9,21.25,0 72.0,21.21,0 72.12,21.17,0 72.24,21.12,0 72.25,21.12,0 72.38,21.08,0 72.5,21.03,0 72.58,21.0,0 72.62,20.98,0 72.75,20.94,0 72.88,20.89,0 72.91,20.88,0 73.0,20.84,0 73.12,20.8,0 73.25,20.75,0 73.25,20.75,0 73.38,20.7,0 73.5,20.65,0 73.58,20.62,0 73.62,20.61,0 73.75,20.56,0 73.88,20.51,0 73.91,20.5,0 74.0,20.46,0 74.12,20.42,0 74.23,20.38,0 74.25,20.37,0 74.38,20.32,0 74.5,20.27,0 74.56,20.25,0 74.62,20.22,0 74.75,20.18,0 74.88,20.13,0 74.88,20.12,0 75.0,20.08,0 75.12,20.03,0 75.2,20.0,0 75.25,19.98,0 75.38,19.93,0 75.5,19.88,0 75.52,19.88,0 75.62,19.83,0 75.75,19.78,0 75.84,19.75,0 75.88,19.74,0 76.0,19.69,0 76.12,19.64,0 76.15,19.62,0 76.25,19.59,0 76.38,19.54,0 76.47,19.5,0 76.5,19.49,0 76.62,19.44,0 76.75,19.39,0 76.78,19.38,0 76.88,19.34,0 77.0,19.29,0 77.09,19.25,0 77.12,19.24,0 77.25,19.19,0 77.38,19.14,0 77.4,19.12,0 77.5,19.08,0 77.62,19.03,0 77.71,19.0,0 77.75,18.98,0 77.88,18.93,0 78.0,18.88,0 78.02,18.88,0 78.12,18.83,0 78.25,18.78,0 78.32,18.75,0 78.38,18.73,0 78.5,18.68,0 78.62,18.63,0 78.63,18.62,0 78.75,18.57,0 78.88,18.52,0 78.93,18.5,0 79.0,18.47,0 79.12,18.42,0 79.23,18.38,0 79.25,18.37,0 79.38,18.32,0 79.5,18.26,0 79.53,18.25,0 79.62,18.21,0 79.75,18.16,0 79.83,18.12,0 79.88,18.11,0 80.0,18.05,0 80.12,18.0,0 80.13,18.0,0 80.25,17.95,0 80.37,17.9,0 80.43,17.88,0 80.5,17.84,0 80.62,17.79,0 80.72,17.75,0 80.75,17.74,0 80.88,17.69,0 81.0,17.63,0 81.02,17.62,0 81.12,17.58,0 81.25,17.53,0 81.31,17.5,0 81.38,17.47,0 81.5,17.42,0 81.61,17.38,0 81.62,17.37,0 81.75,17.31,0 81.88,17.26,0 81.9,17.25,0 82.0,17.21,0 82.12,17.15,0 82.19,17.12,0 82.25,17.1,0 82.38,17.05,0 82.49,17.0,0 82.5,16.99,0 82.62,16.94,0 82.75,16.89,0 82.78,16.88,0 82.88,16.83,0 83.0,16.78,0 83.07,16.75,0 83.12,16.72,0 83.25,16.67,0 83.36,16.62,0 83.38,16.62,0 83.5,16.56,0 83.62,16.51,0 83.64,16.5,0 83.75,16.45,0 83.88,16.4,0 83.93,16.38,0 84.0,16.35,0 84.12,16.29,0 84.22,16.25,0 84.25,16.24,0 84.38,16.18,0 84.5,16.13,0 84.51,16.12,0 84.62,16.07,0 84.75,16.02,0 84.79,16.0,0 84.88,15.96,0 85.0,15.91,0 85.08,15.88,0 85.12,15.85,0 85.25,15.8,0 85.36,15.75,0 85.38,15.74,0 85.5,15.69,0 85.62,15.63,0 85.65,15.62,0 85.75,15.58,0 85.88,15.52,0 85.93,15.5,0 86.0,15.47,0 86.12,15.41,0 86.21,15.38,0 86.25,15.36,0 86.38,15.3,0 86.5,15.25,0 86.5,15.25,0 86.62,15.19,0 86.75,15.14,0 86.78,15.12,0 86.88,15.08,0 87.0,15.03,0 87.06,15.0,0 87.12,14.97,0 87.25,14.92,0 87.34,14.88,0 87.38,14.86,0 87.5,14.8,0 87.62,14.75,0 87.62,14.75,0 87.75,14.69,0 87.88,14.64,0 87.9,14.62,0 88.0,14.58,0 88.12,14.53,0 88.18,14.5,0 88.25,14.47,0 88.38,14.41,0 88.46,14.38,0 88.5,14.36,0 88.62,14.3,0 88.74,14.25,0 88.75,14.25,0 88.88,14.19,0 89.0,14.14,0 89.02,14.12,0 89.12,14.08,0 89.25,14.02,0 89.3,14.0,0 89.38,13.97,0 89.5,13.91,0 89.58,13.88,0 89.62,13.86,0 89.75,13.8,0 89.86,13.75,0 89.88,13.74,0 90.0,13.69,0 90.12,13.63,0 90.14,13.62,0 90.25,13.57,0 90.38,13.52,0 90.42,13.5,0 90.5,13.46,0 90.63,13.41,0 90.69,13.38,0 90.75,13.35,0 90.88,13.29,0 90.97,13.25,0 91.0,13.24,0 91.12,13.18,0 91.25,13.12,0 91.25,13.12,0 91.38,13.07,0 91.5,13.01,0 91.52,13.0,0 91.62,12.95,0 91.75,12.9,0 91.8,12.87,0 91.88,12.84,0 92.0,12.78,0 92.08,12.75,0 92.12,12.73,0 92.25,12.67,0 92.35,12.62,0 92.38,12.61,0 92.5,12.56,0 92.62,12.5,0 92.63,12.5,0 92.75,12.45,0 92.88,12.39,0 92.91,12.38,0 93.0,12.33,0 93.13,12.28,0 93.18,12.25,0 93.25,12.22,0 93.38,12.16,0 93.46,12.12,0 93.5,12.11,0 93.62,12.05,0 93.73,12.0,0 93.75,11.99,0 93.88,11.94,0 94.0,11.88,0 94.01,11.88,0 94.12,11.82,0 94.25,11.77,0 94.28,11.75,0 94.38,11.71,0 94.5,11.65,0 94.56,11.62,0 94.62,11.6,0 94.75,11.54,0 94.83,11.5,0 94.88,11.48,0 95.0,11.42,0 95.11,11.38,0 95.12,11.37,0 95.25,11.31,0 95.38,11.25,0 95.39,11.25,0 95.5,11.2,0 95.62,11.14,0 95.66,11.12,0 95.75,11.08,0 95.88,11.03,0 95.94,11.0,0 96.0,10.97,0 96.12,10.91,0 96.21,10.88,0 96.25,10.86,0 96.38,10.8,0 96.49,10.75,0 96.5,10.74,0 96.62,10.69,0 96.75,10.63,0 96.76,10.62,0 96.88,10.57,0 97.0,10.52,0 97.04,10.5,0 97.12,10.46,0 97.25,10.4,0 97.31,10.38,0 97.38,10.35,0 97.5,10.29,0 97.59,10.25,0 97.62,10.23,0 97.75,10.18,0 97.86,10.12,0</coordinates></LinearRing></outerBoundaryIs></Polygon></Placemark>
<Placemark><name>after sunset</name><styleUrl>#night</styleUrl><Polygon><outerBoundaryIs><LinearRing><coordinates>97.86,10.12,0 97.88,10.12,0 98.0,10.06,0 98.0,10.12,0 98.0,10.25,0 98.0,10.38,0 98.0,10.5,0 98.0,10.62,0 98.0,10.75,0 98.0,10.88,0 98.0,11.0,0 98.0,11.12,0 98.0,11.25,0 98.0,11.38,0 98.0,11.5,0 98.0,11.62,0 98.0,11.75,0 98.0,11.88,0 98.0,12.0,0 98.0,12.12,0 98.0,12.25,0 98.0,12.38,0 98.0,12.5,0 98.0,12.62,0 98.0,12.75,0 98.0,12.88,0 98.0,13.0,0 98.0,13.12,0 98.0,13.25,0 98.0,13.38,0 98.0,13.5,0 98.0,13.62,0 98.0,13.75,0 98.0,13.88,0 98.0,14.0,0 98.0,14.12,0 98.0,14.25,0 98.0,14.38,0 98.0,14.5,0 98.0,14.62,0 98.0,14.75,0 98.0,14.88,0 98.0,15.0,0 98.0,15.12,0 98.0,15.25,0 98.0,15.38,0 98.0,15.5,0 98.0,15.62,0 98.0,15.75,0 98.0,15.88,0 98.0,16.0,0 98.0,16.12,0 98.0,16.25,0 98.0,16.38,0 98.0,16.5,0 98.0,16.62,0 98.0,16.75,0 98.0,16.88,0 98.0,17.0,0 98.0,17.12,0 98.0,17.25,0 98.0,17.38,0 98.0,17.5,0 98.0,17.62,0 98.0,17.75,0 98.0,17.88,0 98.0,18.0,0 98.0,18.12,0 98.0,18.25,0 98.0,18.38,0 98.0,18.5,0 98.0,18.62,0 98.0,18.75,0 98.0,18.88,0 98.0,19.0,0 98.0,19.12,0 98.0,19.25,0 98.0,19.38,0 98.0,19.5,0 98.0,19.62,0 98.0,19.75,0 98.0,19.88,0 98.0,20.0,0 98.0,20.12,0 98.0,20.25,0 98.0,20.38,0 98.0,20.5,0 98.0,20.62,0 98.0,20.75,0 98.0,20.88,0 98.0,21.0,0 98.0,21.12,0 98.0,21.25,0 98.0,21.38,0 98.0,21.5,0 98.0,21.62,0 98.0,21.75,0 98.0,21.88,0 98.0,22.0,0 98.0,22.12,0 98.0,22.25,0 98.0,22.38,0 98.0,22.5,0 98.0,22.62,0 98.0,22.75,0 98.0,22.88,0 98.0,23.0,0 98.0,23.12,0 98.0,23.25,0 98.0,23.38,0 98.0,23.5,0 98.0,23.62,0 98.0,23.75,0 98.0,23.88,0 98.0,24.0,0 98.0,24.12,0 98.0,24.25,0 98.0,24.38,0 98.0,24.5,0 98.0,24.62,0 98.0,24.75,0 98.0,24.88,0 98.0,25.0,0 98.0,25.12,0 98.0,25.25,0 98.0,25.38,0 98.0,25.5,0 98.0,25.62,0 98.0,25.75,0 98.0,25.88,0 98.0,26.0,0 98.0,26.12,0 98.0,26.25,0 98.0,26.38,0 98.0,26.5,0 98.0,26.62,0 98.0,26.75,0 98.0,26.88,0 98.0,27.0,0 98.0,27.12,0 98.0,27.25,0 98.0,27.38,0 98.0,27.5,0 98.0,27.62,0 98.0,27.75,0 98.0,27.88,0 98.0,28.0,0 98.0,28.12,0 98.0,28.25,0 98.0,28.38,0 98.0,28.5,0 98.0,28.62,0 98.0,28.75,0 98.0,28.88,0 98.0,29.0,0 98.0,29.12,0 98.0,29.25,0 98.0,29.38,0 98.0,29.5,0 98.0,29.62,0 98.0,29.75,0 98.0,29.88,0 98.0,30.0,0 98.0,30.12,0 98.0,30.25,0 98.0,30.38,0 98.0,30.5,0 98.0,30.62,0 98.0,30.75,0 98.0,30.88,0 98.0,31.0,0 98.0,31.12,0 98.0,31.25,0 98.0,31.38,0 98.0,31.5,0 98.0,31.62,0 98.0,31.75,0 98.0,31.88,0 98.0,32.0,0 98.0,32.12,0 98.0,32.25,0 98.0,32.38,0 98.0,32.5,0 98.0,32.62,0 98.0,32.75,0 98.0,32.88,0 98.0,33.0,0 98.0,33.12,0 98.0,33.25,0 98.0,33.38,0 98.0,33.5,0 98.0,33.62,0 98.0,33.75,0 98.0,33.88,0 98.0,34.0,0 98.0,34.12,0 98.0,34.25,0 98.0,34.38,0 98.0,34.5,0 98.0,34.62,0 98.0,34.75,0 98.0,34.88,0 98.0,35.0,0 98.0,35.12,0 98.0,35.25,0 98.0,35.38,0 98.0,35.5,0 98.0,35.62,0 98.0,35.75,0 98.0,35.88,0 98.0,36.0,0 98.0,36.12,0 98.0,36.25,0 98.0,36.38,0 98.0,36.5,0 98.0,36.62,0 98.0,36.75,0 98.0,36.88,0 98.0,37.0,0 98.0,37.12,0 98.0,37.25,0 98.0,37.38,0 98.0,37.5,0 98.0,37.62,0 98.0,37.75,0 98.0,37.88,0 98.0,38.0,0 97.88,38.0,0 97.75,38.0,0 97.62,38.0,0 97.5,38.0,0 97.38,38.0,0 97.25,38.0,0 97.12,38.0,0 97.0,38.0,0 96.88,38.0,0 96.75,38.0,0 96.62,38.0,0 96.5,38.0,0 96.38,38.0,0 96.25,38.0,0 96.12,38.0,0 96.0,38.0,0 95.88,38.0,0 95.75,38.0,0 95.62,38.0,0 95.5,38.0,0 95.38,38.0,0 95.25,38.0,0 95.12,38.0,0 95.0,38.0,0 94.88,38.0,0 94.75,38.0,0 94.62,38.0,0 94.5,38.0,0 94.38,38.0,0 94.25,38.0,0 94.12,38.0,0 94.0,38.0,0 93.88,38.0,0 93.75,38.0,0 93.62,38.0,0 93.5,38.0,0 93.38,38.0,0 93.25,38.0,0 93.12,38.0,0 93.0,38.0,0 92.88,38.0,0 92.75,38.0,0 92.62,38.0,0 92.5,38.0,0 92.38,38.0,0 92.25,38.0,0 92.12,38.0,0 92.0,38.0,0 91.88,38.0,0 91.75,38.0,0 91.62,38.0,0 91.5,38.0,0 91.38,38.0,0 91.25,38.0,0 91.12,38.0,0 91.0,38.0,0 90.88,38.0,0 90.75,38.0,0 90.62,38.0,0 90.5,38.0,0 90.38,38.0,0 90.25,38.0,0 90.12,38.0,0 90.0,38.0,0 89.88,38.0,0 89.75,38.0,0 89.62,38.0,0 89.5,38.0,0 89.38,38.0,0 89.25,38.0,0 89.12,38.0,0 89.0,38.0,0 88.88,38.0,0 88.75,38.0,0 88.62,38.0,0 88.5,38.0,0 88.38,38.0,0 88.25,38.0,0 88.12,38.0,0 88.0,38.0,0 87.88,38.0,0 87.75,38.0,0 87.62,38.0,0 87.5,38.0,0 87.38,38.0,0 87.25,38.0,0 87.12,38.0,0 87.0,38.0,0 86.88,38.0,0 86.75,38.0,0 86.62,38.0,0 86.5,38.0,0 86.38,38.0,0 86.25,38.0,0 86.12,38.0,0 86.0,38.0,0 85.88,38.0,0 85.75,38.0,0 85.62,38.0,0 85.5,38.0,0 85.38,38.0,0 85.25,38.0,0 85.12,38.0,0 85.0,38.0,0 84.88,38.0,0 84.75,38.0,0 84.62,38.0,0 84.5,38.0,0 84.38,38.0,0 84.25,38.0,0 84.12,38.0,0 84.0,38.0,0 83.88,38.0,0 83.75,38.0,0 83.62,38.0,0 83.5,38.0,0 83.38,38.0,0 83.25,38.0,0 83.12,38.0,0 83.0,38.0,0 82.88,38.0,0 82.75,38.0,0 82.62,38.0,0 82.5,38.0,0 82.38,38.0,0 82.25,38.0,0 82.12,38.0,0 82.0,38.0,0 81.88,38.0,0 81.75,38.0,0 81.62,38.0,0 81.5,38.0,0 81.38,38.0,0 81.25,38.0,0 81.12,38.0,0 81.0,38.0,0 80.88,38.0,0 80.75,38.0,0 80.62,38.0,0 80.5,38.0,0 80.38,38.0,0 80.25,38.0,0 80.12,38.0,0 80.0,38.0,0 79.88,38.0,0 79.75,38.0,0 79.62,38.0,0 79.5,38.0,0 79.38,38.0,0 79.25,38.0,0 79.12,38.0,0 79.0,38.0,0 78.88,38.0,0 78.75,38.0,0 78.62,38.0,0 78.5,38.0,0 78.38,38.0,0 78.25,38.0,0 78.12,38.0,0 78.0,38.0,0 77.88,38.0,0 77.75,38.0,0 77.62,38.0,0 77.5,38.0,0 77.38,38.0,0 77.25,38.0,0 77.12,38.0,0 77.0,38.0,0 76.88,38.0,0 76.75,38.0,0 76.62,38.0,0 76.5,38.0,0 76.38,38.0,0 76.25,38.0,0 76.12,38.0,0 76.0,38.0,0 75.88,38.0,0 75.75,38.0,0 75.62,38.0,0 75.5,38.0,0 75.38,38.0,0 75.25,38.0,0 75.12,38.0,0 75.0,38.0,0 74.88,38.0,0 74.75,38.0,0 74.62,38.0,0 74.5,38.0,0 74.38,38.0,0 74.25,38.0,0 74.12,38.0,0 74.0,38.0,0 73.88,38.0,0 73.75,38.0,0 73.62,38.0,0 73.5,38.0,0 73.38,38.0,0 73.25,38.0,0 73.12,38.0,0 73.0,38.0,0 72.88,38.0,0 72.75,38.0,0 72.62,38.0,0 72.5,38.0,0 72.38,38.0,0 72.25,38.0,0 72.12,38.0,0 72.0,38.0,0 71.88,38.0,0 71.75,38.0,0 71.62,38.0,0 71.5,38.0,0 71.38,38.0,0 71.25,38.0,0 71.12,38.0,0 71.0,38.0,0 70.88,38.0,0 70.75,38.0,0 70.62,38.0,0 70.5,38.0,0 70.38,38.0,0 70.25,38.0,0 70.12,38.0,0 70.0,38.0,0 69.88,38.0,0 69.75,38.0,0 69.62,38.0,0 69.5,38.0,0 69.38,38.0,0 69.25,38.0,0 69.12,38.0,0 69.0,38.0,0 68.88,38.0,0 68.75,38.0,0 68.62,38.0,0 68.5,38.0,0 68.38,38.0,0 68.25,38.0,0 68.12,38.0,0 68.0,38.0,0 67.88,38.0,0 67.75,38.0,0 67.62,38.0,0 67.5,38.0,0 67.38,38.0,0 67.25,38.0,0 67.12,38.0,0 67.0,38.0,0 66.98,38.0,0 66.96,37.88,0 66.93,37.75,0 66.9,37.62,0 66.88,37.51,0 66.87,37.5,0 66.84,37.38,0 66.82,37.25,0 66.79,37.12,0 66.76,37.0,0 66.75,36.94,0 66.74,36.88,0 66.66,36.75,0 66.62,36.72,0 66.55,36.62,0 66.5,36.57,0 66.44,36.5,0 66.38,36.43,0 66.32,36.38,0 66.25,36.3,0 66.21,36.25,0 66.21,36.12,0 66.12,36.04,0 66.09,36.0,0 66.0,35.91,0 66.0,35.88,0 66.0,35.75,0 66.0,35.62,0 66.0,35.5,0 66.0,35.38,0 66.0,35.25,0 66.0,35.12,0 66.0,35.0,0 66.0,34.88,0 66.0,34.75,0 66.0,34.62,0 66.0,34.5,0 66.0,34.38,0 66.0,34.25,0 66.0,34.12,0 66.0,34.0,0 66.0,33.88,0 66.0,33.75,0 66.0,33.62,0 66.0,33.5,0 66.0,33.38,0 66.0,33.25,0 66.0,33.12,0 66.0,33.0,0 66.0,32.88,0 66.0,32.75,0 66.0,32.62,0 66.0,32.5,0 66.0,32.38,0 66.0,32.25,0 66.0,32.12,0 66.0,32.0,0 66.0,31.88,0 66.0,31.75,0 66.0,31.62,0 66.0,31.5,0 66.0,31.38,0 66.0,31.25,0 66.0,31.12,0 66.0,31.0,0 66.0,30.88,0 66.0,30.75,0 66.0,30.62,0 66.0,30.5,0 66.0,30.38,0 66.0,30.25,0 66.0,30.12,0 66.0,30.0,0 66.0,29.88,0 66.0,29.75,0 66.0,29.62,0 66.0,29.5,0 66.0,29.38,0 66.0,29.25,0 66.0,29.12,0 66.0,29.0,0 66.0,28.88,0 66.0,28.75,0 66.0,28.62,0 66.0,28.5,0 66.0,28.38,0 66.0,28.25,0 66.0,28.12,0 66.0,28.0,0 66.0,27.88,0 66.0,27.75,0 66.0,27.62,0 66.0,27.5,0 66.0,27.38,0 66.0,27.25,0 66.0,27.12,0 66.0,27.0,0 66.0,26.88,0 66.0,26.75,0 66.0,26.62,0 66.0,26.5,0 66.0,26.38,0 66.0,26.25,0 66.0,26.12,0 66.0,26.0,0 66.0,25.88,0 66.0,25.75,0 66.0,25.62,0 66.0,25.5,0 66.0,25.38,0 66.0,25.25,0 66.0,25.12,0 66.0,25.0,0 66.0,24.88,0 66.0,24.75,0 66.0,24.62,0 66.0,24.5,0 66.0,24.38,0 66.0,24.25,0 66.0,24.12,0 66.0,24.0,0 66.0,23.88,0 66.0,23.75,0 66.0,23.62,0 66.0,23.5,0 66.0,23.38,0 66.0,23.25,0 66.01,23.25,0 66.12,23.22,0 66.25,23.18,0 66.38,23.14,0 66.41,23.12,0 66.5,23.1,0 66.62,23.06,0 66.75,23.02,0 66.81,23.0,0 66.88,22.98,0 67.0,22.94,0 67.12,22.9,0 67.2,22.88,0 67.25,22.86,0 67.38,22.82,0 67.5,22.78,0 67.58,22.75,0 67.62,22.74,0 67.75,22.7,0 67.88,22.65,0 67.96,22.62,0 68.0,22.61,0 68.12,22.57,0 68.25,22.53,0 68.34,22.5,0 68.38,22.49,0 68.5,22.45,0 68.62,22.4,0 68.71,22.38,0 68.75,22.36,0 68.88,22.32,0 69.0,22.28,0 69.08,22.25,0 69.12,22.23,0 69.25,22.19,0 69.38,22.15,0 69.44,22.12,0 69.5,22.1,0 69.62,22.06,0 69.75,22.02,0 69.8,22.0,0 69.88,21.97,0 70.0,21.93,0 70.12,21.89,0 70.16,21.88,0 70.25,21.84,0 70.38,21.8,0 70.5,21.75,0 70.51,21.75,0 70.62,21.71,0 70.75,21.67,0 70.87,21.62,0 70.88,21.62,0 71.0,21.58,0 71.12,21.53,0 71.21,21.5,0 71.25,21.49,0 71.38,21.44,0 71.5,21.4,0 71.56,21.38,0 71.62,21.35,0 71.75,21.31,0 71.88,21.26,0 71.9,21.25,0 72.0,21.21,0 72.12,21.17,0 72.24,21.12,0 72.25,21.12,0 72.38,21.08,0 72.5,21.03,0 72.58,21.0,0 72.62,20.98,0 72.75,20.94,0 72.88,20.89,0 72.91,20.88,0 73.0,20.84,0 73.12,20.8,0 73.25,20.75,0 73.25,20.75,0 73.38,20.7,0 73.5,20.65,0 73.58,20.62,0 73.62,20.61,0 73.75,20.56,0 73.88,20.51,0 73.91,20.5,0 74.0,20.46,0 74.12,20.42,0 74.23,20.38,0 74.25,20.37,0 74.38,20.32,0 74.5,20.27,0 74.56,20.25,0 74.62,20.22,0 74.75,20.18,0 74.88,20.13,0 74.88,20.12,0 75.0,20.08,0 75.12,20.03,0 75.2,20.0,0 75.25,19.98,0 75.38,19.93,0 75.5,19.88,0 75.52,19.88,0 75.62,19.83,0 75.75,19.78,0 75.84,19.75,0 75.88,19.74,0 76.0,19.69,0 76.12,19.64,0 76.15,19.62,0 76.25,19.59,0 76.38,19.54,0 76.47,19.5,0 76.5,19.49,0 76.62,19.44,0 76.75,19.39,0 76.78,19.38,0 76.88,19.34,0 77.0,19.29,0 77.09,19.25,0 77.12,19.24,0 77.25,19.19,0 77.38,19.14,0 77.4,19.12,0 77.5,19.08,0 77.62,19.03,0 77.71,19.0,0 77.75,18.98,0 77.88,18.93,0 78.0,18.88,0 78.02,18.88,0 78.12,18.83,0 78.25,18.78,0 78.32,18.75,0 78.38,18.73,0 78.5,18.68,0 78.62,18.63,0 78.63,18.62,0 78.75,18.57,0 78.88,18.52,0 78.93,18.5,0 79.0,18.47,0 79.12,18.42,0 79.23,18.38,0 79.25,18.37,0 79.38,18.32,0 79.5,18.26,0 79.53,18.25,0 79.62,18.21,0 79.75,18.16,0 79.83,18.12,0 79.88,18.11,0 80.0,18.05,0 80.12,18.0,0 80.13,18.0,0 80.25,17.95,0 80.37,17.9,0 80.43,17.88,0 80.5,17.84,0 80.62,17.79,0 80.72,17.75,0 80.75,17.74,0 80.88,17.69,0 81.0,17.63,0 81.02,17.62,0 81.12,17.58,0 81.25,17.53,0 81.31,17.5,0 81.38,17.47,0 81.5,17.42,0 81.61,17.38,0 81.62,17.37,0 81.75,17.31,0 81.88,17.26,0 81.9,17.25,0 82.0,17.21,0 82.12,17.15,0 82.19,17.12,0 82.25,17.1,0 82.38,17.05,0 82.49,17.0,0 82.5,16.99,0 82.62,16.94,0 82.75,16.89,0 82.78,16.88,0 82.88,16.83,0 83.0,16.78,0 83.07,16.75,0 83.12,16.72,0 83.25,16.67,0 83.36,16.62,0 83.38,16.62,0 83.5,16.56,0 83.62,16.51,0 83.64,16.5,0 83.75,16.45,0 83.88,16.4,0 83.93,16.38,0 84.0,16.35,0 84.12,16.29,0 84.22,16.25,0 84.25,16.24,0 84.38,16.18,0 84.5,16.13,0 84.51,16.12,0 84.62,16.07,0 84.75,16.02,0 84.79,16.0,0 84.88,15.96,0 85.0,15.91,0 85.08,15.88,0 85.12,15.85,0 85.25,15.8,0 85.36,15.75,0 85.38,15.74,0 85.5,15.69,0 85.62,15.63,0 85.65,15.62,0 85.75,15.58,0 85.88,15.52,0 85.93,15.5,0 86.0,15.47,0 86.12,15.41,0 86.21,15.38,0 86.25,15.36,0 86.38,15.3,0 86.5,15.25,0 86.5,15.25,0 86.62,15.19,0 86.75,15.14,0 86.78,15.12,0 86.88,15.08,0 87.0,15.03,0 87.06,15.0,0 87.12,14.97,0 87.25,14.92,0 87.34,14.88,0 87.38,14.86,0 87.5,14.8,0 87.62,14.75,0 87.62,14.75,0 87.75,14.69,0 87.88,14.64,0 87.9,14.62,0 88.0,14.58,0 88.12,14.53,0 88.18,14.5,0 88.25,14.47,0 88.38,14.41,0 88.46,14.38,0 88.5,14.36,0 88.62,14.3,0 88.74,14.25,0 88.75,14.25,0 88.88,14.19,0 89.0,14.14,0 89.02,14.12,0 89.12,14.08,0 89.25,14.02,0 89.3,14.0,0 89.38,13.97,0 89.5,13.91,0 89.58,13.88,0 89.62,13.86,0 89.75,13.8,0 89.86,13.75,0 89.88,13.74,0 90.0,13.69,0 90.12,13.63,0 90.14,13.62,0 90.25,13.57,0 90.38,13.52,0 90.42,13.5,0 90.5,13.46,0 90.63,13.41,0 90.69,13.38,0 90.75,13.35,0 90.88,13.29,0 90.97,13.25,0 91.0,13.24,0 91.12,13.18,0 91.25,13.12,0 91.25,13.12,0 91.38,13.07,0 91.5,13.01,0 91.52,13.0,0 91.62,12.95,0 91.75,12.9,0 91.8,12.87,0 91.88,12.84,0 92.0,12.78,0 92.08,12.75,0 92.12,12.73,0 92.25,12.67,0 92.35,12.62,0 92.38,12.61,0 92.5,12.56,0 92.62,12.5,0 92.63,12.5,0 92.75,12.45,0 92.88,12.39,0 92.91,12.38,0 93.0,12.33,0 93.13,12.28,0 93.18,12.25,0 93.25,12.22,0 93.38,12.16,0 93.46,12.12,0 93.5,12.11,0 93.62,12.05,0 93.73,12.0,0 93.75,11.99,0 93.88,11.94,0 94.0,11.88,0 94.01,11.88,0 94.12,11.82,0 94.25,11.77,0 94.28,11.75,0 94.38,11.71,0 94.5,11.65,0 94.56,11.62,0 94.62,11.6,0 94.75,11.54,0 94.83,11.5,0 94.88,11.48,0 95.0,11.42,0 95.11,11.38,0 95.12,11.37,0 95.25,11.31,0 95.38,11.25,0 95.39,11.25,0 95.5,11.2,0 95.62,11.14,0 95.66,11.12,0 95.75,11.08,0 95.88,11.03,0 95.94,11.0,0 96.0,10.97,0 96.12,10.91,0 96.21,10.88,0 96.25,10.86,0 96.38,10.8,0 96.49,10.75,0 96.5,10.74,0 96.62,10.69,0 96.75,10.63,0 96.76,10.62,0 96.88,10.57,0 97.0,10.52,0 97.04,10.5,0 97.12,10.46,0 97.25,10.4,0 97.31,10.38,0 97.38,10.35,0 97.5,10.29,0 97.59,10.25,0 97.62,10.23,0 97.75,10.18,0 97.86,10.12,0</coordinates></LinearRing></outerBoundaryIs></Polygon></Placemark>
</Folder><Folder><name>Cities</name>
<Placemark><name>Agartala</name><styleUrl>#city</styleUrl><description>D1 19:52:10 · D2 19:52:10 · R1 20:47:37 · R2 20:47:37 (IST)</description><Point><coordinates>91.2868,23.8315,0</coordinates></Point></Placemark>
<Placemark><name>Agra</name><styleUrl>#city</styleUrl><description>D1 19:42:17 · D2 19:42:17 · R1 20:40:26 · R2 20:40:26 (IST)</description><Point><coordinates>78.0081,27.1767,0</coordinates></Point></Placemark>
<Placemark><name>Ahmedabad</name><styleUrl>#city</styleUrl><description>D1 19:53:51 · D2 19:53:51 · R1 20:27:59 · R2 20:27:59 (IST)</description><Point><coordinates>72.5714,23.0225,0</coordinates></Point></Placemark>
<Placemark><name>Aizawl</name><styleUrl>#city</styleUrl><description>D1 19:52:24 · D2 19:52:24 · R1 20:47:56 · R2 20:47:56 (IST)</description><Point><coordinates>92.7176,23.7271,0</coordinates></Point></Placemark>
<Placemark><name>Ajmer</name><styleUrl>#city</styleUrl><description>D1 19:42:16 · D2 19:42:16 · R1 20:36:37 · R2 20:36:37 (IST)</description><Point><coordinates>74.6399,26.4499,0</coordinates></Point></Placemark>
<Placemark><name>Akola</name><styleUrl>#city</styleUrl><description>D1 20:03:13 · D2 20:03:13 · R1 20:30:31 · R2 20:30:31 (IST)</description><Point><coordinates>77.0082,20.7002,0</coordinates></Point></Placemark>
<Placemark><name>Allahabad</name><styleUrl>#city</styleUrl><description>D1 19:47:39 · D2 19:47:39 · R1 20:43:09 · R2 20:43:09 (IST)</description><Point><coordinates>81.8463,25.4358,0</coordinates></Point></Placemark>
<Placemark><name>Almora</name><styleUrl>#city</styleUrl><description>D1 19:38:35 · D2 19:38:35 · R1 20:41:29 · R2 20:41:29 (IST)</description><Point><coordinates>79.6591,29.5971,0</coordinates></Point></Placemark>
<Placemark><name>Ambala</name><styleUrl>#city</styleUrl><description>D1 19:35:07 · D2 19:35:07 · R1 20:39:17 · R2 20:39:17 (IST)</description><Point><coordinates>76.7767,30.3782,0</coordinates></Point></Placemark>
<Placemark><name>Amritsar</name><styleUrl>#city</styleUrl><description>D1 19:31:14 · D2 19:31:14 · R1 20:37:24 · R2 20:37:24 (IST)</description><Point><coordinates>74.8723,31.634,0</coordinates></Point></Placemark>
<Placemark><name>Anand</name><styleUrl>#city</styleUrl><description>D1 19:56:14 · D2 19:56:14 · R1 20:27:22 · R2 20:27:22 (IST)</description><Point><coordinates>72.9289,22.5645,0</coordinates></Point></Placemark>
<Placemark><name>Asansol</name><styleUrl>#city</styleUrl><description>D1 19:52:09 · D2 19:52:09 · R1 20:45:59 · R2 20:45:59 (IST)</description><Point><coordinates>86.9661,23.6889,0</coordinates></Point></Placemark>
<Placemark><name>Aurangabad</name><styleUrl>#city</styleUrl><description>near miss: Alcyone passes 0.1′ from the limb (IST)</description><Point><coordinates>75.3433,19.8762,0</coordinates></Point></Placemark>
<Placemark><name>Ayodhya</name><styleUrl>#city</styleUrl><description>D1 19:44:58 · D2 19:44:58 · R1 20:43:30 · R2 20:43:30 (IST)</description><Point><coordinates>82.1998,26.7922,0</coordinates></Point></Placemark>
<Placemark><name>Balasore</name><styleUrl>#city</styleUrl><description>D1 19:56:47 · D2 19:56:47 · R1 20:45:02 · R2 20:45:02 (IST)</description><Point><coordinates>86.9135,21.4934,0</coordinates></Point></Placemark>
<Placemark><name>Bangalore</name><styleUrl>#city</styleUrl><description>near miss: Alcyone passes 5.5′ from the limb (IST)</description><Point><coordinates>77.5946,12.9716,0</coordinates></Point></Placemark>
<Placemark><name>Bankura</name><styleUrl>#city</styleUrl><description>D1 19:53:04 · D2 19:53:04 · R1 20:45:55 · R2 20:45:55 (IST)</description><Point><coordinates>87.0649,23.2324,0</coordinates></Point></Placemark>
<Placemark><name>Bareilly</name><styleUrl>#city</styleUrl><description>D1 19:40:36 · D2 19:40:36 · R1 20:41:34 · R2 20:41:34 (IST)</description><Point><coordinates>79.4304,28.367,0</coordinates></Point></Placemark>
<Placemark><name>Bauxar</name><styleUrl>#city</styleUrl><description>D1 19:47:58 · D2 19:47:58 · R1 20:44:34 · R2 20:44:34 (IST)</description><Point><coordinates>83.9777,25.5647,0</coordinates></Point></Placemark>
<Placemark><name>Belgaon</name><styleUrl>#city</styleUrl><description>near miss: Alcyone passes 4.0′ from the limb (IST)</description><Point><coordinates>74.4977,15.8497,0</coordinates></Point></Placemark>
<Placemark><name>Berhampur</name><styleUrl>#city</styleUrl><description>D1 20:03:27 · D2 20:03:27 · R1 20:40:35 · R2 20:40:35 (IST)</description><Point><coordinates>84.7941,19.315,0</coordinates></Point></Placemark>
<Placemark><name>Bhagalpur</name><styleUrl>#city</styleUrl><description>D1 19:49:14 · D2 19:49:14 · R1 20:46:04 · R2 20:46:04 (IST)</description><Point><coordinates>86.9842,25.2425,0</coordinates></Point></Placemark>
<Placemark><name>Bharatpur</name><styleUrl>#city</styleUrl><description>D1 19:41:57 · D2 19:41:57 · R1 20:39:59 · R2 20:39:59 (IST)</description><Point><coordinates>77.503,27.2152,0</coordinates></Point></Placemark>
<Placemark><name>Bhavnagar</name><styleUrl>#city</styleUrl><description>D1 20:02:20 · D2 20:02:20 · R1 20:21:27 · R2 20:21:27 (IST)</description><Point><coordinates>72.1519,21.7645,0</coordinates></Point></Placemark>
<Placemark><name>Bhopal</name><styleUrl>#city</styleUrl><description>D1 19:52:28 · D2 19:52:28 · R1 20:36:57 · R2 20:36:57 (IST)</description><Point><coordinates>77.4126,23.2599,0</coordinates></Point></Placemark>
<Placemark><name>Bhubaneswar</name><styleUrl>#city</styleUrl><description>D1 19:59:58 · D2 19:59:58 · R1 20:43:03 · R2 20:43:03 (IST)</description><Point><coordinates>85.8245,20.2961,0</coordinates></Point></Placemark>
<Placemark><name>Bhuj</name><styleUrl>#city</styleUrl><description>D1 19:53:58 · D2 19:53:58 · R1 20:21:28 · R2 20:21:28 (IST)</description><Point><coordinates>69.6669,23.242,0</coordinates></Point></Placemark>
<Placemark><name>Bijapur</name><styleUrl>#city</styleUrl><description>near miss: Alcyone passes 2.7′ from the limb (IST)</description><Point><coordinates>75.71,16.8302,0</coordinates></Point></Placemark>
<Placemark><name>Bikaner</name><styleUrl>#city</styleUrl><description>D1 19:37:25 · D2 19:37:25 · R1 20:35:54 · R2 20:35:54 (IST)</description><Point><coordinates>73.3119,28.0229,0</coordinates></Point></Placemark>
<Placemark><name>Bilaspur</name><styleUrl>#city</styleUrl><description>D1 19:55:47 · D2 19:55:47 · R1 20:41:20 · R2 20:41:20 (IST)</description><Point><coordinates>82.1409,22.0797,0</coordinates></Point></Placemark>
<Placemark><name>Bokaro</name><styleUrl>#city</styleUrl><description>D1 19:52:08 · D2 19:52:08 · R1 20:45:32 · R2 20:45:32 (IST)</description><Point><coordinates>86.1511,23.6693,0</coordinates></Point></Placemark>
<Placemark><name>Cannanore</name><styleUrl>#city</styleUrl><description>near miss: Alcyone passes 7.3′ from the limb (IST)</description><Point><coordinates>75.3704,11.8745,0</coordinates></Point></Placemark>
<Placemark><name>Champa</name><styleUrl>#city</styleUrl><description>D1 19:55:52 · D2 19:55:52 · R1 20:41:50 · R2 20:41:50 (IST)</description><Point><coordinates>82.6576,22.0354,0</coordinates></Point></Placemark>
<Placemark><name>Chandigarh</name><styleUrl>#city</styleUrl><description>D1 19:34:29 · D2 19:34:29 · R1 20:39:11 · R2 20:39:11 (IST)</description><Point><coordinates>76.7794,30.7333,0</coordinates></Point></Placemark>
<Placemark><name>Chennai</name><styleUrl>#city</styleUrl><description>near miss: Alcyone passes 4.3′ from the limb (IST)</description><Point><coordinates>80.2707,13.0827,0</coordinates></Point></Placemark>
<Placemark><name>Chittoor (A.P.)</name><styleUrl>#city</styleUrl><description>near miss: Alcyone passes 4.7′ from the limb (IST)</description><Point><coordinates>79.1003,13.2172,0</coordinates></Point></Placemark>
<Placemark><name>Chittorgarh</name><styleUrl>#city</styleUrl><description>D1 19:46:45 · D2 19:46:45 · R1 20:35:07 · R2 20:35:07 (IST)</description><Point><coordinates>74.6269,24.8887,0</coordinates></Point></Placemark>
<Placemark><name>Cochin</name><styleUrl>#city</styleUrl><description>near miss: Alcyone passes 8.7′ from the limb (IST)</description><Point><coordinates>76.2673,9.9312,0</coordinates></Point></Placemark>
<Placemark><name>Coimbatore</name><styleUrl>#city</styleUrl><description>near miss: Alcyone passes 7.5′ from the limb (IST)</description><Point><coordinates>76.9558,11.0168,0</coordinates></Point></Placemark>
<Placemark><name>Cooch Bihar</name><styleUrl>#city</styleUrl><description>D1 19:48:06 · D2 19:48:06 · R1 20:46:37 · R2 20:46:37 (IST)</description><Point><coordinates>89.4482,26.3452,0</coordinates></Point></Placemark>
<Placemark><name>Cuddalore</name><styleUrl>#city</styleUrl><description>near miss: Alcyone passes 5.7′ from the limb (IST)</description><Point><coordinates>79.7714,11.748,0</coordinates></Point></Placemark>
<Placemark><name>Cuttack</name><styleUrl>#city</styleUrl><description>D1 19:59:28 · D2 19:59:28 · R1 20:43:20 · R2 20:43:20 (IST)</description><Point><coordinates>85.883,20.4625,0</coordinates></Point></Placemark>
<Placemark><name>Darjeeling</name><styleUrl>#city</styleUrl><description>D1 19:46:43 · D2 19:46:43 · R1 20:46:05 · R2 20:46:05 (IST)</description><Point><coordinates>88.2663,27.041,0</coordinates></Point></Placemark>
<Placemark><name>Dehradun</name><styleUrl>#city</styleUrl><description>D1 19:36:11 · D2 19:36:11 · R1 20:40:11 · R2 20:40:11 (IST)</description><Point><coordinates>78.0322,30.3165,0</coordinates></Point></Placemark>
<Placemark><name>Delhi</name><styleUrl>#city</styleUrl><description>D1 19:38:43 · D2 19:38:43 · R1 20:39:51 · R2 20:39:51 (IST)</description><Point><coordinates>77.209,28.6139,0</coordinates></Point></Placemark>
<Placemark><name>Dhanbad</name><styleUrl>#city</styleUrl><description>D1 19:51:54 · D2 19:51:54 · R1 20:45:43 · R2 20:45:43 (IST)</description><Point><coordinates>86.4304,23.7957,0</coordinates></Point></Placemark>
<Placemark><name>Diamond Harbour</name><styleUrl>#city</styleUrl><description>D1 19:55:10 · D2 19:55:10 · R1 20:46:08 · R2 20:46:08 (IST)</description><Point><coordinates>88.1868,22.191,0</coordinates></Point></Placemark>
<Placemark><name>Dibrugarh</name><styleUrl>#city</styleUrl><description>D1 19:47:53 · D2 19:47:53 · R1 20:46:33 · R2 20:46:33 (IST)</description><Point><coordinates>94.912,27.4728,0</coordinates></Point></Placemark>
<Placemark><name>Dimapur</name><styleUrl>#city</styleUrl><description>D1 19:49:31 · D2 19:49:31 · R1 20:47:21 · R2 20:47:21 (IST)</description><Point><coordinates>93.7272,25.9065,0</coordinates></Point></Placemark>
<Placemark><name>Diu</name><styleUrl>#city</styleUrl><description>near miss: Alcyone passes 0.8′ from the limb (IST)</description><Point><coordinates>70.9874,20.7144,0</coordinates></Point></Placemark>
<Placemark><name>Durg</name><styleUrl>#city</styleUrl><description>D1 19:58:46 · D2 19:58:46 · R1 20:39:08 · R2 20:39:08 (IST)</description><Point><coordinates>81.2849,21.1904,0</coordinates></Point></Placemark>
<Placemark><name>Dwarka</name><styleUrl>#city</styleUrl><description>near miss: Alcyone passes 0.1′ from the limb (IST)</description><Point><coordinates>68.9678,22.2394,0</coordinates></Point></Placemark>
<Placemark><name>Etawah</name><styleUrl>#city</styleUrl><description>D1 19:43:38 · D2 19:43:38 · R1 20:41:13 · R2 20:41:13 (IST)</description><Point><coordinates>79.0152,26.7856,0</coordinates></Point></Placemark>
<Placemark><name>Faizabad</name><styleUrl>#city</styleUrl><description>D1 19:44:59 · D2 19:44:59 · R1 20:43:28 · R2 20:43:28 (IST)</description><Point><coordinates>82.1446,26.7735,0</coordinates></Point></Placemark>
<Placemark><name>Ferozpur</name><styleUrl>#city</styleUrl><description>D1 19:32:18 · D2 19:32:18 · R1 20:37:25 · R2 20:37:25 (IST)</description><Point><coordinates>74.6136,30.9332,0</coordinates></Point></Placemark>
<Placemark><name>Gandhinagar</name><styleUrl>#city</styleUrl><description>D1 19:53:04 · D2 19:53:04 · R1 20:28:41 · R2 20:28:41 (IST)</description><Point><coordinates>72.6369,23.2156,0</coordinates></Point></Placemark>
<Placemark><name>Gangtok</name><styleUrl>#city</styleUrl><description>D1 19:46:25 · D2 19:46:25 · R1 20:46:02 · R2 20:46:02 (IST)</description><Point><coordinates>88.6065,27.3389,0</coordinates></Point></Placemark>
<Placemark><name>Gaya</name><styleUrl>#city</styleUrl><description>D1 19:49:43 · D2 19:49:43 · R1 20:45:06 · R2 20:45:06 (IST)</description><Point><coordinates>84.9994,24.7955,0</coordinates></Point></Placemark>
<Placemark><name>Gopalpur</name><styleUrl>#city</styleUrl><description>D1 20:03:34 · D2 20:03:34 · R1 20:40:38 · R2 20:40:38 (IST)</description><Point><coordinates>84.9052,19.2594,0</coordinates></Point></Placemark>
<Placemark><name>Gorakhpur</name><styleUrl>#city</styleUrl><description>D1 19:45:28 · D2 19:45:28 · R1 20:44:13 · R2 20:44:13 (IST)</description><Point><coordinates>83.3732,26.7606,0</coordinates></Point></Placemark>
<Placemark><name>Gulmarg</name><styleUrl>#city</styleUrl><description>D1 19:26:54 · D2 19:26:54 · R1 20:35:41 · R2 20:35:41 (IST)</description><Point><coordinates>74.3805,34.0484,0</coordinates></Point></Placemark>
<Placemark><name>Gurgaon</name><styleUrl>#city</styleUrl><description>D1 19:38:57 · D2 19:38:57 · R1 20:39:44 · R2 20:39:44 (IST)</description><Point><coordinates>77.0266,28.4595,0</coordinates></Point></Placemark>
<Placemark><name>Guwahati</name><styleUrl>#city</styleUrl><description>D1 19:48:51 · D2 19:48:51 · R1 20:47:05 · R2 20:47:05 (IST)</description><Point><coordinates>91.7362,26.1445,0</coordinates></Point></Placemark>
<Placemark><name>Gwalior</name><styleUrl>#city</styleUrl><description>D1 19:44:34 · D2 19:44:34 · R1 20:40:17 · R2 20:40:17 (IST)</description><Point><coordinates>78.1828,26.2183,0</coordinates></Point></Placemark>
<Placemark><name>Haridwar</name><styleUrl>#city</styleUrl><description>D1 19:36:57 · D2 19:36:57 · R1 20:40:25 · R2 20:40:25 (IST)</description><Point><coordinates>78.1642,29.9457,0</coordinates></Point></Placemark>
<Placemark><name>Hassan</name><styleUrl>#city</styleUrl><description>near miss: Alcyone passes 6.0′ from the limb (IST)</description><Point><coordinates>76.1004,13.0072,0</coordinates></Point></Placemark>
<Placemark><name>Hubli</name><styleUrl>#city</styleUrl><description>near miss: Alcyone passes 4.2′ from the limb (IST)</description><Point><coordinates>75.124,15.3647,0</coordinates></Point></Placemark>
<Placemark><name>Hyderabad</name><styleUrl>#city</styleUrl><description>near miss: Alcyone passes 1.2′ from the limb (IST)</description><Point><coordinates>78.4867,17.385,0</coordinates></Point></Placemark>
<Placemark><name>Imphal</name><styleUrl>#city</styleUrl><description>D1 19:50:57 · D2 19:50:57 · R1 20:47:46 · R2 20:47:46 (IST)</description><Point><coordinates>93.9368,24.817,0</coordinates></Point></Placemark>
<Placemark><name>Indore</name><styleUrl>#city</styleUrl><description>D1 19:54:34 · D2 19:54:34 · R1 20:33:41 · R2 20:33:41 (IST)</description><Point><coordinates>75.8577,22.7196,0</coordinates></Point></Placemark>
<Placemark><name>Itanagar</name><styleUrl>#city</styleUrl><description>D1 19:48:03 · D2 19:48:03 · R1 20:46:48 · R2 20:46:48 (IST)</description><Point><coordinates>93.6053,27.0844,0</coordinates></Point></Placemark>
<Placemark><name>Jabalpur</name><styleUrl>#city</styleUrl><description>D1 19:52:46 · D2 19:52:46 · R1 20:40:07 · R2 20:40:07 (IST)</description><Point><coordinates>79.9864,23.1815,0</coordinates></Point></Placemark>
<Placemark><name>Jaipur</name><styleUrl>#city</styleUrl><description>D1 19:41:43 · D2 19:41:43 · R1 20:38:11 · R2 20:38:11 (IST)</description><Point><coordinates>75.7873,26.9124,0</coordinates></Point></Placemark>
<Placemark><name>Jaisalmer</name><styleUrl>#city</styleUrl><description>D1 19:38:45 · D2 19:38:45 · R1 20:32:00 · R2 20:32:00 (IST)</description><Point><coordinates>70.9083,26.9157,0</coordinates></Point></Placemark>
<Placemark><name>Jalandhar</name><styleUrl>#city</styleUrl><description>D1 19:32:25 · D2 19:32:25 · R1 20:38:03 · R2 20:38:03 (IST)</description><Point><coordinates>75.5762,31.326,0</coordinates></Point></Placemark>
<Placemark><name>Jalpaiguri</name><styleUrl>#city</styleUrl><description>D1 19:47:40 · D2 19:47:40 · R1 20:46:23 · R2 20:46:23 (IST)</description><Point><coordinates>88.7333,26.5167,0</coordinates></Point></Placemark>
<Placemark><name>Jammu</name><styleUrl>#city</styleUrl><description>D1 19:29:23 · D2 19:29:23 · R1 20:36:50 · R2 20:36:50 (IST)</description><Point><coordinates>74.857,32.7266,0</coordinates></Point></Placemark>
<Placemark><name>Jamshedpur</name><styleUrl>#city</styleUrl><description>D1 19:53:55 · D2 19:53:55 · R1 20:45:14 · R2 20:45:14 (IST)</description><Point><coordinates>86.2029,22.8046,0</coordinates></Point></Placemark>
<Placemark><name>Jhansi</name><styleUrl>#city</styleUrl><description>D1 19:46:32 · D2 19:46:32 · R1 20:40:18 · R2 20:40:18 (IST)</description><Point><coordinates>78.5685,25.4484,0</coordinates></Point></Placemark>
<Placemark><name>Jodhpur</name><styleUrl>#city</styleUrl><description>D1 19:42:00 · D2 19:42:00 · R1 20:34:21 · R2 20:34:21 (IST)</description><Point><coordinates>73.0243,26.2389,0</coordinates></Point></Placemark>
<Placemark><name>Jorhat</name><styleUrl>#city</styleUrl><description>D1 19:48:34 · D2 19:48:34 · R1 20:46:59 · R2 20:46:59 (IST)</description><Point><coordinates>94.2037,26.7509,0</coordinates></Point></Placemark>
<Placemark><name>Kanpur</name><styleUrl>#city</styleUrl><description>D1 19:44:56 · D2 19:44:56 · R1 20:42:13 · R2 20:42:13 (IST)</description><Point><coordinates>80.3319,26.4499,0</coordinates></Point></Placemark>
<Placemark><name>Kanyakumari</name><styleUrl>#city</styleUrl><description>near miss: Alcyone passes 9.9′ from the limb (IST)</description><Point><coordinates>77.5385,8.0883,0</coordinates></Point></Placemark>
<Placemark><name>Kavalur</name><styleUrl>#city</styleUrl><description>near miss: Alcyone passes 5.3′ from the limb (IST)</description><Point><coordinates>78.8308,12.5766,0</coordinates></Point></Placemark>
<Placemark><name>Kharagpur</name><styleUrl>#city</styleUrl><description>D1 19:54:52 · D2 19:54:52 · R1 20:45:40 · R2 20:45:40 (IST)</description><Point><coordinates>87.232,22.346,0</coordinates></Point></Placemark>
<Placemark><name>Kohima</name><styleUrl>#city</styleUrl><description>D1 19:49:51 · D2 19:49:51 · R1 20:47:27 · R2 20:47:27 (IST)</description><Point><coordinates>94.1086,25.6751,0</coordinates></Point></Placemark>
<Placemark><name>Kolhapur</name><styleUrl>#city</styleUrl><description>near miss: Alcyone passes 3.3′ from the limb (IST)</description><Point><coordinates>74.2433,16.705,0</coordinates></Point></Placemark>
<Placemark><name>Kolkata</name><styleUrl>#city</styleUrl><description>D1 19:54:24 · D2 19:54:24 · R1 20:46:24 · R2 20:46:24 (IST)</description><Point><coordinates>88.3639,22.5726,0</coordinates></Point></Placemark>
<Placemark><name>Koraput</name><styleUrl>#city</styleUrl><description>D1 20:06:59 · D2 20:06:59 · R1 20:36:22 · R2 20:36:22 (IST)</description><Point><coordinates>82.7123,18.8135,0</coordinates></Point></Placemark>
<Placemark><name>Kota</name><styleUrl>#city</styleUrl><description>D1 19:46:12 · D2 19:46:12 · R1 20:37:08 · R2 20:37:08 (IST)</description><Point><coordinates>75.8648,25.2138,0</coordinates></Point></Placemark>
<Placemark><name>Kozhikode</name><styleUrl>#city</styleUrl><description>near miss: Alcyone passes 7.7′ from the limb (IST)</description><Point><coordinates>75.7804,11.2588,0</coordinates></Point></Placemark>
<Placemark><name>Kurnool</name><styleUrl>#city</styleUrl><description>near miss: Alcyone passes 2.7′ from the limb (IST)</description><Point><coordinates>78.0373,15.8281,0</coordinates></Point></Placemark>
<Placemark><name>Lucknow</name><styleUrl>#city</styleUrl><description>D1 19:44:21 · D2 19:44:21 · R1 20:42:42 · R2 20:42:42 (IST)</description><Point><coordinates>80.9462,26.8467,0</coordinates></Point></Placemark>
<Placemark><name>Ludhiana</name><styleUrl>#city</styleUrl><description>D1 19:33:25 · D2 19:33:25 · R1 20:38:27 · R2 20:38:27 (IST)</description><Point><coordinates>75.8573,30.901,0</coordinates></Point></Placemark>
<Placemark><name>Machilipatnam</name><styleUrl>#city</styleUrl><description>near miss: Alcyone passes 1.2′ from the limb (IST)</description><Point><coordinates>81.1389,16.1875,0</coordinates></Point></Placemark>
<Placemark><name>Madurai</name><styleUrl>#city</styleUrl><description>near miss: Alcyone passes 8.0′ from the limb (IST)</description><Point><coordinates>78.1198,9.9252,0</coordinates></Point></Placemark>
<Placemark><name>Mangalore</name><styleUrl>#city</styleUrl><description>near miss: Alcyone passes 6.5′ from the limb (IST)</description><Point><coordinates>74.856,12.9141,0</coordinates></Point></Placemark>
<Placemark><name>Mathura</name><styleUrl>#city</styleUrl><description>D1 19:41:25 · D2 19:41:25 · R1 20:40:12 · R2 20:40:12 (IST)</description><Point><coordinates>77.6737,27.4924,0</coordinates></Point></Placemark>
<Placemark><name>Meerut</name><styleUrl>#city</styleUrl><description>D1 19:38:20 · D2 19:38:20 · R1 20:40:13 · R2 20:40:13 (IST)</description><Point><coordinates>77.7064,28.9845,0</coordinates></Point></Placemark>
<Placemark><name>Midnapore</name><styleUrl>#city</styleUrl><description>D1 19:54:42 · D2 19:54:42 · R1 20:45:44 · R2 20:45:44 (IST)</description><Point><coordinates>87.3199,22.426,0</coordinates></Point></Placemark>
<Placemark><name>Mount Abu</name><styleUrl>#city</styleUrl><description>D1 19:47:13 · D2 19:47:13 · R1 20:31:45 · R2 20:31:45 (IST)</description><Point><coordinates>72.7156,24.5926,0</coordinates></Point></Placemark>
<Placemark><name>Mumbai</name><styleUrl>#city</styleUrl><description>near miss: Alcyone passes 1.7′ from the limb (IST)</description><Point><coordinates>72.8777,19.076,0</coordinates></Point></Placemark>
<Placemark><name>Murshidabad</name><styleUrl>#city</styleUrl><description>D1 19:51:21 · D2 19:51:21 · R1 20:46:36 · R2 20:46:36 (IST)</description><Point><coordinates>88.27,24.1745,0</coordinates></Point></Placemark>
<Placemark><name>Mussoorie</name><styleUrl>#city</styleUrl><description>D1 19:35:57 · D2 19:35:57 · R1 20:40:09 · R2 20:40:09 (IST)</description><Point><coordinates>78.0644,30.4598,0</coordinates></Point></Placemark>
<Placemark><name>Muzaffarpur</name><styleUrl>#city</styleUrl><description>D1 19:47:18 · D2 19:47:18 · R1 20:45:17 · R2 20:45:17 (IST)</description><Point><coordinates>85.3647,26.1209,0</coordinates></Point></Placemark>
<Placemark><name>Mysore</name><styleUrl>#city</styleUrl><description>near miss: Alcyone passes 6.4′ from the limb (IST)</description><Point><coordinates>76.6394,12.2958,0</coordinates></Point></Placemark>
<Placemark><name>Nagpur</name><styleUrl>#city</styleUrl><description>D1 19:59:45 · D2 19:59:45 · R1 20:35:50 · R2 20:35:50 (IST)</description><Point><coordinates>79.0882,21.1458,0</coordinates></Point></Placemark>
<Placemark><name>Nainital</name><styleUrl>#city</styleUrl><description>D1 19:38:49 · D2 19:38:49 · R1 20:41:26 · R2 20:41:26 (IST)</description><Point><coordinates>79.4542,29.3919,0</coordinates></Point></Placemark>
<Placemark><name>Nalgonda</name><styleUrl>#city</styleUrl><description>near miss: Alcyone passes 1.2′ from the limb (IST)</description><Point><coordinates>79.269,17.0575,0</coordinates></Point></Placemark>
<Placemark><name>Nashik</name><styleUrl>#city</styleUrl><description>near miss: Alcyone passes 0.5′ from the limb (IST)</description><Point><coordinates>73.7898,19.9975,0</coordinates></Point></Placemark>
<Placemark><name>Nellore</name><styleUrl>#city</styleUrl><description>near miss: Alcyone passes 3.2′ from the limb (IST)</description><Point><coordinates>79.9865,14.4426,0</coordinates></Point></Placemark>
<Placemark><name>Nowgong</name><styleUrl>#city</styleUrl><description>D1 19:48:46 · D2 19:48:46 · R1 20:47:05 · R2 20:47:05 (IST)</description><Point><coordinates>92.684,26.349,0</coordinates></Point></Placemark>
<Placemark><name>Panaji</name><styleUrl>#city</styleUrl><description>near miss: Alcyone passes 4.6′ from the limb (IST)</description><Point><coordinates>73.8278,15.4909,0</coordinates></Point></Placemark>
<Placemark><name>Pantnagar</name><styleUrl>#city</styleUrl><description>D1 19:39:26 · D2 19:39:26 · R1 20:41:32 · R2 20:41:32 (IST)</description><Point><coordinates>79.4737,29.021,0</coordinates></Point></Placemark>
<Placemark><name>Paradeep</name><styleUrl>#city</styleUrl><description>D1 19:59:41 · D2 19:59:41 · R1 20:43:50 · R2 20:43:50 (IST)</description><Point><coordinates>86.6114,20.3165,0</coordinates></Point></Placemark>
<Placemark><name>Pathankot</name><styleUrl>#city</styleUrl><description>D1 19:30:52 · D2 19:30:52 · R1 20:37:39 · R2 20:37:39 (IST)</description><Point><coordinates>75.6522,32.2747,0</coordinates></Point></Placemark>
<Placemark><name>Patna</name><styleUrl>#city</styleUrl><description>D1 19:48:10 · D2 19:48:10 · R1 20:45:12 · R2 20:45:12 (IST)</description><Point><coordinates>85.1376,25.6093,0</coordinates></Point></Placemark>
<Placemark><name>Pondicherry</name><styleUrl>#city</styleUrl><description>near miss: Alcyone passes 5.5′ from the limb (IST)</description><Point><coordinates>79.8083,11.9416,0</coordinates></Point></Placemark>
<Placemark><name>Port Blair</name><styleUrl>#city</styleUrl><description>near miss: Alcyone passes 0.7′ from the limb (IST)</description><Point><coordinates>92.7265,11.6234,0</coordinates></Point></Placemark>
<Placemark><name>Pune</name><styleUrl>#city</styleUrl><description>near miss: Alcyone passes 1.8′ from the limb (IST)</description><Point><coordinates>73.8567,18.5204,0</coordinates></Point></Placemark>
<Placemark><name>Puri</name><styleUrl>#city</styleUrl><description>D1 20:01:21 · D2 20:01:21 · R1 20:42:29 · R2 20:42:29 (IST)</description><Point><coordinates>85.8312,19.8135,0</coordinates></Point></Placemark>
<Placemark><name>Raipur</name><styleUrl>#city</styleUrl><description>D1 19:58:25 · D2 19:58:25 · R1 20:39:41 · R2 20:39:41 (IST)</description><Point><coordinates>81.6296,21.2514,0</coordinates></Point></Placemark>
<Placemark><name>Rajkot</name><styleUrl>#city</styleUrl><description>D1 19:59:54 · D2 19:59:54 · R1 20:20:05 · R2 20:20:05 (IST)</description><Point><coordinates>70.8022,22.3039,0</coordinates></Point></Placemark>
<Placemark><name>Rameswaram</name><styleUrl>#city</styleUrl><description>near miss: Alcyone passes 8.1′ from the limb (IST)</description><Point><coordinates>79.3129,9.2876,0</coordinates></Point></Placemark>
<Placemark><name>Ranchi</name><styleUrl>#city</styleUrl><description>D1 19:52:44 · D2 19:52:44 · R1 20:44:52 · R2 20:44:52 (IST)</description><Point><coordinates>85.3096,23.3441,0</coordinates></Point></Placemark>
<Placemark><name>Roorkee</name><styleUrl>#city</styleUrl><description>D1 19:36:55 · D2 19:36:55 · R1 20:40:15 · R2 20:40:15 (IST)</description><Point><coordinates>77.888,29.8543,0</coordinates></Point></Placemark>
<Placemark><name>Rourkela</name><styleUrl>#city</styleUrl><description>D1 19:55:10 · D2 19:55:10 · R1 20:43:59 · R2 20:43:59 (IST)</description><Point><coordinates>84.8536,22.2604,0</coordinates></Point></Placemark>
<Placemark><name>Salem</name><styleUrl>#city</styleUrl><description>near miss: Alcyone passes 6.4′ from the limb (IST)</description><Point><coordinates>78.146,11.6643,0</coordinates></Point></Placemark>
<Placemark><name>Shillong</name><styleUrl>#city</styleUrl><description>D1 19:49:40 · D2 19:49:40 · R1 20:47:19 · R2 20:47:19 (IST)</description><Point><coordinates>91.8933,25.5788,0</coordinates></Point></Placemark>
<Placemark><name>Shimla</name><styleUrl>#city</styleUrl><description>D1 19:34:07 · D2 19:34:07 · R1 20:39:18 · R2 20:39:18 (IST)</description><Point><coordinates>77.1734,31.1048,0</coordinates></Point></Placemark>
<Placemark><name>Silchar</name><styleUrl>#city</styleUrl><description>D1 19:50:51 · D2 19:50:51 · R1 20:47:40 · R2 20:47:40 (IST)</description><Point><coordinates>92.7789,24.8333,0</coordinates></Point></Placemark>
<Placemark><name>Sriharikota</name><styleUrl>#city</styleUrl><description>near miss: Alcyone passes 3.8′ from the limb (IST)</description><Point><coordinates>80.2304,13.7199,0</coordinates></Point></Placemark>
<Placemark><name>Srinagar</name><styleUrl>#city</styleUrl><description>D1 19:27:18 · D2 19:27:18 · R1 20:35:57 · R2 20:35:57 (IST)</description><Point><coordinates>74.7973,34.0837,0</coordinates></Point></Placemark>
<Placemark><name>Surat</name><styleUrl>#city</styleUrl><description>D1 20:07:01 · D2 20:07:01 · R1 20:19:20 · R2 20:19:20 (IST)</description><Point><coordinates>72.8311,21.1702,0</coordinates></Point></Placemark>
<Placemark><name>Thanjavur</name><styleUrl>#city</styleUrl><description>near miss: Alcyone passes 6.8′ from the limb (IST)</description><Point><coordinates>79.1378,10.787,0</coordinates></Point></Placemark>
<Placemark><name>Tezpur</name><styleUrl>#city</styleUrl><description>D1 19:48:23 · D2 19:48:23 · R1 20:46:59 · R2 20:46:59 (IST)</description><Point><coordinates>92.8006,26.6338,0</coordinates></Point></Placemark>
<Placemark><name>Thiruvananthapuram</name><styleUrl>#city</styleUrl><description>near miss: Alcyone passes 9.7′ from the limb (IST)</description><Point><coordinates>76.9366,8.5241,0</coordinates></Point></Placemark>
<Placemark><name>Tiruchirappalli</name><styleUrl>#city</styleUrl><description>near miss: Alcyone passes 7.0′ from the limb (IST)</description><Point><coordinates>78.7047,10.7905,0</coordinates></Point></Placemark>
<Placemark><name>Tirupati</name><styleUrl>#city</styleUrl><description>near miss: Alcyone passes 4.2′ from the limb (IST)</description><Point><coordinates>79.4192,13.6288,0</coordinates></Point></Placemark>
<Placemark><name>Udaipur</name><styleUrl>#city</styleUrl><description>D1 19:47:32 · D2 19:47:32 · R1 20:33:21 · R2 20:33:21 (IST)</description><Point><coordinates>73.7125,24.5854,0</coordinates></Point></Placemark>
<Placemark><name>Ujjain</name><styleUrl>#city</styleUrl><description>D1 19:52:49 · D2 19:52:49 · R1 20:34:23 · R2 20:34:23 (IST)</description><Point><coordinates>75.7885,23.1765,0</coordinates></Point></Placemark>
<Placemark><name>Vadodara</name><styleUrl>#city</styleUrl><description>D1 19:57:29 · D2 19:57:29 · R1 20:27:07 · R2 20:27:07 (IST)</description><Point><coordinates>73.1812,22.3072,0</coordinates></Point></Placemark>
<Placemark><name>Varanasi</name><styleUrl>#city</styleUrl><description>D1 19:48:12 · D2 19:48:12 · R1 20:43:55 · R2 20:43:55 (IST)</description><Point><coordinates>82.9739,25.3176,0</coordinates></Point></Placemark>
<Placemark><name>Vellore</name><styleUrl>#city</styleUrl><description>near miss: Alcyone passes 4.9′ from the limb (IST)</description><Point><coordinates>79.1325,12.9165,0</coordinates></Point></Placemark>
<Placemark><name>Vijayawada</name><styleUrl>#city</styleUrl><description>near miss: Alcyone passes 1.1′ from the limb (IST)</description><Point><coordinates>80.648,16.5062,0</coordinates></Point></Placemark>
<Placemark><name>Visakhapatnam</name><styleUrl>#city</styleUrl><description>D1 20:12:05 · D2 20:12:05 · R1 20:33:30 · R2 20:33:30 (IST)</description><Point><coordinates>83.2185,17.6868,0</coordinates></Point></Placemark>
</Folder></Document></kml>
