<?xml version="1.0" encoding="UTF-8"?>
<gpx version="1.1" creator="https://occult.alokm.com" xmlns="http://www.topografix.com/GPX/1/1">
<metadata><name>The Moon occults Antares — 2028-01-22 — graze limits</name></metadata>
<trk><name>south graze limit</name><trkseg><trkpt lat="3.9846" lon="74.16"/><trkpt lat="4.0089" lon="74.12"/><trkpt lat="4.083" lon="74.0"/><trkpt lat="4.1072" lon="73.96"/><trkpt lat="4.1567" lon="73.88"/><trkpt lat="4.2364" lon="73.75"/><trkpt lat="4.2364" lon="73.75"/><trkpt lat="4.315" lon="73.62"/><trkpt lat="4.3637" lon="73.54"/><trkpt lat="4.3879" lon="73.5"/><trkpt lat="4.4609" lon="73.38"/><trkpt lat="4.485" lon="73.34"/><trkpt lat="4.5393" lon="73.25"/><trkpt lat="4.6116" lon="73.13"/><trkpt lat="4.6176" lon="73.12"/><trkpt lat="4.6898" lon="73.0"/><trkpt lat="4.7381" lon="72.92"/><trkpt lat="4.7621" lon="72.88"/><trkpt lat="4.8404" lon="72.75"/><trkpt lat="4.8644" lon="72.71"/><trkpt lat="4.9184" lon="72.62"/><trkpt lat="4.9908" lon="72.5"/><trkpt lat="4.9908" lon="72.5"/><trkpt lat="5.0632" lon="72.38"/><trkpt lat="5.117" lon="72.29"/><trkpt lat="5.1408" lon="72.25"/><trkpt lat="5.2182" lon="72.12"/><trkpt lat="5.2421" lon="72.08"/><trkpt lat="5.2897" lon="72.0"/><trkpt lat="5.3614" lon="71.88"/><trkpt lat="5.3673" lon="71.87"/><trkpt lat="5.4393" lon="71.75"/><trkpt lat="5.4926" lon="71.66"/><trkpt lat="5.5173" lon="71.62"/><trkpt lat="5.5882" lon="71.5"/><trkpt lat="5.6186" lon="71.45"/><trkpt lat="5.6597" lon="71.38"/><trkpt lat="5.7379" lon="71.25"/><trkpt lat="5.7438" lon="71.24"/><trkpt lat="5.8145" lon="71.12"/><trkpt lat="5.8733" lon="71.02"/><trkpt lat="5.8851" lon="71.0"/><trkpt lat="5.9551" lon="70.88"/><trkpt lat="5.9961" lon="70.81"/><trkpt lat="6.0313" lon="70.75"/><trkpt lat="6.1074" lon="70.62"/><trkpt lat="6.1192" lon="70.6"/><trkpt lat="6.1776" lon="70.5"/><trkpt lat="6.2477" lon="70.38"/><trkpt lat="6.2477" lon="70.38"/><trkpt lat="6.3239" lon="70.25"/><trkpt lat="6.371" lon="70.17"/><trkpt lat="6.4001" lon="70.12"/><trkpt lat="6.4704" lon="70.0"/><trkpt lat="6.4936" lon="69.96"/><trkpt lat="6.5404" lon="69.88"/><trkpt lat="6.6157" lon="69.75"/><trkpt lat="6.6213" lon="69.74"/><trkpt lat="6.6909" lon="69.62"/><trkpt lat="6.7488" lon="69.52"/><trkpt lat="6.7604" lon="69.5"/><trkpt lat="6.83" lon="69.38"/><trkpt lat="6.8705" lon="69.31"/><trkpt lat="6.9048" lon="69.25"/><trkpt lat="6.9796" lon="69.12"/><trkpt lat="6.9968" lon="69.09"/><trkpt lat="7.0482" lon="69.0"/><trkpt lat="7.1168" lon="68.88"/><trkpt lat="7.122" lon="68.87"/><trkpt lat="7.1906" lon="68.75"/><trkpt lat="7.247" lon="68.65"/><trkpt lat="7.2642" lon="68.62"/><trkpt lat="7.3326" lon="68.5"/><trkpt lat="7.3723" lon="68.43"/><trkpt lat="7.4006" lon="68.38"/><trkpt lat="7.4744" lon="68.25"/><trkpt lat="7.4914" lon="68.22"/><trkpt lat="7.5483" lon="68.12"/><trkpt lat="7.6164" lon="68.0"/><trkpt lat="7.6221" lon="67.99"/><trkpt lat="7.684" lon="67.88"/><trkpt lat="7.7462" lon="67.77"/><trkpt lat="7.7572" lon="67.75"/><trkpt lat="7.8306" lon="67.62"/><trkpt lat="7.8698" lon="67.55"/><trkpt lat="7.898" lon="67.5"/><trkpt lat="7.9646" lon="67.38"/><trkpt lat="7.9926" lon="67.33"/><trkpt lat="8.0372" lon="67.25"/><trkpt lat="8.1102" lon="67.12"/><trkpt lat="8.1158" lon="67.11"/><trkpt lat="8.1772" lon="67.0"/><trkpt lat="8.2443" lon="66.88"/><trkpt lat="8.2443" lon="66.88"/><trkpt lat="8.3169" lon="66.75"/><trkpt lat="8.3673" lon="66.66"/><trkpt lat="8.3896" lon="66.62"/><trkpt lat="8.4559" lon="66.5"/><trkpt lat="8.4889" lon="66.44"/><trkpt lat="8.522" lon="66.38"/><trkpt lat="8.5939" lon="66.25"/><trkpt lat="8.616" lon="66.21"/><trkpt lat="8.6657" lon="66.12"/><trkpt lat="8.7315" lon="66.0"/></trkseg></trk>
<trk><name>north graze limit</name><trkseg><trkpt lat="38.001" lon="82.51"/><trkpt lat="37.9359" lon="82.62"/><trkpt lat="37.8758" lon="82.72"/><trkpt lat="37.8583" lon="82.75"/><trkpt lat="37.7801" lon="82.88"/><trkpt lat="37.7563" lon="82.92"/><trkpt lat="37.7085" lon="83.0"/><trkpt lat="37.6363" lon="83.12"/><trkpt lat="37.6303" lon="83.13"/><trkpt lat="37.5579" lon="83.25"/><trkpt lat="37.5036" lon="83.34"/><trkpt lat="37.4794" lon="83.38"/><trkpt lat="37.4062" lon="83.5"/><trkpt lat="37.3817" lon="83.54"/><trkpt lat="37.3327" lon="83.62"/><trkpt lat="37.2531" lon="83.75"/><trkpt lat="37.2531" lon="83.75"/><trkpt lat="37.1734" lon="83.88"/><trkpt lat="37.1251" lon="83.96"/><trkpt lat="37.1012" lon="84.0"/><trkpt lat="37.029" lon="84.12"/><trkpt lat="37.0047" lon="84.16"/><trkpt lat="36.9504" lon="84.25"/><trkpt lat="36.8776" lon="84.37"/><trkpt lat="36.8713" lon="84.38"/><trkpt lat="36.7977" lon="84.5"/><trkpt lat="36.7542" lon="84.57"/><trkpt lat="36.7233" lon="84.62"/><trkpt lat="36.6442" lon="84.75"/><trkpt lat="36.6252" lon="84.78"/><trkpt lat="36.564" lon="84.88"/><trkpt lat="36.5028" lon="84.98"/><trkpt lat="36.4905" lon="85.0"/><trkpt lat="36.4173" lon="85.12"/><trkpt lat="36.3806" lon="85.18"/><trkpt lat="36.338" lon="85.25"/><trkpt lat="36.2575" lon="85.38"/><trkpt lat="36.2514" lon="85.39"/><trkpt lat="36.1843" lon="85.5"/><trkpt lat="36.1287" lon="85.59"/><trkpt lat="36.1105" lon="85.62"/><trkpt lat="36.0306" lon="85.75"/><trkpt lat="36.0059" lon="85.79"/><trkpt lat="35.9505" lon="85.88"/><trkpt lat="35.8754" lon="86.0"/><trkpt lat="35.8754" lon="86.0"/><trkpt lat="35.8017" lon="86.12"/><trkpt lat="35.7513" lon="86.2"/><trkpt lat="35.7203" lon="86.25"/><trkpt lat="35.6393" lon="86.38"/><trkpt lat="35.6267" lon="86.4"/><trkpt lat="35.5644" lon="86.5"/><trkpt lat="35.5026" lon="86.6"/><trkpt lat="35.4902" lon="86.62"/><trkpt lat="35.4095" lon="86.75"/><trkpt lat="35.3785" lon="86.8"/><trkpt lat="35.3283" lon="86.88"/><trkpt lat="35.2536" lon="87.0"/><trkpt lat="35.2536" lon="87.0"/><trkpt lat="35.1794" lon="87.12"/><trkpt lat="35.1299" lon="87.2"/><trkpt lat="35.0988" lon="87.25"/><trkpt lat="35.0184" lon="87.38"/><trkpt lat="35.0059" lon="87.4"/><trkpt lat="34.9433" lon="87.5"/><trkpt lat="34.8813" lon="87.6"/><trkpt lat="34.8689" lon="87.62"/><trkpt lat="34.7869" lon="87.75"/><trkpt lat="34.7558" lon="87.8"/><trkpt lat="34.7062" lon="87.88"/><trkpt lat="34.6304" lon="88.0"/><trkpt lat="34.6304" lon="88.0"/><trkpt lat="34.555" lon="88.12"/><trkpt lat="34.504" lon="88.2"/><trkpt lat="34.4727" lon="88.25"/><trkpt lat="34.3908" lon="88.38"/><trkpt lat="34.378" lon="88.4"/><trkpt lat="34.3147" lon="88.5"/><trkpt lat="34.2525" lon="88.6"/><trkpt lat="34.2392" lon="88.62"/><trkpt lat="34.157" lon="88.75"/><trkpt lat="34.1258" lon="88.8"/><trkpt lat="34.0753" lon="88.88"/><trkpt lat="34.0" lon="89.0"/><trkpt lat="34.0" lon="89.0"/><trkpt lat="33.9175" lon="89.13"/><trkpt lat="33.8733" lon="89.2"/><trkpt lat="33.8416" lon="89.25"/><trkpt lat="33.759" lon="89.38"/><trkpt lat="33.7527" lon="89.39"/><trkpt lat="33.6831" lon="89.5"/><trkpt lat="33.6258" lon="89.59"/><trkpt lat="33.607" lon="89.62"/><trkpt lat="33.5256" lon="89.75"/><trkpt lat="33.5004" lon="89.79"/><trkpt lat="33.4432" lon="89.88"/><trkpt lat="33.3797" lon="89.98"/><trkpt lat="33.367" lon="90.0"/><trkpt lat="33.2913" lon="90.12"/><trkpt lat="33.2529" lon="90.18"/><trkpt lat="33.2083" lon="90.25"/><trkpt lat="33.1265" lon="90.38"/><trkpt lat="33.1265" lon="90.38"/><trkpt lat="33.0502" lon="90.5"/><trkpt lat="32.999" lon="90.58"/><trkpt lat="32.9743" lon="90.62"/><trkpt lat="32.8911" lon="90.75"/><trkpt lat="32.8784" lon="90.77"/><trkpt lat="32.8088" lon="90.88"/><trkpt lat="32.7519" lon="90.97"/><trkpt lat="32.7328" lon="91.0"/><trkpt lat="32.6563" lon="91.12"/><trkpt lat="32.6309" lon="91.16"/><trkpt lat="32.5731" lon="91.25"/><trkpt lat="32.5031" lon="91.36"/><trkpt lat="32.4903" lon="91.38"/><trkpt lat="32.4135" lon="91.5"/><trkpt lat="32.3752" lon="91.56"/><trkpt lat="32.3369" lon="91.62"/><trkpt lat="32.2537" lon="91.75"/><trkpt lat="32.2537" lon="91.75"/><trkpt lat="32.1705" lon="91.88"/><trkpt lat="32.1254" lon="91.95"/><trkpt lat="32.0933" lon="92.0"/><trkpt lat="32.0166" lon="92.12"/><trkpt lat="32.0039" lon="92.14"/><trkpt lat="31.9332" lon="92.25"/><trkpt lat="31.8756" lon="92.34"/><trkpt lat="31.8499" lon="92.38"/><trkpt lat="31.7733" lon="92.5"/><trkpt lat="31.7539" lon="92.53"/><trkpt lat="31.6961" lon="92.62"/><trkpt lat="31.6258" lon="92.73"/><trkpt lat="31.6131" lon="92.75"/><trkpt lat="31.5298" lon="92.88"/><trkpt lat="31.5041" lon="92.92"/><trkpt lat="31.4527" lon="93.0"/><trkpt lat="31.3756" lon="93.12"/><trkpt lat="31.3756" lon="93.12"/><trkpt lat="31.292" lon="93.25"/><trkpt lat="31.2531" lon="93.31"/><trkpt lat="31.2078" lon="93.38"/><trkpt lat="31.1304" lon="93.5"/><trkpt lat="31.1304" lon="93.5"/><trkpt lat="31.0531" lon="93.62"/><trkpt lat="31.0017" lon="93.7"/><trkpt lat="30.9695" lon="93.75"/><trkpt lat="30.8857" lon="93.88"/><trkpt lat="30.8793" lon="93.89"/><trkpt lat="30.8083" lon="94.0"/><trkpt lat="30.7503" lon="94.09"/><trkpt lat="30.731" lon="94.12"/><trkpt lat="30.6473" lon="94.25"/><trkpt lat="30.628" lon="94.28"/><trkpt lat="30.5638" lon="94.38"/><trkpt lat="30.5058" lon="94.47"/><trkpt lat="30.4864" lon="94.5"/><trkpt lat="30.4092" lon="94.62"/><trkpt lat="30.3769" lon="94.67"/><trkpt lat="30.3252" lon="94.75"/><trkpt lat="30.2542" lon="94.86"/><trkpt lat="30.2413" lon="94.88"/><trkpt lat="30.1639" lon="95.0"/><trkpt lat="30.1252" lon="95.06"/><trkpt lat="30.0865" lon="95.12"/><trkpt lat="30.0026" lon="95.25"/><trkpt lat="30.0026" lon="95.25"/><trkpt lat="29.9187" lon="95.38"/><trkpt lat="29.88" lon="95.44"/><trkpt lat="29.8413" lon="95.5"/><trkpt lat="29.7638" lon="95.62"/><trkpt lat="29.7509" lon="95.64"/><trkpt lat="29.68" lon="95.75"/><trkpt lat="29.6284" lon="95.83"/><trkpt lat="29.5961" lon="95.88"/><trkpt lat="29.5187" lon="96.0"/><trkpt lat="29.5057" lon="96.02"/><trkpt lat="29.4412" lon="96.12"/><trkpt lat="29.3767" lon="96.22"/><trkpt lat="29.3575" lon="96.25"/><trkpt lat="29.2733" lon="96.38"/><trkpt lat="29.2542" lon="96.41"/><trkpt lat="29.1958" lon="96.5"/><trkpt lat="29.1312" lon="96.6"/><trkpt lat="29.1183" lon="96.62"/><trkpt lat="29.0344" lon="96.75"/><trkpt lat="29.0022" lon="96.8"/><trkpt lat="28.9506" lon="96.88"/><trkpt lat="28.8795" lon="96.99"/><trkpt lat="28.8731" lon="97.0"/><trkpt lat="28.7893" lon="97.13"/><trkpt lat="28.7506" lon="97.19"/><trkpt lat="28.7119" lon="97.25"/><trkpt lat="28.628" lon="97.38"/><trkpt lat="28.6279" lon="97.38"/><trkpt lat="28.5506" lon="97.5"/><trkpt lat="28.5054" lon="97.57"/><trkpt lat="28.4731" lon="97.62"/><trkpt lat="28.3894" lon="97.75"/><trkpt lat="28.3761" lon="97.77"/><trkpt lat="28.3056" lon="97.88"/><trkpt lat="28.2539" lon="97.96"/><trkpt lat="28.2282" lon="98.0"/></trkseg></trk>
</gpx>
