<?xml version="1.0" encoding="UTF-8"?>
<kml xmlns="http://www.opengis.net/kml/2.2"><Document><name>The Moon occults Antares — 2028-01-22</name>
<description>Graze limits from https://occult.alokm.com/antares-2028-01-22, traced against the real lunar limb (LRO LOLA).</description>
<Style id="graze"><LineStyle><color>ff06b6d9</color><width>4</width></LineStyle></Style>
<Placemark><name>south graze limit</name><styleUrl>#graze</styleUrl><LineString><tessellate>1</tessellate><coordinates>74.16,3.9846,0 74.12,4.0089,0 74.0,4.083,0 73.96,4.1072,0 73.88,4.1567,0 73.75,4.2364,0 73.75,4.2364,0 73.62,4.315,0 73.54,4.3637,0 73.5,4.3879,0 73.38,4.4609,0 73.34,4.485,0 73.25,4.5393,0 73.13,4.6116,0 73.12,4.6176,0 73.0,4.6898,0 72.92,4.7381,0 72.88,4.7621,0 72.75,4.8404,0 72.71,4.8644,0 72.62,4.9184,0 72.5,4.9908,0 72.5,4.9908,0 72.38,5.0632,0 72.29,5.117,0 72.25,5.1408,0 72.12,5.2182,0 72.08,5.2421,0 72.0,5.2897,0 71.88,5.3614,0 71.87,5.3673,0 71.75,5.4393,0 71.66,5.4926,0 71.62,5.5173,0 71.5,5.5882,0 71.45,5.6186,0 71.38,5.6597,0 71.25,5.7379,0 71.24,5.7438,0 71.12,5.8145,0 71.02,5.8733,0 71.0,5.8851,0 70.88,5.9551,0 70.81,5.9961,0 70.75,6.0313,0 70.62,6.1074,0 70.6,6.1192,0 70.5,6.1776,0 70.38,6.2477,0 70.38,6.2477,0 70.25,6.3239,0 70.17,6.371,0 70.12,6.4001,0 70.0,6.4704,0 69.96,6.4936,0 69.88,6.5404,0 69.75,6.6157,0 69.74,6.6213,0 69.62,6.6909,0 69.52,6.7488,0 69.5,6.7604,0 69.38,6.83,0 69.31,6.8705,0 69.25,6.9048,0 69.12,6.9796,0 69.09,6.9968,0 69.0,7.0482,0 68.88,7.1168,0 68.87,7.122,0 68.75,7.1906,0 68.65,7.247,0 68.62,7.2642,0 68.5,7.3326,0 68.43,7.3723,0 68.38,7.4006,0 68.25,7.4744,0 68.22,7.4914,0 68.12,7.5483,0 68.0,7.6164,0 67.99,7.6221,0 67.88,7.684,0 67.77,7.7462,0 67.75,7.7572,0 67.62,7.8306,0 67.55,7.8698,0 67.5,7.898,0 67.38,7.9646,0 67.33,7.9926,0 67.25,8.0372,0 67.12,8.1102,0 67.11,8.1158,0 67.0,8.1772,0 66.88,8.2443,0 66.88,8.2443,0 66.75,8.3169,0 66.66,8.3673,0 66.62,8.3896,0 66.5,8.4559,0 66.44,8.4889,0 66.38,8.522,0 66.25,8.5939,0 66.21,8.616,0 66.12,8.6657,0 66.0,8.7315,0</coordinates></LineString></Placemark>
<Placemark><name>north graze limit</name><styleUrl>#graze</styleUrl><LineString><tessellate>1</tessellate><coordinates>82.51,38.001,0 82.62,37.9359,0 82.72,37.8758,0 82.75,37.8583,0 82.88,37.7801,0 82.92,37.7563,0 83.0,37.7085,0 83.12,37.6363,0 83.13,37.6303,0 83.25,37.5579,0 83.34,37.5036,0 83.38,37.4794,0 83.5,37.4062,0 83.54,37.3817,0 83.62,37.3327,0 83.75,37.2531,0 83.75,37.2531,0 83.88,37.1734,0 83.96,37.1251,0 84.0,37.1012,0 84.12,37.029,0 84.16,37.0047,0 84.25,36.9504,0 84.37,36.8776,0 84.38,36.8713,0 84.5,36.7977,0 84.57,36.7542,0 84.62,36.7233,0 84.75,36.6442,0 84.78,36.6252,0 84.88,36.564,0 84.98,36.5028,0 85.0,36.4905,0 85.12,36.4173,0 85.18,36.3806,0 85.25,36.338,0 85.38,36.2575,0 85.39,36.2514,0 85.5,36.1843,0 85.59,36.1287,0 85.62,36.1105,0 85.75,36.0306,0 85.79,36.0059,0 85.88,35.9505,0 86.0,35.8754,0 86.0,35.8754,0 86.12,35.8017,0 86.2,35.7513,0 86.25,35.7203,0 86.38,35.6393,0 86.4,35.6267,0 86.5,35.5644,0 86.6,35.5026,0 86.62,35.4902,0 86.75,35.4095,0 86.8,35.3785,0 86.88,35.3283,0 87.0,35.2536,0 87.0,35.2536,0 87.12,35.1794,0 87.2,35.1299,0 87.25,35.0988,0 87.38,35.0184,0 87.4,35.0059,0 87.5,34.9433,0 87.6,34.8813,0 87.62,34.8689,0 87.75,34.7869,0 87.8,34.7558,0 87.88,34.7062,0 88.0,34.6304,0 88.0,34.6304,0 88.12,34.555,0 88.2,34.504,0 88.25,34.4727,0 88.38,34.3908,0 88.4,34.378,0 88.5,34.3147,0 88.6,34.2525,0 88.62,34.2392,0 88.75,34.157,0 88.8,34.1258,0 88.88,34.0753,0 89.0,34.0,0 89.0,34.0,0 89.13,33.9175,0 89.2,33.8733,0 89.25,33.8416,0 89.38,33.759,0 89.39,33.7527,0 89.5,33.6831,0 89.59,33.6258,0 89.62,33.607,0 89.75,33.5256,0 89.79,33.5004,0 89.88,33.4432,0 89.98,33.3797,0 90.0,33.367,0 90.12,33.2913,0 90.18,33.2529,0 90.25,33.2083,0 90.38,33.1265,0 90.38,33.1265,0 90.5,33.0502,0 90.58,32.999,0 90.62,32.9743,0 90.75,32.8911,0 90.77,32.8784,0 90.88,32.8088,0 90.97,32.7519,0 91.0,32.7328,0 91.12,32.6563,0 91.16,32.6309,0 91.25,32.5731,0 91.36,32.5031,0 91.38,32.4903,0 91.5,32.4135,0 91.56,32.3752,0 91.62,32.3369,0 91.75,32.2537,0 91.75,32.2537,0 91.88,32.1705,0 91.95,32.1254,0 92.0,32.0933,0 92.12,32.0166,0 92.14,32.0039,0 92.25,31.9332,0 92.34,31.8756,0 92.38,31.8499,0 92.5,31.7733,0 92.53,31.7539,0 92.62,31.6961,0 92.73,31.6258,0 92.75,31.6131,0 92.88,31.5298,0 92.92,31.5041,0 93.0,31.4527,0 93.12,31.3756,0 93.12,31.3756,0 93.25,31.292,0 93.31,31.2531,0 93.38,31.2078,0 93.5,31.1304,0 93.5,31.1304,0 93.62,31.0531,0 93.7,31.0017,0 93.75,30.9695,0 93.88,30.8857,0 93.89,30.8793,0 94.0,30.8083,0 94.09,30.7503,0 94.12,30.731,0 94.25,30.6473,0 94.28,30.628,0 94.38,30.5638,0 94.47,30.5058,0 94.5,30.4864,0 94.62,30.4092,0 94.67,30.3769,0 94.75,30.3252,0 94.86,30.2542,0 94.88,30.2413,0 95.0,30.1639,0 95.06,30.1252,0 95.12,30.0865,0 95.25,30.0026,0 95.25,30.0026,0 95.38,29.9187,0 95.44,29.88,0 95.5,29.8413,0 95.62,29.7638,0 95.64,29.7509,0 95.75,29.68,0 95.83,29.6284,0 95.88,29.5961,0 96.0,29.5187,0 96.02,29.5057,0 96.12,29.4412,0 96.22,29.3767,0 96.25,29.3575,0 96.38,29.2733,0 96.41,29.2542,0 96.5,29.1958,0 96.6,29.1312,0 96.62,29.1183,0 96.75,29.0344,0 96.8,29.0022,0 96.88,28.9506,0 96.99,28.8795,0 97.0,28.8731,0 97.13,28.7893,0 97.19,28.7506,0 97.25,28.7119,0 97.38,28.628,0 97.38,28.6279,0 97.5,28.5506,0 97.57,28.5054,0 97.62,28.4731,0 97.75,28.3894,0 97.77,28.3761,0 97.88,28.3056,0 97.96,28.2539,0 98.0,28.2282,0</coordinates></LineString></Placemark>
</Document></kml>
