<?xml version="1.0" encoding="UTF-8"?>
<gpx version="1.1" creator="https://occult.alokm.com" xmlns="http://www.topografix.com/GPX/1/1">
<metadata><name>The Moon occults Antares — 2028-04-12 — graze limits</name></metadata>
<trk><name>south graze limit</name><trkseg><trkpt lat="20.7072" lon="98.0"/><trkpt lat="20.646" lon="97.88"/><trkpt lat="20.5746" lon="97.74"/><trkpt lat="20.4523" lon="97.5"/><trkpt lat="20.3912" lon="97.38"/><trkpt lat="20.3252" lon="97.25"/><trkpt lat="20.1984" lon="97.0"/><trkpt lat="20.1375" lon="96.88"/><trkpt lat="20.072" lon="96.75"/><trkpt lat="19.9507" lon="96.51"/><trkpt lat="19.885" lon="96.38"/><trkpt lat="19.8196" lon="96.25"/><trkpt lat="19.6994" lon="96.01"/><trkpt lat="19.6351" lon="95.88"/><trkpt lat="19.571" lon="95.75"/><trkpt lat="19.457" lon="95.52"/><trkpt lat="19.3877" lon="95.38"/><trkpt lat="19.3231" lon="95.25"/><trkpt lat="19.209" lon="95.02"/><trkpt lat="19.1394" lon="94.88"/><trkpt lat="19.0748" lon="94.75"/><trkpt lat="18.9604" lon="94.52"/><trkpt lat="18.8909" lon="94.38"/><trkpt lat="18.8263" lon="94.25"/><trkpt lat="18.7077" lon="94.01"/><trkpt lat="18.6438" lon="93.88"/><trkpt lat="18.5805" lon="93.75"/><trkpt lat="18.4589" lon="93.5"/><trkpt lat="18.3998" lon="93.38"/><trkpt lat="18.3361" lon="93.25"/><trkpt lat="18.2153" lon="93.0"/><trkpt lat="18.1577" lon="92.88"/><trkpt lat="18.0851" lon="92.73"/><trkpt lat="17.9739" lon="92.5"/><trkpt lat="17.9168" lon="92.38"/><trkpt lat="17.8372" lon="92.21"/><trkpt lat="17.7375" lon="92.0"/><trkpt lat="17.6816" lon="91.88"/><trkpt lat="17.5928" lon="91.69"/><trkpt lat="17.5041" lon="91.5"/><trkpt lat="17.4481" lon="91.38"/><trkpt lat="17.3498" lon="91.17"/><trkpt lat="17.271" lon="91.0"/><trkpt lat="17.2135" lon="90.88"/><trkpt lat="17.0969" lon="90.64"/><trkpt lat="17.0291" lon="90.5"/><trkpt lat="16.967" lon="90.37"/><trkpt lat="16.8486" lon="90.12"/><trkpt lat="16.7928" lon="90.0"/><trkpt lat="16.7141" lon="89.83"/><trkpt lat="16.6172" lon="89.62"/><trkpt lat="16.5619" lon="89.5"/><trkpt lat="16.4657" lon="89.29"/><trkpt lat="16.3873" lon="89.12"/><trkpt lat="16.3315" lon="89.0"/><trkpt lat="16.2174" lon="88.75"/><trkpt lat="16.1576" lon="88.62"/><trkpt lat="16.0858" lon="88.46"/><trkpt lat="15.9908" lon="88.25"/><trkpt lat="15.9315" lon="88.12"/><trkpt lat="15.8331" lon="87.9"/><trkpt lat="15.7673" lon="87.75"/><trkpt lat="15.7112" lon="87.62"/><trkpt lat="15.6042" lon="87.38"/><trkpt lat="15.5471" lon="87.25"/><trkpt lat="15.4605" lon="87.05"/><trkpt lat="15.389" lon="86.88"/><trkpt lat="15.3355" lon="86.75"/><trkpt lat="15.2305" lon="86.5"/><trkpt lat="15.1799" lon="86.38"/><trkpt lat="15.0916" lon="86.17"/><trkpt lat="15.0192" lon="86.0"/><trkpt lat="14.9652" lon="85.87"/><trkpt lat="14.8592" lon="85.62"/><trkpt lat="14.8083" lon="85.5"/><trkpt lat="14.7122" lon="85.27"/><trkpt lat="14.6545" lon="85.13"/><trkpt lat="14.5886" lon="84.97"/><trkpt lat="14.4964" lon="84.75"/><trkpt lat="14.4424" lon="84.62"/><trkpt lat="14.3454" lon="84.38"/><trkpt lat="14.2926" lon="84.25"/><trkpt lat="14.2076" lon="84.04"/><trkpt lat="14.145" lon="83.88"/><trkpt lat="14.0854" lon="83.72"/><trkpt lat="14.0076" lon="83.5"/><trkpt lat="13.9663" lon="83.38"/><trkpt lat="13.8785" lon="83.12"/><trkpt lat="13.8376" lon="83.0"/><trkpt lat="13.7505" lon="82.75"/><trkpt lat="13.7076" lon="82.62"/><trkpt lat="13.6262" lon="82.41"/><trkpt lat="13.5649" lon="82.25"/><trkpt lat="13.4996" lon="82.08"/><trkpt lat="13.4252" lon="81.88"/><trkpt lat="13.371" lon="81.73"/><trkpt lat="13.2875" lon="81.5"/><trkpt lat="13.2441" lon="81.38"/><trkpt lat="13.1483" lon="81.12"/><trkpt lat="13.1023" lon="81.0"/><trkpt lat="13.008" lon="80.75"/><trkpt lat="12.9619" lon="80.62"/><trkpt lat="12.8721" lon="80.38"/><trkpt lat="12.8258" lon="80.25"/><trkpt lat="12.741" lon="80.0"/><trkpt lat="12.7023" lon="79.88"/><trkpt lat="12.6189" lon="79.62"/><trkpt lat="12.5798" lon="79.5"/><trkpt lat="12.5015" lon="79.25"/><trkpt lat="12.4619" lon="79.12"/><trkpt lat="12.3904" lon="78.88"/><trkpt lat="12.3501" lon="78.75"/><trkpt lat="12.2728" lon="78.5"/><trkpt lat="12.2253" lon="78.35"/><trkpt lat="12.1556" lon="78.12"/><trkpt lat="12.0944" lon="77.93"/><trkpt lat="12.04" lon="77.75"/><trkpt lat="11.9592" lon="77.5"/><trkpt lat="11.9253" lon="77.38"/><trkpt lat="11.8552" lon="77.12"/><trkpt lat="11.8266" lon="77.0"/><trkpt lat="11.7567" lon="76.75"/><trkpt lat="11.711" lon="76.59"/><trkpt lat="11.6573" lon="76.38"/><trkpt lat="11.5955" lon="76.12"/><trkpt lat="11.5655" lon="76.0"/><trkpt lat="11.4952" lon="75.75"/><trkpt lat="11.46" lon="75.61"/><trkpt lat="11.4042" lon="75.38"/><trkpt lat="11.3422" lon="75.12"/><trkpt lat="11.3189" lon="75.0"/><trkpt lat="11.2776" lon="74.75"/><trkpt lat="11.2406" lon="74.54"/><trkpt lat="11.2099" lon="74.38"/><trkpt lat="11.15" lon="74.12"/><trkpt lat="11.109" lon="73.96"/><trkpt lat="11.059" lon="73.75"/><trkpt lat="11.0104" lon="73.5"/><trkpt lat="10.9804" lon="73.33"/><trkpt lat="10.9487" lon="73.12"/><trkpt lat="10.9111" lon="72.88"/><trkpt lat="10.8724" lon="72.65"/><trkpt lat="10.8476" lon="72.5"/><trkpt lat="10.7986" lon="72.25"/><trkpt lat="10.7624" lon="72.0"/><trkpt lat="10.7427" lon="71.88"/><trkpt lat="10.7035" lon="71.62"/><trkpt lat="10.6687" lon="71.38"/><trkpt lat="10.6333" lon="71.12"/><trkpt lat="10.6163" lon="71.0"/><trkpt lat="10.5848" lon="70.75"/><trkpt lat="10.5536" lon="70.5"/><trkpt lat="10.5235" lon="70.25"/><trkpt lat="10.4977" lon="70.03"/><trkpt lat="10.4797" lon="69.88"/><trkpt lat="10.4529" lon="69.62"/><trkpt lat="10.4256" lon="69.38"/><trkpt lat="10.4048" lon="69.12"/><trkpt lat="10.3916" lon="68.88"/><trkpt lat="10.3764" lon="68.64"/><trkpt lat="10.3665" lon="68.5"/><trkpt lat="10.3446" lon="68.25"/><trkpt lat="10.3332" lon="68.0"/><trkpt lat="10.3238" lon="67.75"/><trkpt lat="10.3099" lon="67.5"/><trkpt lat="10.2955" lon="67.25"/><trkpt lat="10.2856" lon="67.0"/><trkpt lat="10.2657" lon="66.75"/><trkpt lat="10.2413" lon="66.5"/><trkpt lat="10.233" lon="66.25"/><trkpt lat="10.2264" lon="66.0"/></trkseg></trk>
</gpx>
