<?xml version="1.0" encoding="UTF-8"?>
<kml xmlns="http://www.opengis.net/kml/2.2"><Document><name>The Moon occults Antares — 2028-04-12</name>
<description>Graze limits and visibility from https://occult.alokm.com/antares-2028-04-12. Solid limits are traced against the real lunar limb (LRO LOLA); the dotted line is the mean-sphere limit. Times in the city placemarks are IST, real limb.</description>
<Style id="exact"><LineStyle><color>ff06b6d9</color><width>4</width></LineStyle></Style>
<Style id="mean"><LineStyle><color>8006b6d9</color><width>2</width></LineStyle></Style>
<Style id="region"><LineStyle><color>80e6c07d</color><width>1</width></LineStyle><PolyStyle><color>3fe6c07d</color></PolyStyle></Style>
<Style id="night"><LineStyle><width>0</width></LineStyle><PolyStyle><color>3fed3ac4</color></PolyStyle></Style>
<Style id="city"><IconStyle><scale>0.8</scale></IconStyle></Style>
<Folder><name>Graze limits (real lunar limb)</name>
<Placemark><name>south limit — real limb</name><styleUrl>#exact</styleUrl><LineString><tessellate>1</tessellate><coordinates>98.0,20.7072,0 97.88,20.646,0 97.74,20.5746,0 97.5,20.4523,0 97.38,20.3912,0 97.25,20.3252,0 97.0,20.1984,0 96.88,20.1375,0 96.75,20.072,0 96.51,19.9507,0 96.38,19.885,0 96.25,19.8196,0 96.01,19.6994,0 95.88,19.6351,0 95.75,19.571,0 95.52,19.457,0 95.38,19.3877,0 95.25,19.3231,0 95.02,19.209,0 94.88,19.1394,0 94.75,19.0748,0 94.52,18.9604,0 94.38,18.8909,0 94.25,18.8263,0 94.01,18.7077,0 93.88,18.6438,0 93.75,18.5805,0 93.5,18.4589,0 93.38,18.3998,0 93.25,18.3361,0 93.0,18.2153,0 92.88,18.1577,0 92.73,18.0851,0 92.5,17.9739,0 92.38,17.9168,0 92.21,17.8372,0 92.0,17.7375,0 91.88,17.6816,0 91.69,17.5928,0 91.5,17.5041,0 91.38,17.4481,0 91.17,17.3498,0 91.0,17.271,0 90.88,17.2135,0 90.64,17.0969,0 90.5,17.0291,0 90.37,16.967,0 90.12,16.8486,0 90.0,16.7928,0 89.83,16.7141,0 89.62,16.6172,0 89.5,16.5619,0 89.29,16.4657,0 89.12,16.3873,0 89.0,16.3315,0 88.75,16.2174,0 88.62,16.1576,0 88.46,16.0858,0 88.25,15.9908,0 88.12,15.9315,0 87.9,15.8331,0 87.75,15.7673,0 87.62,15.7112,0 87.38,15.6042,0 87.25,15.5471,0 87.05,15.4605,0 86.88,15.389,0 86.75,15.3355,0 86.5,15.2305,0 86.38,15.1799,0 86.17,15.0916,0 86.0,15.0192,0 85.87,14.9652,0 85.62,14.8592,0 85.5,14.8083,0 85.27,14.7122,0 85.13,14.6545,0 84.97,14.5886,0 84.75,14.4964,0 84.62,14.4424,0 84.38,14.3454,0 84.25,14.2926,0 84.04,14.2076,0 83.88,14.145,0 83.72,14.0854,0 83.5,14.0076,0 83.38,13.9663,0 83.12,13.8785,0 83.0,13.8376,0 82.75,13.7505,0 82.62,13.7076,0 82.41,13.6262,0 82.25,13.5649,0 82.08,13.4996,0 81.88,13.4252,0 81.73,13.371,0 81.5,13.2875,0 81.38,13.2441,0 81.12,13.1483,0 81.0,13.1023,0 80.75,13.008,0 80.62,12.9619,0 80.38,12.8721,0 80.25,12.8258,0 80.0,12.741,0 79.88,12.7023,0 79.62,12.6189,0 79.5,12.5798,0 79.25,12.5015,0 79.12,12.4619,0 78.88,12.3904,0 78.75,12.3501,0 78.5,12.2728,0 78.35,12.2253,0 78.12,12.1556,0 77.93,12.0944,0 77.75,12.04,0 77.5,11.9592,0 77.38,11.9253,0 77.12,11.8552,0 77.0,11.8266,0 76.75,11.7567,0 76.59,11.711,0 76.38,11.6573,0 76.12,11.5955,0 76.0,11.5655,0 75.75,11.4952,0 75.61,11.46,0 75.38,11.4042,0 75.12,11.3422,0 75.0,11.3189,0 74.75,11.2776,0 74.54,11.2406,0 74.38,11.2099,0 74.12,11.15,0 73.96,11.109,0 73.75,11.059,0 73.5,11.0104,0 73.33,10.9804,0 73.12,10.9487,0 72.88,10.9111,0 72.65,10.8724,0 72.5,10.8476,0 72.25,10.7986,0 72.0,10.7624,0 71.88,10.7427,0 71.62,10.7035,0 71.38,10.6687,0 71.12,10.6333,0 71.0,10.6163,0 70.75,10.5848,0 70.5,10.5536,0 70.25,10.5235,0 70.03,10.4977,0 69.88,10.4797,0 69.62,10.4529,0 69.38,10.4256,0 69.12,10.4048,0 68.88,10.3916,0 68.64,10.3764,0 68.5,10.3665,0 68.25,10.3446,0 68.0,10.3332,0 67.75,10.3238,0 67.5,10.3099,0 67.25,10.2955,0 67.0,10.2856,0 66.75,10.2657,0 66.5,10.2413,0 66.25,10.233,0 66.0,10.2264,0</coordinates></LineString></Placemark>
</Folder><Folder><name>Mean-sphere limits</name>
<Placemark><name>south limit — mean sphere</name><styleUrl>#mean</styleUrl><LineString><tessellate>1</tessellate><coordinates>98.0,20.76,0 97.98,20.75,0 97.88,20.69,0 97.75,20.63,0 97.74,20.62,0 97.62,20.57,0 97.5,20.5,0 97.49,20.5,0 97.38,20.44,0 97.25,20.38,0 97.25,20.38,0 97.12,20.31,0 97.0,20.25,0 97.0,20.25,0 96.88,20.19,0 96.76,20.12,0 96.75,20.12,0 96.62,20.06,0 96.51,20.0,0 96.5,19.99,0 96.38,19.93,0 96.26,19.88,0 96.25,19.87,0 96.12,19.81,0 96.01,19.75,0 96.0,19.74,0 95.88,19.68,0 95.77,19.62,0 95.75,19.62,0 95.62,19.55,0 95.52,19.5,0 95.5,19.49,0 95.38,19.43,0 95.27,19.38,0 95.25,19.37,0 95.12,19.3,0 95.02,19.25,0 95.0,19.24,0 94.88,19.18,0 94.77,19.12,0 94.75,19.12,0 94.62,19.05,0 94.52,19.0,0 94.5,18.99,0 94.38,18.93,0 94.26,18.88,0 94.25,18.87,0 94.12,18.81,0 94.01,18.75,0 94.0,18.75,0 93.88,18.68,0 93.76,18.62,0 93.75,18.62,0 93.62,18.56,0 93.5,18.5,0 93.5,18.5,0 93.38,18.44,0 93.25,18.38,0 93.25,18.38,0 93.12,18.32,0 93.0,18.26,0 92.99,18.25,0 92.88,18.19,0 92.75,18.13,0 92.73,18.12,0 92.62,18.07,0 92.5,18.01,0 92.47,18.0,0 92.38,17.95,0 92.25,17.89,0 92.21,17.88,0 92.12,17.83,0 92.0,17.77,0 91.95,17.75,0 91.88,17.71,0 91.75,17.65,0 91.69,17.62,0 91.62,17.59,0 91.5,17.53,0 91.43,17.5,0 91.38,17.47,0 91.25,17.41,0 91.17,17.38,0 91.12,17.36,0 91.0,17.3,0 90.9,17.25,0 90.88,17.24,0 90.75,17.18,0 90.64,17.12,0 90.62,17.12,0 90.5,17.06,0 90.38,17.0,0 90.37,17.0,0 90.25,16.94,0 90.12,16.89,0 90.1,16.88,0 90.0,16.83,0 89.88,16.77,0 89.83,16.75,0 89.75,16.71,0 89.62,16.65,0 89.56,16.62,0 89.5,16.6,0 89.38,16.54,0 89.29,16.5,0 89.25,16.48,0 89.12,16.43,0 89.01,16.38,0 89.0,16.37,0 88.88,16.31,0 88.75,16.26,0 88.74,16.25,0 88.62,16.2,0 88.5,16.14,0 88.46,16.12,0 88.38,16.09,0 88.25,16.03,0 88.18,16.0,0 88.12,15.98,0 88.0,15.92,0 87.9,15.88,0 87.88,15.86,0 87.75,15.81,0 87.62,15.75,0 87.62,15.75,0 87.5,15.7,0 87.38,15.64,0 87.33,15.62,0 87.25,15.59,0 87.12,15.53,0 87.05,15.5,0 87.0,15.48,0 86.88,15.43,0 86.76,15.38,0 86.75,15.37,0 86.62,15.32,0 86.5,15.27,0 86.46,15.25,0 86.38,15.21,0 86.25,15.16,0 86.17,15.12,0 86.12,15.11,0 86.0,15.05,0 85.88,15.0,0 85.87,15.0,0 85.75,14.95,0 85.62,14.9,0 85.58,14.88,0 85.5,14.84,0 85.38,14.79,0 85.27,14.75,0 85.25,14.74,0 85.13,14.69,0 85.0,14.64,0 84.97,14.62,0 84.88,14.59,0 84.75,14.54,0 84.66,14.5,0 84.62,14.48,0 84.5,14.43,0 84.38,14.38,0 84.35,14.38,0 84.25,14.33,0 84.12,14.28,0 84.04,14.25,0 84.0,14.23,0 83.88,14.19,0 83.75,14.14,0 83.72,14.12,0 83.62,14.09,0 83.5,14.04,0 83.4,14.0,0 83.38,13.99,0 83.25,13.94,0 83.12,13.89,0 83.08,13.88,0 83.0,13.85,0 82.88,13.8,0 82.75,13.75,0 82.75,13.75,0 82.62,13.7,0 82.5,13.66,0 82.41,13.62,0 82.38,13.61,0 82.25,13.56,0 82.12,13.52,0 82.08,13.5,0 82.0,13.47,0 81.88,13.43,0 81.75,13.38,0 81.73,13.38,0 81.62,13.34,0 81.5,13.29,0 81.38,13.25,0 81.38,13.25,0 81.25,13.2,0 81.12,13.16,0 81.03,13.12,0 81.0,13.11,0 80.88,13.07,0 80.75,13.03,0 80.67,13.0,0 80.62,12.98,0 80.5,12.94,0 80.38,12.9,0 80.3,12.87,0 80.25,12.86,0 80.12,12.81,0 80.0,12.77,0 79.93,12.75,0 79.88,12.73,0 79.75,12.69,0 79.62,12.65,0 79.55,12.62,0 79.5,12.61,0 79.38,12.57,0 79.25,12.53,0 79.16,12.5,0 79.12,12.49,0 79.0,12.45,0 78.88,12.41,0 78.76,12.38,0 78.75,12.37,0 78.62,12.33,0 78.5,12.3,0 78.38,12.26,0 78.35,12.25,0 78.25,12.22,0 78.12,12.18,0 78.0,12.15,0 77.93,12.13,0 77.88,12.11,0 77.75,12.07,0 77.62,12.04,0 77.5,12.0,0 77.5,12.0,0 77.38,11.97,0 77.25,11.93,0 77.12,11.9,0 77.05,11.88,0 77.0,11.86,0 76.88,11.83,0 76.75,11.79,0 76.62,11.76,0 76.59,11.75,0 76.5,11.73,0 76.38,11.69,0 76.25,11.66,0 76.12,11.63,0 76.11,11.62,0 76.0,11.6,0 75.88,11.57,0 75.75,11.53,0 75.62,11.5,0 75.61,11.5,0 75.5,11.47,0 75.38,11.44,0 75.25,11.41,0 75.12,11.38,0 75.09,11.38,0 75.0,11.35,0 74.88,11.33,0 74.75,11.3,0 74.62,11.27,0 74.54,11.25,0 74.5,11.24,0 74.38,11.21,0 74.25,11.19,0 74.12,11.16,0 74.0,11.13,0 73.96,11.12,0 73.88,11.11,0 73.75,11.08,0 73.62,11.06,0 73.5,11.03,0 73.38,11.01,0 73.33,11.0,0 73.25,10.98,0 73.12,10.96,0 73.0,10.94,0 72.88,10.91,0 72.75,10.89,0 72.65,10.88,0 72.62,10.87,0 72.5,10.85,0 72.38,10.83,0 72.25,10.81,0 72.12,10.79,0 72.0,10.77,0 71.9,10.75,0 71.88,10.75,0 71.75,10.73,0 71.62,10.71,0 71.5,10.69,0 71.38,10.67,0 71.25,10.65,0 71.12,10.64,0 71.05,10.62,0 71.0,10.62,0 70.88,10.6,0 70.75,10.59,0 70.62,10.57,0 70.5,10.55,0 70.38,10.54,0 70.25,10.53,0 70.12,10.51,0 70.03,10.5,0 70.0,10.5,0 69.88,10.48,0 69.75,10.47,0 69.62,10.46,0 69.5,10.45,0 69.38,10.43,0 69.25,10.42,0 69.12,10.41,0 69.0,10.4,0 68.88,10.39,0 68.75,10.38,0 68.64,10.37,0 68.62,10.37,0 68.5,10.37,0 68.38,10.36,0 68.25,10.35,0 68.12,10.34,0 68.0,10.34,0 67.88,10.33,0 67.75,10.32,0 67.62,10.32,0 67.5,10.31,0 67.38,10.31,0 67.25,10.3,0 67.12,10.3,0 67.0,10.3,0 66.88,10.29,0 66.75,10.29,0 66.62,10.29,0 66.5,10.29,0 66.38,10.29,0 66.25,10.28,0 66.12,10.28,0 66.0,10.28,0</coordinates></LineString></Placemark>
</Folder><Folder><name>Visibility</name>
<Placemark><name>sees the occultation</name><styleUrl>#region</styleUrl><Polygon><outerBoundaryIs><LinearRing><coordinates>66.0,10.38,0 66.0,10.28,0 66.12,10.28,0 66.25,10.28,0 66.38,10.29,0 66.5,10.29,0 66.62,10.29,0 66.75,10.29,0 66.88,10.29,0 67.0,10.3,0 67.12,10.3,0 67.25,10.3,0 67.38,10.31,0 67.5,10.31,0 67.62,10.32,0 67.75,10.32,0 67.88,10.33,0 68.0,10.34,0 68.12,10.34,0 68.25,10.35,0 68.38,10.36,0 68.5,10.37,0 68.62,10.37,0 68.64,10.38,0 68.75,10.38,0 68.88,10.39,0 69.0,10.4,0 69.12,10.41,0 69.25,10.42,0 69.38,10.43,0 69.5,10.45,0 69.62,10.46,0 69.75,10.47,0 69.88,10.48,0 70.0,10.5,0 70.03,10.5,0 70.12,10.51,0 70.25,10.53,0 70.38,10.54,0 70.5,10.55,0 70.62,10.57,0 70.75,10.59,0 70.88,10.6,0 71.0,10.62,0 71.05,10.62,0 71.12,10.64,0 71.25,10.65,0 71.38,10.67,0 71.5,10.69,0 71.62,10.71,0 71.75,10.73,0 71.88,10.75,0 71.9,10.75,0 72.0,10.77,0 72.12,10.79,0 72.25,10.81,0 72.38,10.83,0 72.5,10.85,0 72.62,10.87,0 72.65,10.88,0 72.75,10.89,0 72.88,10.91,0 73.0,10.94,0 73.12,10.96,0 73.25,10.98,0 73.33,11.0,0 73.38,11.01,0 73.5,11.03,0 73.62,11.06,0 73.75,11.08,0 73.88,11.11,0 73.96,11.12,0 74.0,11.13,0 74.12,11.16,0 74.25,11.19,0 74.38,11.21,0 74.5,11.24,0 74.54,11.25,0 74.62,11.27,0 74.75,11.3,0 74.88,11.33,0 75.0,11.35,0 75.09,11.38,0 75.12,11.38,0 75.25,11.41,0 75.38,11.44,0 75.5,11.47,0 75.61,11.5,0 75.62,11.5,0 75.75,11.53,0 75.88,11.57,0 76.0,11.6,0 76.11,11.62,0 76.12,11.63,0 76.25,11.66,0 76.38,11.69,0 76.5,11.73,0 76.59,11.75,0 76.62,11.76,0 76.75,11.79,0 76.88,11.83,0 77.0,11.86,0 77.05,11.88,0 77.12,11.9,0 77.25,11.93,0 77.38,11.97,0 77.5,12.0,0 77.5,12.0,0 77.62,12.04,0 77.75,12.07,0 77.88,12.11,0 77.93,12.12,0 78.0,12.15,0 78.12,12.18,0 78.25,12.22,0 78.35,12.25,0 78.37,12.26,0 78.5,12.3,0 78.62,12.33,0 78.75,12.37,0 78.76,12.38,0 78.88,12.41,0 79.0,12.45,0 79.12,12.49,0 79.16,12.5,0 79.25,12.53,0 79.38,12.57,0 79.5,12.61,0 79.55,12.62,0 79.62,12.65,0 79.75,12.69,0 79.88,12.73,0 79.93,12.75,0 80.0,12.77,0 80.12,12.81,0 80.25,12.86,0 80.3,12.88,0 80.38,12.9,0 80.5,12.94,0 80.62,12.98,0 80.67,13.0,0 80.75,13.03,0 80.88,13.07,0 81.0,13.11,0 81.03,13.12,0 81.12,13.16,0 81.25,13.2,0 81.38,13.25,0 81.38,13.25,0 81.5,13.29,0 81.62,13.34,0 81.73,13.38,0 81.75,13.38,0 81.88,13.43,0 82.0,13.47,0 82.08,13.5,0 82.12,13.52,0 82.25,13.56,0 82.38,13.61,0 82.41,13.62,0 82.5,13.66,0 82.62,13.7,0 82.75,13.75,0 82.75,13.75,0 82.88,13.8,0 83.0,13.85,0 83.08,13.87,0 83.12,13.89,0 83.25,13.94,0 83.38,13.99,0 83.4,14.0,0 83.5,14.04,0 83.62,14.09,0 83.72,14.12,0 83.75,14.14,0 83.88,14.19,0 84.0,14.23,0 84.04,14.25,0 84.12,14.28,0 84.25,14.33,0 84.35,14.38,0 84.37,14.38,0 84.5,14.43,0 84.62,14.48,0 84.66,14.5,0 84.75,14.54,0 84.88,14.59,0 84.97,14.62,0 85.0,14.64,0 85.12,14.69,0 85.25,14.74,0 85.27,14.75,0 85.38,14.79,0 85.5,14.84,0 85.58,14.88,0 85.62,14.9,0 85.75,14.95,0 85.87,15.0,0 85.88,15.0,0 86.0,15.05,0 86.12,15.11,0 86.17,15.12,0 86.25,15.16,0 86.38,15.21,0 86.46,15.25,0 86.5,15.27,0 86.62,15.32,0 86.75,15.37,0 86.76,15.38,0 86.88,15.43,0 87.0,15.48,0 87.05,15.5,0 87.12,15.53,0 87.25,15.59,0 87.33,15.62,0 87.38,15.64,0 87.5,15.7,0 87.62,15.75,0 87.63,15.75,0 87.75,15.81,0 87.88,15.86,0 87.9,15.88,0 88.0,15.92,0 88.12,15.98,0 88.18,16.0,0 88.25,16.03,0 88.38,16.09,0 88.46,16.12,0 88.5,16.14,0 88.62,16.2,0 88.74,16.25,0 88.75,16.26,0 88.88,16.31,0 89.0,16.37,0 89.01,16.38,0 89.12,16.43,0 89.25,16.48,0 89.29,16.5,0 89.37,16.54,0 89.5,16.6,0 89.56,16.62,0 89.62,16.65,0 89.75,16.71,0 89.83,16.75,0 89.88,16.77,0 90.0,16.83,0 90.1,16.88,0 90.13,16.89,0 90.25,16.94,0 90.37,17.0,0 90.38,17.0,0 90.5,17.06,0 90.62,17.12,0 90.64,17.12,0 90.75,17.18,0 90.88,17.24,0 90.9,17.25,0 91.0,17.3,0 91.12,17.36,0 91.17,17.38,0 91.25,17.41,0 91.38,17.47,0 91.43,17.5,0 91.5,17.53,0 91.62,17.59,0 91.69,17.62,0 91.75,17.65,0 91.88,17.71,0 91.95,17.75,0 92.0,17.77,0 92.12,17.83,0 92.21,17.88,0 92.25,17.89,0 92.38,17.95,0 92.47,18.0,0 92.5,18.01,0 92.62,18.07,0 92.73,18.12,0 92.75,18.13,0 92.88,18.19,0 92.99,18.25,0 93.0,18.26,0 93.12,18.32,0 93.25,18.38,0 93.25,18.38,0 93.38,18.44,0 93.5,18.5,0 93.5,18.5,0 93.62,18.56,0 93.75,18.62,0 93.76,18.62,0 93.88,18.68,0 94.0,18.75,0 94.01,18.75,0 94.12,18.81,0 94.25,18.87,0 94.26,18.88,0 94.38,18.93,0 94.5,18.99,0 94.52,19.0,0 94.63,19.05,0 94.75,19.12,0 94.77,19.12,0 94.88,19.18,0 95.0,19.24,0 95.02,19.25,0 95.12,19.3,0 95.25,19.37,0 95.27,19.38,0 95.38,19.43,0 95.5,19.49,0 95.52,19.5,0 95.62,19.55,0 95.75,19.62,0 95.77,19.62,0 95.87,19.68,0 96.0,19.74,0 96.01,19.75,0 96.13,19.81,0 96.25,19.87,0 96.26,19.88,0 96.38,19.93,0 96.5,19.99,0 96.51,20.0,0 96.62,20.06,0 96.75,20.12,0 96.76,20.12,0 96.87,20.19,0 97.0,20.25,0 97.0,20.25,0 97.12,20.31,0 97.25,20.38,0 97.25,20.38,0 97.38,20.44,0 97.49,20.5,0 97.5,20.5,0 97.62,20.57,0 97.74,20.62,0 97.75,20.63,0 97.88,20.69,0 97.98,20.75,0 98.0,20.76,0 98.0,20.88,0 98.0,21.0,0 98.0,21.12,0 98.0,21.25,0 98.0,21.38,0 98.0,21.5,0 98.0,21.62,0 98.0,21.75,0 98.0,21.88,0 98.0,22.0,0 98.0,22.12,0 98.0,22.25,0 98.0,22.38,0 98.0,22.5,0 98.0,22.62,0 98.0,22.75,0 98.0,22.88,0 98.0,23.0,0 98.0,23.12,0 98.0,23.25,0 98.0,23.38,0 98.0,23.5,0 98.0,23.62,0 98.0,23.75,0 98.0,23.88,0 98.0,24.0,0 98.0,24.12,0 98.0,24.25,0 98.0,24.38,0 98.0,24.5,0 98.0,24.62,0 98.0,24.75,0 98.0,24.88,0 98.0,25.0,0 98.0,25.12,0 98.0,25.25,0 98.0,25.38,0 98.0,25.5,0 98.0,25.62,0 98.0,25.75,0 98.0,25.88,0 98.0,26.0,0 98.0,26.12,0 98.0,26.25,0 98.0,26.38,0 98.0,26.5,0 98.0,26.62,0 98.0,26.75,0 98.0,26.88,0 98.0,27.0,0 98.0,27.12,0 98.0,27.25,0 98.0,27.38,0 98.0,27.5,0 98.0,27.62,0 98.0,27.75,0 98.0,27.88,0 98.0,28.0,0 98.0,28.12,0 98.0,28.25,0 98.0,28.38,0 98.0,28.5,0 98.0,28.62,0 98.0,28.75,0 98.0,28.88,0 98.0,29.0,0 98.0,29.12,0 98.0,29.25,0 98.0,29.38,0 98.0,29.5,0 98.0,29.62,0 98.0,29.75,0 98.0,29.88,0 98.0,30.0,0 98.0,30.12,0 98.0,30.25,0 98.0,30.38,0 98.0,30.5,0 98.0,30.62,0 98.0,30.75,0 98.0,30.88,0 98.0,31.0,0 98.0,31.12,0 98.0,31.25,0 98.0,31.38,0 98.0,31.5,0 98.0,31.62,0 98.0,31.75,0 98.0,31.88,0 98.0,32.0,0 98.0,32.12,0 98.0,32.25,0 98.0,32.38,0 98.0,32.5,0 98.0,32.62,0 98.0,32.75,0 98.0,32.88,0 98.0,33.0,0 98.0,33.12,0 98.0,33.25,0 98.0,33.38,0 98.0,33.5,0 98.0,33.62,0 98.0,33.75,0 98.0,33.88,0 98.0,34.0,0 98.0,34.12,0 98.0,34.25,0 98.0,34.38,0 98.0,34.5,0 98.0,34.62,0 98.0,34.75,0 98.0,34.88,0 98.0,35.0,0 98.0,35.12,0 98.0,35.25,0 98.0,35.38,0 98.0,35.5,0 98.0,35.62,0 98.0,35.75,0 98.0,35.88,0 98.0,36.0,0 98.0,36.12,0 98.0,36.25,0 98.0,36.38,0 98.0,36.5,0 98.0,36.62,0 98.0,36.75,0 98.0,36.88,0 98.0,37.0,0 98.0,37.12,0 98.0,37.25,0 98.0,37.38,0 98.0,37.5,0 98.0,37.62,0 98.0,37.75,0 98.0,37.88,0 98.0,38.0,0 97.88,38.0,0 97.75,38.0,0 97.62,38.0,0 97.5,38.0,0 97.38,38.0,0 97.25,38.0,0 97.12,38.0,0 97.0,38.0,0 96.88,38.0,0 96.75,38.0,0 96.62,38.0,0 96.5,38.0,0 96.38,38.0,0 96.25,38.0,0 96.12,38.0,0 96.0,38.0,0 95.88,38.0,0 95.75,38.0,0 95.62,38.0,0 95.5,38.0,0 95.38,38.0,0 95.25,38.0,0 95.12,38.0,0 95.0,38.0,0 94.88,38.0,0 94.75,38.0,0 94.62,38.0,0 94.5,38.0,0 94.38,38.0,0 94.25,38.0,0 94.12,38.0,0 94.0,38.0,0 93.88,38.0,0 93.75,38.0,0 93.62,38.0,0 93.5,38.0,0 93.38,38.0,0 93.25,38.0,0 93.12,38.0,0 93.0,38.0,0 92.88,38.0,0 92.75,38.0,0 92.62,38.0,0 92.5,38.0,0 92.38,38.0,0 92.25,38.0,0 92.12,38.0,0 92.0,38.0,0 91.88,38.0,0 91.75,38.0,0 91.62,38.0,0 91.5,38.0,0 91.38,38.0,0 91.25,38.0,0 91.12,38.0,0 91.0,38.0,0 90.88,38.0,0 90.75,38.0,0 90.62,38.0,0 90.5,38.0,0 90.38,38.0,0 90.25,38.0,0 90.12,38.0,0 90.0,38.0,0 89.88,38.0,0 89.75,38.0,0 89.62,38.0,0 89.5,38.0,0 89.38,38.0,0 89.25,38.0,0 89.12,38.0,0 89.0,38.0,0 88.88,38.0,0 88.75,38.0,0 88.62,38.0,0 88.5,38.0,0 88.38,38.0,0 88.25,38.0,0 88.12,38.0,0 88.0,38.0,0 87.88,38.0,0 87.75,38.0,0 87.62,38.0,0 87.5,38.0,0 87.38,38.0,0 87.25,38.0,0 87.12,38.0,0 87.0,38.0,0 86.88,38.0,0 86.75,38.0,0 86.62,38.0,0 86.5,38.0,0 86.38,38.0,0 86.25,38.0,0 86.12,38.0,0 86.0,38.0,0 85.88,38.0,0 85.75,38.0,0 85.62,38.0,0 85.5,38.0,0 85.38,38.0,0 85.25,38.0,0 85.12,38.0,0 85.0,38.0,0 84.88,38.0,0 84.75,38.0,0 84.62,38.0,0 84.5,38.0,0 84.38,38.0,0 84.25,38.0,0 84.12,38.0,0 84.0,38.0,0 83.88,38.0,0 83.75,38.0,0 83.62,38.0,0 83.5,38.0,0 83.38,38.0,0 83.25,38.0,0 83.12,38.0,0 83.0,38.0,0 82.88,38.0,0 82.75,38.0,0 82.62,38.0,0 82.5,38.0,0 82.38,38.0,0 82.25,38.0,0 82.12,38.0,0 82.0,38.0,0 81.88,38.0,0 81.75,38.0,0 81.62,38.0,0 81.5,38.0,0 81.38,38.0,0 81.25,38.0,0 81.12,38.0,0 81.0,38.0,0 80.88,38.0,0 80.75,38.0,0 80.62,38.0,0 80.5,38.0,0 80.38,38.0,0 80.25,38.0,0 80.12,38.0,0 80.0,38.0,0 79.88,38.0,0 79.75,38.0,0 79.62,38.0,0 79.5,38.0,0 79.38,38.0,0 79.25,38.0,0 79.12,38.0,0 79.0,38.0,0 78.88,38.0,0 78.75,38.0,0 78.62,38.0,0 78.5,38.0,0 78.38,38.0,0 78.25,38.0,0 78.12,38.0,0 78.0,38.0,0 77.88,38.0,0 77.75,38.0,0 77.62,38.0,0 77.5,38.0,0 77.38,38.0,0 77.25,38.0,0 77.12,38.0,0 77.0,38.0,0 76.88,38.0,0 76.75,38.0,0 76.62,38.0,0 76.5,38.0,0 76.38,38.0,0 76.25,38.0,0 76.12,38.0,0 76.0,38.0,0 75.88,38.0,0 75.75,38.0,0 75.62,38.0,0 75.5,38.0,0 75.38,38.0,0 75.25,38.0,0 75.12,38.0,0 75.0,38.0,0 74.88,38.0,0 74.75,38.0,0 74.62,38.0,0 74.5,38.0,0 74.38,38.0,0 74.25,38.0,0 74.12,38.0,0 74.0,38.0,0 73.88,38.0,0 73.75,38.0,0 73.62,38.0,0 73.5,38.0,0 73.38,38.0,0 73.25,38.0,0 73.12,38.0,0 73.0,38.0,0 72.88,38.0,0 72.75,38.0,0 72.62,38.0,0 72.5,38.0,0 72.38,38.0,0 72.25,38.0,0 72.12,38.0,0 72.0,38.0,0 71.88,38.0,0 71.75,38.0,0 71.62,38.0,0 71.5,38.0,0 71.38,38.0,0 71.25,38.0,0 71.12,38.0,0 71.0,38.0,0 70.88,38.0,0 70.75,38.0,0 70.62,38.0,0 70.5,38.0,0 70.38,38.0,0 70.25,38.0,0 70.12,38.0,0 70.0,38.0,0 69.88,38.0,0 69.75,38.0,0 69.62,38.0,0 69.5,38.0,0 69.38,38.0,0 69.25,38.0,0 69.12,38.0,0 69.0,38.0,0 68.88,38.0,0 68.75,38.0,0 68.62,38.0,0 68.5,38.0,0 68.38,38.0,0 68.25,38.0,0 68.12,38.0,0 68.0,38.0,0 67.88,38.0,0 67.75,38.0,0 67.62,38.0,0 67.5,38.0,0 67.38,38.0,0 67.25,38.0,0 67.12,38.0,0 67.0,38.0,0 66.88,38.0,0 66.75,38.0,0 66.62,38.0,0 66.5,38.0,0 66.38,38.0,0 66.25,38.0,0 66.12,38.0,0 66.0,38.0,0 66.0,37.88,0 66.0,37.75,0 66.0,37.62,0 66.0,37.5,0 66.0,37.38,0 66.0,37.25,0 66.0,37.12,0 66.0,37.0,0 66.0,36.88,0 66.0,36.75,0 66.0,36.62,0 66.0,36.5,0 66.0,36.38,0 66.0,36.25,0 66.0,36.12,0 66.0,36.0,0 66.0,35.88,0 66.0,35.75,0 66.0,35.62,0 66.0,35.5,0 66.0,35.38,0 66.0,35.25,0 66.0,35.12,0 66.0,35.0,0 66.0,34.88,0 66.0,34.75,0 66.0,34.62,0 66.0,34.5,0 66.0,34.38,0 66.0,34.25,0 66.0,34.12,0 66.0,34.0,0 66.0,33.88,0 66.0,33.75,0 66.0,33.62,0 66.0,33.5,0 66.0,33.38,0 66.0,33.25,0 66.0,33.12,0 66.0,33.0,0 66.0,32.88,0 66.0,32.75,0 66.0,32.62,0 66.0,32.5,0 66.0,32.38,0 66.0,32.25,0 66.0,32.12,0 66.0,32.0,0 66.0,31.88,0 66.0,31.75,0 66.0,31.62,0 66.0,31.5,0 66.0,31.38,0 66.0,31.25,0 66.0,31.12,0 66.0,31.0,0 66.0,30.88,0 66.0,30.75,0 66.0,30.62,0 66.0,30.5,0 66.0,30.38,0 66.0,30.25,0 66.0,30.12,0 66.0,30.0,0 66.0,29.88,0 66.0,29.75,0 66.0,29.62,0 66.0,29.5,0 66.0,29.38,0 66.0,29.25,0 66.0,29.12,0 66.0,29.0,0 66.0,28.88,0 66.0,28.75,0 66.0,28.62,0 66.0,28.5,0 66.0,28.38,0 66.0,28.25,0 66.0,28.12,0 66.0,28.0,0 66.0,27.88,0 66.0,27.75,0 66.0,27.62,0 66.0,27.5,0 66.0,27.38,0 66.0,27.25,0 66.0,27.12,0 66.0,27.0,0 66.0,26.88,0 66.0,26.75,0 66.0,26.62,0 66.0,26.5,0 66.0,26.38,0 66.0,26.25,0 66.0,26.12,0 66.0,26.0,0 66.0,25.88,0 66.0,25.75,0 66.0,25.62,0 66.0,25.5,0 66.0,25.38,0 66.0,25.25,0 66.0,25.12,0 66.0,25.0,0 66.0,24.88,0 66.0,24.75,0 66.0,24.62,0 66.0,24.5,0 66.0,24.38,0 66.0,24.25,0 66.0,24.12,0 66.0,24.0,0 66.0,23.88,0 66.0,23.75,0 66.0,23.62,0 66.0,23.5,0 66.0,23.38,0 66.0,23.25,0 66.0,23.12,0 66.0,23.0,0 66.0,22.88,0 66.0,22.75,0 66.0,22.62,0 66.0,22.5,0 66.0,22.38,0 66.0,22.25,0 66.0,22.12,0 66.0,22.0,0 66.0,21.88,0 66.0,21.75,0 66.0,21.62,0 66.0,21.5,0 66.0,21.38,0 66.0,21.25,0 66.0,21.12,0 66.0,21.0,0 66.0,20.88,0 66.0,20.75,0 66.0,20.62,0 66.0,20.5,0 66.0,20.38,0 66.0,20.25,0 66.0,20.12,0 66.0,20.0,0 66.0,19.88,0 66.0,19.75,0 66.0,19.62,0 66.0,19.5,0 66.0,19.38,0 66.0,19.25,0 66.0,19.12,0 66.0,19.0,0 66.0,18.88,0 66.0,18.75,0 66.0,18.62,0 66.0,18.5,0 66.0,18.38,0 66.0,18.25,0 66.0,18.12,0 66.0,18.0,0 66.0,17.88,0 66.0,17.75,0 66.0,17.62,0 66.0,17.5,0 66.0,17.38,0 66.0,17.25,0 66.0,17.12,0 66.0,17.0,0 66.0,16.88,0 66.0,16.75,0 66.0,16.62,0 66.0,16.5,0 66.0,16.38,0 66.0,16.25,0 66.0,16.12,0 66.0,16.0,0 66.0,15.88,0 66.0,15.75,0 66.0,15.62,0 66.0,15.5,0 66.0,15.38,0 66.0,15.25,0 66.0,15.12,0 66.0,15.0,0 66.0,14.88,0 66.0,14.75,0 66.0,14.62,0 66.0,14.5,0 66.0,14.38,0 66.0,14.25,0 66.0,14.12,0 66.0,14.0,0 66.0,13.88,0 66.0,13.75,0 66.0,13.62,0 66.0,13.5,0 66.0,13.38,0 66.0,13.25,0 66.0,13.12,0 66.0,13.0,0 66.0,12.88,0 66.0,12.75,0 66.0,12.62,0 66.0,12.5,0 66.0,12.38,0 66.0,12.25,0 66.0,12.12,0 66.0,12.0,0 66.0,11.88,0 66.0,11.75,0 66.0,11.62,0 66.0,11.5,0 66.0,11.38,0 66.0,11.25,0 66.0,11.12,0 66.0,11.0,0 66.0,10.88,0 66.0,10.75,0 66.0,10.62,0 66.0,10.5,0 66.0,10.38,0</coordinates></LinearRing></outerBoundaryIs></Polygon></Placemark>
<Placemark><name>after sunset</name><styleUrl>#night</styleUrl><Polygon><outerBoundaryIs><LinearRing><coordinates>66.0,10.38,0 66.0,10.28,0 66.12,10.28,0 66.25,10.28,0 66.38,10.29,0 66.5,10.29,0 66.62,10.29,0 66.75,10.29,0 66.88,10.29,0 67.0,10.3,0 67.12,10.3,0 67.25,10.3,0 67.38,10.31,0 67.5,10.31,0 67.62,10.32,0 67.75,10.32,0 67.88,10.33,0 68.0,10.34,0 68.12,10.34,0 68.25,10.35,0 68.38,10.36,0 68.5,10.37,0 68.62,10.37,0 68.64,10.38,0 68.75,10.38,0 68.88,10.39,0 69.0,10.4,0 69.12,10.41,0 69.25,10.42,0 69.38,10.43,0 69.5,10.45,0 69.62,10.46,0 69.75,10.47,0 69.88,10.48,0 70.0,10.5,0 70.03,10.5,0 70.12,10.51,0 70.25,10.53,0 70.38,10.54,0 70.5,10.55,0 70.62,10.57,0 70.75,10.59,0 70.88,10.6,0 71.0,10.62,0 71.05,10.62,0 71.12,10.64,0 71.25,10.65,0 71.38,10.67,0 71.5,10.69,0 71.62,10.71,0 71.75,10.73,0 71.88,10.75,0 71.9,10.75,0 72.0,10.77,0 72.12,10.79,0 72.25,10.81,0 72.38,10.83,0 72.5,10.85,0 72.62,10.87,0 72.65,10.88,0 72.75,10.89,0 72.88,10.91,0 73.0,10.94,0 73.12,10.96,0 73.25,10.98,0 73.33,11.0,0 73.38,11.01,0 73.5,11.03,0 73.62,11.06,0 73.75,11.08,0 73.88,11.11,0 73.96,11.12,0 74.0,11.13,0 74.12,11.16,0 74.25,11.19,0 74.38,11.21,0 74.5,11.24,0 74.54,11.25,0 74.62,11.27,0 74.75,11.3,0 74.88,11.33,0 75.0,11.35,0 75.09,11.38,0 75.12,11.38,0 75.25,11.41,0 75.38,11.44,0 75.5,11.47,0 75.61,11.5,0 75.62,11.5,0 75.75,11.53,0 75.88,11.57,0 76.0,11.6,0 76.11,11.62,0 76.12,11.63,0 76.25,11.66,0 76.38,11.69,0 76.5,11.73,0 76.59,11.75,0 76.62,11.76,0 76.75,11.79,0 76.88,11.83,0 77.0,11.86,0 77.05,11.88,0 77.12,11.9,0 77.25,11.93,0 77.38,11.97,0 77.5,12.0,0 77.5,12.0,0 77.62,12.04,0 77.75,12.07,0 77.88,12.11,0 77.93,12.12,0 78.0,12.15,0 78.12,12.18,0 78.25,12.22,0 78.35,12.25,0 78.37,12.26,0 78.5,12.3,0 78.62,12.33,0 78.75,12.37,0 78.76,12.38,0 78.88,12.41,0 79.0,12.45,0 79.12,12.49,0 79.16,12.5,0 79.25,12.53,0 79.38,12.57,0 79.5,12.61,0 79.55,12.62,0 79.62,12.65,0 79.75,12.69,0 79.88,12.73,0 79.93,12.75,0 80.0,12.77,0 80.12,12.81,0 80.25,12.86,0 80.3,12.88,0 80.38,12.9,0 80.5,12.94,0 80.62,12.98,0 80.67,13.0,0 80.75,13.03,0 80.88,13.07,0 81.0,13.11,0 81.03,13.12,0 81.12,13.16,0 81.25,13.2,0 81.38,13.25,0 81.38,13.25,0 81.5,13.29,0 81.5,13.38,0 81.5,13.5,0 81.5,13.62,0 81.5,13.75,0 81.5,13.88,0 81.5,14.0,0 81.5,14.12,0 81.52,14.25,0 81.52,14.38,0 81.51,14.5,0 81.5,14.55,0 81.44,14.62,0 81.42,14.75,0 81.41,14.88,0 81.4,15.0,0 81.38,15.12,0 81.38,15.16,0 81.33,15.25,0 81.3,15.38,0 81.29,15.5,0 81.28,15.62,0 81.25,15.75,0 81.25,15.76,0 81.2,15.88,0 81.18,16.0,0 81.17,16.12,0 81.15,16.25,0 81.12,16.36,0 81.12,16.38,0 81.08,16.5,0 81.06,16.62,0 81.04,16.75,0 81.02,16.88,0 81.0,16.95,0 80.98,17.0,0 80.95,17.12,0 80.93,17.25,0 80.91,17.38,0 80.88,17.5,0 80.88,17.54,0 80.85,17.62,0 80.82,17.75,0 80.8,17.88,0 80.77,18.0,0 80.79,18.12,0 80.79,18.25,0 80.79,18.38,0 80.78,18.5,0 80.78,18.62,0 80.88,18.72,0 80.9,18.75,0 80.9,18.88,0 80.89,19.0,0 80.89,19.12,0 81.0,19.23,0 81.01,19.25,0 81.01,19.38,0 81.01,19.5,0 81.01,19.62,0 81.01,19.75,0 81.11,19.88,0 81.08,20.0,0 81.05,20.12,0 81.02,20.25,0 81.0,20.36,0 80.99,20.38,0 80.97,20.5,0 80.94,20.62,0 80.91,20.75,0 80.88,20.88,0 80.88,20.9,0 80.85,21.0,0 80.82,21.12,0 80.79,21.25,0 80.76,21.38,0 80.75,21.44,0 80.73,21.5,0 80.71,21.62,0 80.68,21.75,0 80.65,21.88,0 80.62,21.97,0 80.62,22.0,0 80.59,22.12,0 80.56,22.25,0 80.53,22.38,0 80.5,22.49,0 80.5,22.5,0 80.47,22.63,0 80.44,22.75,0 80.41,22.88,0 80.44,23.0,0 80.43,23.12,0 80.43,23.25,0 80.43,23.38,0 80.5,23.45,0 80.54,23.5,0 80.53,23.62,0 80.53,23.75,0 80.53,23.88,0 80.62,23.97,0 80.65,24.0,0 80.65,24.12,0 80.65,24.25,0 80.75,24.37,0 80.76,24.38,0 80.75,24.5,0 80.75,24.52,0 80.72,24.62,0 80.69,24.75,0 80.66,24.88,0 80.63,25.0,0 80.62,25.01,0 80.6,25.13,0 80.56,25.25,0 80.53,25.38,0 80.5,25.5,0 80.5,25.5,0 80.47,25.62,0 80.43,25.75,0 80.4,25.88,0 80.38,25.98,0 80.37,26.0,0 80.34,26.12,0 80.3,26.25,0 80.27,26.38,0 80.25,26.45,0 80.24,26.5,0 80.2,26.62,0 80.17,26.75,0 80.14,26.88,0 80.12,26.92,0 80.11,27.0,0 80.1,27.12,0 80.09,27.25,0 80.12,27.29,0 80.18,27.38,0 80.18,27.5,0 80.17,27.62,0 80.25,27.7,0 80.29,27.75,0 80.29,27.88,0 80.28,28.0,0 80.38,28.1,0 80.4,28.12,0 80.39,28.25,0 80.39,28.38,0 80.44,28.5,0 80.41,28.62,0 80.38,28.74,0 80.37,28.75,0 80.34,28.88,0 80.3,29.0,0 80.27,29.12,0 80.25,29.18,0 80.23,29.25,0 80.19,29.37,0 80.16,29.5,0 80.12,29.61,0 80.12,29.62,0 80.09,29.75,0 80.05,29.88,0 80.01,30.0,0 80.0,30.04,0 79.98,30.12,0 79.94,30.25,0 79.9,30.38,0 79.88,30.47,0 79.87,30.5,0 79.83,30.62,0 79.84,30.75,0 79.83,30.88,0 79.83,31.0,0 79.88,31.05,0 79.93,31.12,0 79.93,31.25,0 79.92,31.38,0 80.0,31.45,0 80.04,31.5,0 80.04,31.62,0 80.12,31.73,0 80.14,31.75,0 80.14,31.88,0 80.13,32.0,0 80.12,32.12,0 80.12,32.12,0 80.08,32.25,0 80.04,32.38,0 80.01,32.5,0 80.0,32.52,0 79.97,32.62,0 79.93,32.75,0 79.89,32.88,0 79.88,32.91,0 79.85,33.0,0 79.81,33.12,0 79.77,33.25,0 79.75,33.3,0 79.73,33.38,0 79.69,33.5,0 79.64,33.62,0 79.62,33.69,0 79.6,33.75,0 79.56,33.88,0 79.52,34.0,0 79.5,34.07,0 79.49,34.12,0 79.5,34.13,0 79.58,34.25,0 79.57,34.38,0 79.62,34.43,0 79.68,34.5,0 79.68,34.62,0 79.67,34.75,0 79.75,34.83,0 79.78,34.88,0 79.78,35.0,0 79.88,35.12,0 79.88,35.12,0 79.88,35.18,0 79.85,35.25,0 79.81,35.38,0 79.77,35.5,0 79.75,35.54,0 79.72,35.62,0 79.68,35.75,0 79.63,35.88,0 79.62,35.9,0 79.59,36.0,0 79.55,36.12,0 79.5,36.25,0 79.5,36.26,0 79.46,36.38,0 79.41,36.5,0 79.38,36.6,0 79.37,36.62,0 79.32,36.75,0 79.28,36.88,0 79.25,36.95,0 79.23,37.0,0 79.23,37.12,0 79.22,37.25,0 79.21,37.38,0 79.25,37.41,0 79.31,37.5,0 79.31,37.62,0 79.38,37.69,0 79.42,37.75,0 79.42,37.88,0 79.5,37.98,0 79.52,38.0,0 79.5,38.0,0 79.38,38.0,0 79.25,38.0,0 79.12,38.0,0 79.0,38.0,0 78.88,38.0,0 78.75,38.0,0 78.62,38.0,0 78.5,38.0,0 78.38,38.0,0 78.25,38.0,0 78.12,38.0,0 78.0,38.0,0 77.88,38.0,0 77.75,38.0,0 77.62,38.0,0 77.5,38.0,0 77.38,38.0,0 77.25,38.0,0 77.12,38.0,0 77.0,38.0,0 76.88,38.0,0 76.75,38.0,0 76.62,38.0,0 76.5,38.0,0 76.38,38.0,0 76.25,38.0,0 76.12,38.0,0 76.0,38.0,0 75.88,38.0,0 75.75,38.0,0 75.62,38.0,0 75.5,38.0,0 75.38,38.0,0 75.25,38.0,0 75.12,38.0,0 75.0,38.0,0 74.88,38.0,0 74.75,38.0,0 74.62,38.0,0 74.5,38.0,0 74.38,38.0,0 74.25,38.0,0 74.12,38.0,0 74.0,38.0,0 73.88,38.0,0 73.75,38.0,0 73.62,38.0,0 73.5,38.0,0 73.38,38.0,0 73.25,38.0,0 73.12,38.0,0 73.0,38.0,0 72.88,38.0,0 72.75,38.0,0 72.62,38.0,0 72.5,38.0,0 72.38,38.0,0 72.25,38.0,0 72.12,38.0,0 72.0,38.0,0 71.88,38.0,0 71.75,38.0,0 71.62,38.0,0 71.5,38.0,0 71.38,38.0,0 71.25,38.0,0 71.12,38.0,0 71.0,38.0,0 70.88,38.0,0 70.75,38.0,0 70.62,38.0,0 70.5,38.0,0 70.38,38.0,0 70.25,38.0,0 70.12,38.0,0 70.0,38.0,0 69.88,38.0,0 69.75,38.0,0 69.62,38.0,0 69.5,38.0,0 69.38,38.0,0 69.25,38.0,0 69.12,38.0,0 69.0,38.0,0 68.88,38.0,0 68.75,38.0,0 68.62,38.0,0 68.5,38.0,0 68.38,38.0,0 68.25,38.0,0 68.12,38.0,0 68.0,38.0,0 67.88,38.0,0 67.75,38.0,0 67.62,38.0,0 67.5,38.0,0 67.38,38.0,0 67.25,38.0,0 67.12,38.0,0 67.0,38.0,0 66.88,38.0,0 66.75,38.0,0 66.62,38.0,0 66.5,38.0,0 66.38,38.0,0 66.25,38.0,0 66.12,38.0,0 66.0,38.0,0 66.0,37.88,0 66.0,37.75,0 66.0,37.62,0 66.0,37.5,0 66.0,37.38,0 66.0,37.25,0 66.0,37.12,0 66.0,37.0,0 66.0,36.88,0 66.0,36.75,0 66.0,36.62,0 66.0,36.5,0 66.0,36.38,0 66.0,36.25,0 66.0,36.12,0 66.0,36.0,0 66.0,35.88,0 66.0,35.75,0 66.0,35.62,0 66.0,35.5,0 66.0,35.38,0 66.0,35.25,0 66.0,35.12,0 66.0,35.0,0 66.0,34.88,0 66.0,34.75,0 66.0,34.62,0 66.0,34.5,0 66.0,34.38,0 66.0,34.25,0 66.0,34.12,0 66.0,34.0,0 66.0,33.88,0 66.0,33.75,0 66.0,33.62,0 66.0,33.5,0 66.0,33.38,0 66.0,33.25,0 66.0,33.12,0 66.0,33.0,0 66.0,32.88,0 66.0,32.75,0 66.0,32.62,0 66.0,32.5,0 66.0,32.38,0 66.0,32.25,0 66.0,32.12,0 66.0,32.0,0 66.0,31.88,0 66.0,31.75,0 66.0,31.62,0 66.0,31.5,0 66.0,31.38,0 66.0,31.25,0 66.0,31.12,0 66.0,31.0,0 66.0,30.88,0 66.0,30.75,0 66.0,30.62,0 66.0,30.5,0 66.0,30.38,0 66.0,30.25,0 66.0,30.12,0 66.0,30.0,0 66.0,29.88,0 66.0,29.75,0 66.0,29.62,0 66.0,29.5,0 66.0,29.38,0 66.0,29.25,0 66.0,29.12,0 66.0,29.0,0 66.0,28.88,0 66.0,28.75,0 66.0,28.62,0 66.0,28.5,0 66.0,28.38,0 66.0,28.25,0 66.0,28.12,0 66.0,28.0,0 66.0,27.88,0 66.0,27.75,0 66.0,27.62,0 66.0,27.5,0 66.0,27.38,0 66.0,27.25,0 66.0,27.12,0 66.0,27.0,0 66.0,26.88,0 66.0,26.75,0 66.0,26.62,0 66.0,26.5,0 66.0,26.38,0 66.0,26.25,0 66.0,26.12,0 66.0,26.0,0 66.0,25.88,0 66.0,25.75,0 66.0,25.62,0 66.0,25.5,0 66.0,25.38,0 66.0,25.25,0 66.0,25.12,0 66.0,25.0,0 66.0,24.88,0 66.0,24.75,0 66.0,24.62,0 66.0,24.5,0 66.0,24.38,0 66.0,24.25,0 66.0,24.12,0 66.0,24.0,0 66.0,23.88,0 66.0,23.75,0 66.0,23.62,0 66.0,23.5,0 66.0,23.38,0 66.0,23.25,0 66.0,23.12,0 66.0,23.0,0 66.0,22.88,0 66.0,22.75,0 66.0,22.62,0 66.0,22.5,0 66.0,22.38,0 66.0,22.25,0 66.0,22.12,0 66.0,22.0,0 66.0,21.88,0 66.0,21.75,0 66.0,21.62,0 66.0,21.5,0 66.0,21.38,0 66.0,21.25,0 66.0,21.12,0 66.0,21.0,0 66.0,20.88,0 66.0,20.75,0 66.0,20.62,0 66.0,20.5,0 66.0,20.38,0 66.0,20.25,0 66.0,20.12,0 66.0,20.0,0 66.0,19.88,0 66.0,19.75,0 66.0,19.62,0 66.0,19.5,0 66.0,19.38,0 66.0,19.25,0 66.0,19.12,0 66.0,19.0,0 66.0,18.88,0 66.0,18.75,0 66.0,18.62,0 66.0,18.5,0 66.0,18.38,0 66.0,18.25,0 66.0,18.12,0 66.0,18.0,0 66.0,17.88,0 66.0,17.75,0 66.0,17.62,0 66.0,17.5,0 66.0,17.38,0 66.0,17.25,0 66.0,17.12,0 66.0,17.0,0 66.0,16.88,0 66.0,16.75,0 66.0,16.62,0 66.0,16.5,0 66.0,16.38,0 66.0,16.25,0 66.0,16.12,0 66.0,16.0,0 66.0,15.88,0 66.0,15.75,0 66.0,15.62,0 66.0,15.5,0 66.0,15.38,0 66.0,15.25,0 66.0,15.12,0 66.0,15.0,0 66.0,14.88,0 66.0,14.75,0 66.0,14.62,0 66.0,14.5,0 66.0,14.38,0 66.0,14.25,0 66.0,14.12,0 66.0,14.0,0 66.0,13.88,0 66.0,13.75,0 66.0,13.62,0 66.0,13.5,0 66.0,13.38,0 66.0,13.25,0 66.0,13.12,0 66.0,13.0,0 66.0,12.88,0 66.0,12.75,0 66.0,12.62,0 66.0,12.5,0 66.0,12.38,0 66.0,12.25,0 66.0,12.12,0 66.0,12.0,0 66.0,11.88,0 66.0,11.75,0 66.0,11.62,0 66.0,11.5,0 66.0,11.38,0 66.0,11.25,0 66.0,11.12,0 66.0,11.0,0 66.0,10.88,0 66.0,10.75,0 66.0,10.62,0 66.0,10.5,0 66.0,10.38,0</coordinates></LinearRing></outerBoundaryIs></Polygon></Placemark>
</Folder><Folder><name>Cities</name>
<Placemark><name>Agartala</name><styleUrl>#city</styleUrl><description>D1 05:14:34 · D2 05:14:34 · R1 06:10:10 · R2 06:10:10 (IST)</description><Point><coordinates>91.2868,23.8315,0</coordinates></Point></Placemark>
<Placemark><name>Agra</name><styleUrl>#city</styleUrl><description>D1 04:35:55 · D2 04:35:55 · R1 05:57:57 · R2 05:57:57 (IST)</description><Point><coordinates>78.0081,27.1767,0</coordinates></Point></Placemark>
<Placemark><name>Ahmedabad</name><styleUrl>#city</styleUrl><description>D1 04:26:09 · D2 04:26:09 · R1 05:48:09 · R2 05:48:09 (IST)</description><Point><coordinates>72.5714,23.0225,0</coordinates></Point></Placemark>
<Placemark><name>Aizawl</name><styleUrl>#city</styleUrl><description>D1 05:18:26 · D2 05:18:26 · R1 06:10:26 · R2 06:10:26 (IST)</description><Point><coordinates>92.7176,23.7271,0</coordinates></Point></Placemark>
<Placemark><name>Ajmer</name><styleUrl>#city</styleUrl><description>D1 04:27:54 · D2 04:27:54 · R1 05:52:21 · R2 05:52:21 (IST)</description><Point><coordinates>74.6399,26.4499,0</coordinates></Point></Placemark>
<Placemark><name>Akola</name><styleUrl>#city</styleUrl><description>D1 04:42:10 · D2 04:42:10 · R1 05:54:37 · R2 05:54:37 (IST)</description><Point><coordinates>77.0082,20.7002,0</coordinates></Point></Placemark>
<Placemark><name>Allahabad</name><styleUrl>#city</styleUrl><description>D1 04:47:53 · D2 04:47:53 · R1 06:03:23 · R2 06:03:23 (IST)</description><Point><coordinates>81.8463,25.4358,0</coordinates></Point></Placemark>
<Placemark><name>Almora</name><styleUrl>#city</styleUrl><description>D1 04:37:39 · D2 04:37:39 · R1 05:59:50 · R2 05:59:50 (IST)</description><Point><coordinates>79.6591,29.5971,0</coordinates></Point></Placemark>
<Placemark><name>Ambala</name><styleUrl>#city</styleUrl><description>D1 04:30:00 · D2 04:30:00 · R1 05:54:51 · R2 05:54:51 (IST)</description><Point><coordinates>76.7767,30.3782,0</coordinates></Point></Placemark>
<Placemark><name>Amritsar</name><styleUrl>#city</styleUrl><description>D1 04:24:32 · D2 04:24:32 · R1 05:50:51 · R2 05:50:51 (IST)</description><Point><coordinates>74.8723,31.634,0</coordinates></Point></Placemark>
<Placemark><name>Anand</name><styleUrl>#city</styleUrl><description>D1 04:27:46 · D2 04:27:46 · R1 05:48:40 · R2 05:48:40 (IST)</description><Point><coordinates>72.9289,22.5645,0</coordinates></Point></Placemark>
<Placemark><name>Asansol</name><styleUrl>#city</styleUrl><description>D1 05:03:54 · D2 05:03:54 · R1 06:07:48 · R2 06:07:48 (IST)</description><Point><coordinates>86.9661,23.6889,0</coordinates></Point></Placemark>
<Placemark><name>Aurangabad</name><styleUrl>#city</styleUrl><description>D1 04:38:52 · D2 04:38:52 · R1 05:51:19 · R2 05:51:19 (IST)</description><Point><coordinates>75.3433,19.8762,0</coordinates></Point></Placemark>
<Placemark><name>Ayodhya</name><styleUrl>#city</styleUrl><description>D1 04:47:00 · D2 04:47:00 · R1 06:03:54 · R2 06:03:54 (IST)</description><Point><coordinates>82.1998,26.7922,0</coordinates></Point></Placemark>
<Placemark><name>Balasore</name><styleUrl>#city</styleUrl><description>D1 05:08:31 · D2 05:08:31 · R1 06:05:39 · R2 06:05:39 (IST)</description><Point><coordinates>86.9135,21.4934,0</coordinates></Point></Placemark>
<Placemark><name>Bangalore</name><styleUrl>#city</styleUrl><description>D1 05:09:13 · D2 05:09:13 · R1 05:37:00 · R2 05:37:00 (IST)</description><Point><coordinates>77.5946,12.9716,0</coordinates></Point></Placemark>
<Placemark><name>Bankura</name><styleUrl>#city</styleUrl><description>D1 05:05:03 · D2 05:05:03 · R1 06:07:32 · R2 06:07:32 (IST)</description><Point><coordinates>87.0649,23.2324,0</coordinates></Point></Placemark>
<Placemark><name>Bareilly</name><styleUrl>#city</styleUrl><description>D1 04:38:18 · D2 04:38:18 · R1 05:59:53 · R2 05:59:53 (IST)</description><Point><coordinates>79.4304,28.367,0</coordinates></Point></Placemark>
<Placemark><name>Bauxar</name><styleUrl>#city</styleUrl><description>D1 04:53:08 · D2 04:53:08 · R1 06:05:53 · R2 06:05:53 (IST)</description><Point><coordinates>83.9777,25.5647,0</coordinates></Point></Placemark>
<Placemark><name>Belgaon</name><styleUrl>#city</styleUrl><description>D1 04:45:57 · D2 04:45:57 · R1 05:43:59 · R2 05:43:59 (IST)</description><Point><coordinates>74.4977,15.8497,0</coordinates></Point></Placemark>
<Placemark><name>Berhampur</name><styleUrl>#city</styleUrl><description>D1 05:08:07 · D2 05:08:07 · R1 06:01:10 · R2 06:01:10 (IST)</description><Point><coordinates>84.7941,19.315,0</coordinates></Point></Placemark>
<Placemark><name>Bhagalpur</name><styleUrl>#city</styleUrl><description>D1 05:01:07 · D2 05:01:07 · R1 06:08:38 · R2 06:08:38 (IST)</description><Point><coordinates>86.9842,25.2425,0</coordinates></Point></Placemark>
<Placemark><name>Bharatpur</name><styleUrl>#city</styleUrl><description>D1 04:34:35 · D2 04:34:35 · R1 05:57:09 · R2 05:57:09 (IST)</description><Point><coordinates>77.503,27.2152,0</coordinates></Point></Placemark>
<Placemark><name>Bhavnagar</name><styleUrl>#city</styleUrl><description>D1 04:26:42 · D2 04:26:42 · R1 05:46:49 · R2 05:46:49 (IST)</description><Point><coordinates>72.1519,21.7645,0</coordinates></Point></Placemark>
<Placemark><name>Bhopal</name><styleUrl>#city</styleUrl><description>D1 04:39:11 · D2 04:39:11 · R1 05:56:40 · R2 05:56:40 (IST)</description><Point><coordinates>77.4126,23.2599,0</coordinates></Point></Placemark>
<Placemark><name>Bhubaneswar</name><styleUrl>#city</styleUrl><description>D1 05:08:29 · D2 05:08:29 · R1 06:03:24 · R2 06:03:24 (IST)</description><Point><coordinates>85.8245,20.2961,0</coordinates></Point></Placemark>
<Placemark><name>Bhuj</name><styleUrl>#city</styleUrl><description>D1 04:17:58 · D2 04:17:58 · R1 05:42:15 · R2 05:42:15 (IST)</description><Point><coordinates>69.6669,23.242,0</coordinates></Point></Placemark>
<Placemark><name>Bijapur</name><styleUrl>#city</styleUrl><description>D1 04:46:57 · D2 04:46:57 · R1 05:47:45 · R2 05:47:45 (IST)</description><Point><coordinates>75.71,16.8302,0</coordinates></Point></Placemark>
<Placemark><name>Bikaner</name><styleUrl>#city</styleUrl><description>D1 04:23:06 · D2 04:23:06 · R1 05:49:34 · R2 05:49:34 (IST)</description><Point><coordinates>73.3119,28.0229,0</coordinates></Point></Placemark>
<Placemark><name>Bilaspur</name><styleUrl>#city</styleUrl><description>D1 04:54:07 · D2 04:54:07 · R1 06:02:19 · R2 06:02:19 (IST)</description><Point><coordinates>82.1409,22.0797,0</coordinates></Point></Placemark>
<Placemark><name>Bokaro</name><styleUrl>#city</styleUrl><description>D1 05:01:51 · D2 05:01:51 · R1 06:07:10 · R2 06:07:10 (IST)</description><Point><coordinates>86.1511,23.6693,0</coordinates></Point></Placemark>
<Placemark><name>Cannanore</name><styleUrl>#city</styleUrl><description>D1 05:09:17 · D2 05:09:17 · R1 05:28:51 · R2 05:28:51 (IST)</description><Point><coordinates>75.3704,11.8745,0</coordinates></Point></Placemark>
<Placemark><name>Champa</name><styleUrl>#city</styleUrl><description>D1 04:55:37 · D2 04:55:37 · R1 06:02:48 · R2 06:02:48 (IST)</description><Point><coordinates>82.6576,22.0354,0</coordinates></Point></Placemark>
<Placemark><name>Chandigarh</name><styleUrl>#city</styleUrl><description>D1 04:29:44 · D2 04:29:44 · R1 05:54:42 · R2 05:54:42 (IST)</description><Point><coordinates>76.7794,30.7333,0</coordinates></Point></Placemark>
<Placemark><name>Chennai</name><styleUrl>#city</styleUrl><description>D1 05:22:24 · D2 05:22:24 · R1 05:35:18 · R2 05:35:18 (IST)</description><Point><coordinates>80.2707,13.0827,0</coordinates></Point></Placemark>
<Placemark><name>Chittoor (A.P.)</name><styleUrl>#city</styleUrl><description>D1 05:14:11 · D2 05:14:11 · R1 05:38:18 · R2 05:38:18 (IST)</description><Point><coordinates>79.1003,13.2172,0</coordinates></Point></Placemark>
<Placemark><name>Chittorgarh</name><styleUrl>#city</styleUrl><description>D1 04:29:30 · D2 04:29:30 · R1 05:52:21 · R2 05:52:21 (IST)</description><Point><coordinates>74.6269,24.8887,0</coordinates></Point></Placemark>
<Placemark><name>Cochin</name><styleUrl>#city</styleUrl><description>near miss: Antares passes 1.4′ from the limb (IST)</description><Point><coordinates>76.2673,9.9312,0</coordinates></Point></Placemark>
<Placemark><name>Coimbatore</name><styleUrl>#city</styleUrl><description>near miss: Antares passes 0.7′ from the limb (IST)</description><Point><coordinates>76.9558,11.0168,0</coordinates></Point></Placemark>
<Placemark><name>Cooch Bihar</name><styleUrl>#city</styleUrl><description>D1 05:05:06 · D2 05:05:06 · R1 06:10:53 · R2 06:10:53 (IST)</description><Point><coordinates>89.4482,26.3452,0</coordinates></Point></Placemark>
<Placemark><name>Cuddalore</name><styleUrl>#city</styleUrl><description>near miss: Antares passes 0.8′ from the limb (IST)</description><Point><coordinates>79.7714,11.748,0</coordinates></Point></Placemark>
<Placemark><name>Cuttack</name><styleUrl>#city</styleUrl><description>D1 05:08:11 · D2 05:08:11 · R1 06:03:41 · R2 06:03:41 (IST)</description><Point><coordinates>85.883,20.4625,0</coordinates></Point></Placemark>
<Placemark><name>Darjeeling</name><styleUrl>#city</styleUrl><description>D1 05:01:11 · D2 05:01:11 · R1 06:10:09 · R2 06:10:09 (IST)</description><Point><coordinates>88.2663,27.041,0</coordinates></Point></Placemark>
<Placemark><name>Dehradun</name><styleUrl>#city</styleUrl><description>D1 04:33:06 · D2 04:33:06 · R1 05:56:57 · R2 05:56:57 (IST)</description><Point><coordinates>78.0322,30.3165,0</coordinates></Point></Placemark>
<Placemark><name>Delhi</name><styleUrl>#city</styleUrl><description>D1 04:32:30 · D2 04:32:30 · R1 05:56:20 · R2 05:56:20 (IST)</description><Point><coordinates>77.209,28.6139,0</coordinates></Point></Placemark>
<Placemark><name>Dhanbad</name><styleUrl>#city</styleUrl><description>D1 05:02:21 · D2 05:02:21 · R1 06:07:28 · R2 06:07:28 (IST)</description><Point><coordinates>86.4304,23.7957,0</coordinates></Point></Placemark>
<Placemark><name>Diamond Harbour</name><styleUrl>#city</styleUrl><description>D1 05:10:21 · D2 05:10:21 · R1 06:07:09 · R2 06:07:09 (IST)</description><Point><coordinates>88.1868,22.191,0</coordinates></Point></Placemark>
<Placemark><name>Dibrugarh</name><styleUrl>#city</styleUrl><description>D1 05:15:11 · D2 05:15:11 · R1 06:13:56 · R2 06:13:56 (IST)</description><Point><coordinates>94.912,27.4728,0</coordinates></Point></Placemark>
<Placemark><name>Dimapur</name><styleUrl>#city</styleUrl><description>D1 05:15:45 · D2 05:15:45 · R1 06:12:41 · R2 06:12:41 (IST)</description><Point><coordinates>93.7272,25.9065,0</coordinates></Point></Placemark>
<Placemark><name>Diu</name><styleUrl>#city</styleUrl><description>D1 04:25:01 · D2 04:25:01 · R1 05:43:52 · R2 05:43:52 (IST)</description><Point><coordinates>70.9874,20.7144,0</coordinates></Point></Placemark>
<Placemark><name>Durg</name><styleUrl>#city</styleUrl><description>D1 04:53:24 · D2 04:53:24 · R1 06:00:38 · R2 06:00:38 (IST)</description><Point><coordinates>81.2849,21.1904,0</coordinates></Point></Placemark>
<Placemark><name>Dwarka</name><styleUrl>#city</styleUrl><description>D1 04:17:16 · D2 04:17:16 · R1 05:40:22 · R2 05:40:22 (IST)</description><Point><coordinates>68.9678,22.2394,0</coordinates></Point></Placemark>
<Placemark><name>Etawah</name><styleUrl>#city</styleUrl><description>D1 04:38:56 · D2 04:38:56 · R1 05:59:33 · R2 05:59:33 (IST)</description><Point><coordinates>79.0152,26.7856,0</coordinates></Point></Placemark>
<Placemark><name>Faizabad</name><styleUrl>#city</styleUrl><description>D1 04:46:53 · D2 04:46:53 · R1 06:03:51 · R2 06:03:51 (IST)</description><Point><coordinates>82.1446,26.7735,0</coordinates></Point></Placemark>
<Placemark><name>Ferozpur</name><styleUrl>#city</styleUrl><description>D1 04:24:18 · D2 04:24:18 · R1 05:50:45 · R2 05:50:45 (IST)</description><Point><coordinates>74.6136,30.9332,0</coordinates></Point></Placemark>
<Placemark><name>Gandhinagar</name><styleUrl>#city</styleUrl><description>D1 04:26:06 · D2 04:26:06 · R1 05:48:19 · R2 05:48:19 (IST)</description><Point><coordinates>72.6369,23.2156,0</coordinates></Point></Placemark>
<Placemark><name>Gangtok</name><styleUrl>#city</styleUrl><description>D1 05:01:29 · D2 05:01:29 · R1 06:10:27 · R2 06:10:27 (IST)</description><Point><coordinates>88.6065,27.3389,0</coordinates></Point></Placemark>
<Placemark><name>Gaya</name><styleUrl>#city</styleUrl><description>D1 04:56:55 · D2 04:56:55 · R1 06:06:42 · R2 06:06:42 (IST)</description><Point><coordinates>84.9994,24.7955,0</coordinates></Point></Placemark>
<Placemark><name>Gopalpur</name><styleUrl>#city</styleUrl><description>D1 05:08:37 · D2 05:08:37 · R1 06:01:09 · R2 06:01:09 (IST)</description><Point><coordinates>84.9052,19.2594,0</coordinates></Point></Placemark>
<Placemark><name>Gorakhpur</name><styleUrl>#city</styleUrl><description>D1 04:49:55 · D2 04:49:55 · R1 06:05:20 · R2 06:05:20 (IST)</description><Point><coordinates>83.3732,26.7606,0</coordinates></Point></Placemark>
<Placemark><name>Gulmarg</name><styleUrl>#city</styleUrl><description>D1 04:22:04 · D2 04:22:04 · R1 05:48:16 · R2 05:48:16 (IST)</description><Point><coordinates>74.3805,34.0484,0</coordinates></Point></Placemark>
<Placemark><name>Gurgaon</name><styleUrl>#city</styleUrl><description>D1 04:32:12 · D2 04:32:12 · R1 05:56:05 · R2 05:56:05 (IST)</description><Point><coordinates>77.0266,28.4595,0</coordinates></Point></Placemark>
<Placemark><name>Guwahati</name><styleUrl>#city</styleUrl><description>D1 05:10:45 · D2 05:10:45 · R1 06:12:05 · R2 06:12:05 (IST)</description><Point><coordinates>91.7362,26.1445,0</coordinates></Point></Placemark>
<Placemark><name>Gwalior</name><styleUrl>#city</styleUrl><description>D1 04:37:28 · D2 04:37:28 · R1 05:58:18 · R2 05:58:18 (IST)</description><Point><coordinates>78.1828,26.2183,0</coordinates></Point></Placemark>
<Placemark><name>Haridwar</name><styleUrl>#city</styleUrl><description>D1 04:33:43 · D2 04:33:43 · R1 05:57:21 · R2 05:57:21 (IST)</description><Point><coordinates>78.1642,29.9457,0</coordinates></Point></Placemark>
<Placemark><name>Hassan</name><styleUrl>#city</styleUrl><description>D1 05:03:05 · D2 05:03:05 · R1 05:36:35 · R2 05:36:35 (IST)</description><Point><coordinates>76.1004,13.0072,0</coordinates></Point></Placemark>
<Placemark><name>Hubli</name><styleUrl>#city</styleUrl><description>D1 04:49:30 · D2 04:49:30 · R1 05:43:45 · R2 05:43:45 (IST)</description><Point><coordinates>75.124,15.3647,0</coordinates></Point></Placemark>
<Placemark><name>Hyderabad</name><styleUrl>#city</styleUrl><description>D1 04:54:03 · D2 04:54:03 · R1 05:52:20 · R2 05:52:20 (IST)</description><Point><coordinates>78.4867,17.385,0</coordinates></Point></Placemark>
<Placemark><name>Imphal</name><styleUrl>#city</styleUrl><description>D1 05:18:43 · D2 05:18:43 · R1 06:11:48 · R2 06:11:48 (IST)</description><Point><coordinates>93.9368,24.817,0</coordinates></Point></Placemark>
<Placemark><name>Indore</name><styleUrl>#city</styleUrl><description>D1 04:35:42 · D2 04:35:42 · R1 05:53:58 · R2 05:53:58 (IST)</description><Point><coordinates>75.8577,22.7196,0</coordinates></Point></Placemark>
<Placemark><name>Itanagar</name><styleUrl>#city</styleUrl><description>D1 05:13:06 · D2 05:13:06 · R1 06:13:19 · R2 06:13:19 (IST)</description><Point><coordinates>93.6053,27.0844,0</coordinates></Point></Placemark>
<Placemark><name>Jabalpur</name><styleUrl>#city</styleUrl><description>D1 04:46:21 · D2 04:46:21 · R1 06:00:19 · R2 06:00:19 (IST)</description><Point><coordinates>79.9864,23.1815,0</coordinates></Point></Placemark>
<Placemark><name>Jaipur</name><styleUrl>#city</styleUrl><description>D1 04:30:26 · D2 04:30:26 · R1 05:54:19 · R2 05:54:19 (IST)</description><Point><coordinates>75.7873,26.9124,0</coordinates></Point></Placemark>
<Placemark><name>Jaisalmer</name><styleUrl>#city</styleUrl><description>D1 04:17:40 · D2 04:17:40 · R1 05:44:59 · R2 05:44:59 (IST)</description><Point><coordinates>70.9083,26.9157,0</coordinates></Point></Placemark>
<Placemark><name>Jalandhar</name><styleUrl>#city</styleUrl><description>D1 04:26:25 · D2 04:26:25 · R1 05:52:16 · R2 05:52:16 (IST)</description><Point><coordinates>75.5762,31.326,0</coordinates></Point></Placemark>
<Placemark><name>Jalpaiguri</name><styleUrl>#city</styleUrl><description>D1 05:03:07 · D2 05:03:07 · R1 06:10:24 · R2 06:10:24 (IST)</description><Point><coordinates>88.7333,26.5167,0</coordinates></Point></Placemark>
<Placemark><name>Jammu</name><styleUrl>#city</styleUrl><description>D1 04:23:50 · D2 04:23:50 · R1 05:50:07 · R2 05:50:07 (IST)</description><Point><coordinates>74.857,32.7266,0</coordinates></Point></Placemark>
<Placemark><name>Jamshedpur</name><styleUrl>#city</styleUrl><description>D1 05:03:38 · D2 05:03:38 · R1 06:06:34 · R2 06:06:34 (IST)</description><Point><coordinates>86.2029,22.8046,0</coordinates></Point></Placemark>
<Placemark><name>Jhansi</name><styleUrl>#city</styleUrl><description>D1 04:39:22 · D2 04:39:22 · R1 05:58:53 · R2 05:58:53 (IST)</description><Point><coordinates>78.5685,25.4484,0</coordinates></Point></Placemark>
<Placemark><name>Jodhpur</name><styleUrl>#city</styleUrl><description>D1 04:23:52 · D2 04:23:52 · R1 05:49:22 · R2 05:49:22 (IST)</description><Point><coordinates>73.0243,26.2389,0</coordinates></Point></Placemark>
<Placemark><name>Jorhat</name><styleUrl>#city</styleUrl><description>D1 05:15:04 · D2 05:15:04 · R1 06:13:22 · R2 06:13:22 (IST)</description><Point><coordinates>94.2037,26.7509,0</coordinates></Point></Placemark>
<Placemark><name>Kanpur</name><styleUrl>#city</styleUrl><description>D1 04:42:44 · D2 04:42:44 · R1 06:01:26 · R2 06:01:26 (IST)</description><Point><coordinates>80.3319,26.4499,0</coordinates></Point></Placemark>
<Placemark><name>Kanyakumari</name><styleUrl>#city</styleUrl><description>near miss: Antares passes 3.2′ from the limb (IST)</description><Point><coordinates>77.5385,8.0883,0</coordinates></Point></Placemark>
<Placemark><name>Kavalur</name><styleUrl>#city</styleUrl><description>D1 05:19:47 · D2 05:19:47 · R1 05:32:05 · R2 05:32:05 (IST)</description><Point><coordinates>78.8308,12.5766,0</coordinates></Point></Placemark>
<Placemark><name>Kharagpur</name><styleUrl>#city</styleUrl><description>D1 05:07:25 · D2 05:07:25 · R1 06:06:49 · R2 06:06:49 (IST)</description><Point><coordinates>87.232,22.346,0</coordinates></Point></Placemark>
<Placemark><name>Kohima</name><styleUrl>#city</styleUrl><description>D1 05:17:08 · D2 05:17:08 · R1 06:12:37 · R2 06:12:37 (IST)</description><Point><coordinates>94.1086,25.6751,0</coordinates></Point></Placemark>
<Placemark><name>Kolhapur</name><styleUrl>#city</styleUrl><description>D1 04:42:46 · D2 04:42:46 · R1 05:45:17 · R2 05:45:17 (IST)</description><Point><coordinates>74.2433,16.705,0</coordinates></Point></Placemark>
<Placemark><name>Kolkata</name><styleUrl>#city</styleUrl><description>D1 05:09:55 · D2 05:09:55 · R1 06:07:39 · R2 06:07:39 (IST)</description><Point><coordinates>88.3639,22.5726,0</coordinates></Point></Placemark>
<Placemark><name>Koraput</name><styleUrl>#city</styleUrl><description>D1 05:03:10 · D2 05:03:10 · R1 05:58:57 · R2 05:58:57 (IST)</description><Point><coordinates>82.7123,18.8135,0</coordinates></Point></Placemark>
<Placemark><name>Kota</name><styleUrl>#city</styleUrl><description>D1 04:32:29 · D2 04:32:29 · R1 05:54:33 · R2 05:54:33 (IST)</description><Point><coordinates>75.8648,25.2138,0</coordinates></Point></Placemark>
<Placemark><name>Kozhikode</name><styleUrl>#city</styleUrl><description>near miss: Antares passes 0.2′ from the limb (IST)</description><Point><coordinates>75.7804,11.2588,0</coordinates></Point></Placemark>
<Placemark><name>Kurnool</name><styleUrl>#city</styleUrl><description>D1 04:57:24 · D2 04:57:24 · R1 05:48:27 · R2 05:48:27 (IST)</description><Point><coordinates>78.0373,15.8281,0</coordinates></Point></Placemark>
<Placemark><name>Lucknow</name><styleUrl>#city</styleUrl><description>D1 04:43:48 · D2 04:43:48 · R1 06:02:15 · R2 06:02:15 (IST)</description><Point><coordinates>80.9462,26.8467,0</coordinates></Point></Placemark>
<Placemark><name>Ludhiana</name><styleUrl>#city</styleUrl><description>D1 04:27:22 · D2 04:27:22 · R1 05:52:59 · R2 05:52:59 (IST)</description><Point><coordinates>75.8573,30.901,0</coordinates></Point></Placemark>
<Placemark><name>Machilipatnam</name><styleUrl>#city</styleUrl><description>D1 05:06:24 · D2 05:06:24 · R1 05:52:01 · R2 05:52:01 (IST)</description><Point><coordinates>81.1389,16.1875,0</coordinates></Point></Placemark>
<Placemark><name>Madurai</name><styleUrl>#city</styleUrl><description>near miss: Antares passes 1.8′ from the limb (IST)</description><Point><coordinates>78.1198,9.9252,0</coordinates></Point></Placemark>
<Placemark><name>Mangalore</name><styleUrl>#city</styleUrl><description>D1 04:58:58 · D2 04:58:58 · R1 05:35:10 · R2 05:35:10 (IST)</description><Point><coordinates>74.856,12.9141,0</coordinates></Point></Placemark>
<Placemark><name>Mathura</name><styleUrl>#city</styleUrl><description>D1 04:34:46 · D2 04:34:46 · R1 05:57:22 · R2 05:57:22 (IST)</description><Point><coordinates>77.6737,27.4924,0</coordinates></Point></Placemark>
<Placemark><name>Meerut</name><styleUrl>#city</styleUrl><description>D1 04:33:25 · D2 04:33:25 · R1 05:57:02 · R2 05:57:02 (IST)</description><Point><coordinates>77.7064,28.9845,0</coordinates></Point></Placemark>
<Placemark><name>Midnapore</name><styleUrl>#city</styleUrl><description>D1 05:07:28 · D2 05:07:28 · R1 06:06:58 · R2 06:06:58 (IST)</description><Point><coordinates>87.3199,22.426,0</coordinates></Point></Placemark>
<Placemark><name>Mount Abu</name><styleUrl>#city</styleUrl><description>D1 04:24:43 · D2 04:24:43 · R1 05:48:46 · R2 05:48:46 (IST)</description><Point><coordinates>72.7156,24.5926,0</coordinates></Point></Placemark>
<Placemark><name>Mumbai</name><styleUrl>#city</styleUrl><description>D1 04:33:17 · D2 04:33:17 · R1 05:46:14 · R2 05:46:14 (IST)</description><Point><coordinates>72.8777,19.076,0</coordinates></Point></Placemark>
<Placemark><name>Murshidabad</name><styleUrl>#city</styleUrl><description>D1 05:06:15 · D2 05:06:15 · R1 06:09:01 · R2 06:09:01 (IST)</description><Point><coordinates>88.27,24.1745,0</coordinates></Point></Placemark>
<Placemark><name>Mussoorie</name><styleUrl>#city</styleUrl><description>D1 04:33:04 · D2 04:33:04 · R1 05:56:57 · R2 05:56:57 (IST)</description><Point><coordinates>78.0644,30.4598,0</coordinates></Point></Placemark>
<Placemark><name>Muzaffarpur</name><styleUrl>#city</styleUrl><description>D1 04:55:43 · D2 04:55:43 · R1 06:07:25 · R2 06:07:25 (IST)</description><Point><coordinates>85.3647,26.1209,0</coordinates></Point></Placemark>
<Placemark><name>Mysore</name><styleUrl>#city</styleUrl><description>D1 05:11:03 · D2 05:11:03 · R1 05:32:18 · R2 05:32:18 (IST)</description><Point><coordinates>76.6394,12.2958,0</coordinates></Point></Placemark>
<Placemark><name>Nagpur</name><styleUrl>#city</styleUrl><description>D1 04:47:18 · D2 04:47:18 · R1 05:57:57 · R2 05:57:57 (IST)</description><Point><coordinates>79.0882,21.1458,0</coordinates></Point></Placemark>
<Placemark><name>Nainital</name><styleUrl>#city</styleUrl><description>D1 04:37:21 · D2 04:37:21 · R1 05:59:36 · R2 05:59:36 (IST)</description><Point><coordinates>79.4542,29.3919,0</coordinates></Point></Placemark>
<Placemark><name>Nalgonda</name><styleUrl>#city</styleUrl><description>D1 04:57:27 · D2 04:57:27 · R1 05:52:34 · R2 05:52:34 (IST)</description><Point><coordinates>79.269,17.0575,0</coordinates></Point></Placemark>
<Placemark><name>Nashik</name><styleUrl>#city</styleUrl><description>D1 04:34:08 · D2 04:34:08 · R1 05:48:43 · R2 05:48:43 (IST)</description><Point><coordinates>73.7898,19.9975,0</coordinates></Point></Placemark>
<Placemark><name>Nellore</name><styleUrl>#city</styleUrl><description>D1 05:10:04 · D2 05:10:04 · R1 05:45:12 · R2 05:45:12 (IST)</description><Point><coordinates>79.9865,14.4426,0</coordinates></Point></Placemark>
<Placemark><name>Nowgong</name><styleUrl>#city</styleUrl><description>D1 05:12:31 · D2 05:12:31 · R1 06:12:36 · R2 06:12:36 (IST)</description><Point><coordinates>92.684,26.349,0</coordinates></Point></Placemark>
<Placemark><name>Panaji</name><styleUrl>#city</styleUrl><description>D1 04:44:56 · D2 04:44:56 · R1 05:42:10 · R2 05:42:10 (IST)</description><Point><coordinates>73.8278,15.4909,0</coordinates></Point></Placemark>
<Placemark><name>Pantnagar</name><styleUrl>#city</styleUrl><description>D1 04:37:44 · D2 04:37:44 · R1 05:59:46 · R2 05:59:46 (IST)</description><Point><coordinates>79.4737,29.021,0</coordinates></Point></Placemark>
<Placemark><name>Paradeep</name><styleUrl>#city</styleUrl><description>D1 05:10:44 · D2 05:10:44 · R1 06:03:49 · R2 06:03:49 (IST)</description><Point><coordinates>86.6114,20.3165,0</coordinates></Point></Placemark>
<Placemark><name>Pathankot</name><styleUrl>#city</styleUrl><description>D1 04:25:59 · D2 04:25:59 · R1 05:51:50 · R2 05:51:50 (IST)</description><Point><coordinates>75.6522,32.2747,0</coordinates></Point></Placemark>
<Placemark><name>Patna</name><styleUrl>#city</styleUrl><description>D1 04:55:56 · D2 04:55:56 · R1 06:07:04 · R2 06:07:04 (IST)</description><Point><coordinates>85.1376,25.6093,0</coordinates></Point></Placemark>
<Placemark><name>Pondicherry</name><styleUrl>#city</styleUrl><description>near miss: Antares passes 0.6′ from the limb (IST)</description><Point><coordinates>79.8083,11.9416,0</coordinates></Point></Placemark>
<Placemark><name>Port Blair</name><styleUrl>#city</styleUrl><description>near miss: Antares passes 5.3′ from the limb (IST)</description><Point><coordinates>92.7265,11.6234,0</coordinates></Point></Placemark>
<Placemark><name>Pune</name><styleUrl>#city</styleUrl><description>D1 04:37:16 · D2 04:37:16 · R1 05:47:20 · R2 05:47:20 (IST)</description><Point><coordinates>73.8567,18.5204,0</coordinates></Point></Placemark>
<Placemark><name>Puri</name><styleUrl>#city</styleUrl><description>D1 05:09:48 · D2 05:09:48 · R1 06:02:35 · R2 06:02:35 (IST)</description><Point><coordinates>85.8312,19.8135,0</coordinates></Point></Placemark>
<Placemark><name>Raipur</name><styleUrl>#city</styleUrl><description>D1 04:54:15 · D2 04:54:15 · R1 06:01:04 · R2 06:01:04 (IST)</description><Point><coordinates>81.6296,21.2514,0</coordinates></Point></Placemark>
<Placemark><name>Rajkot</name><styleUrl>#city</styleUrl><description>D1 04:22:14 · D2 04:22:14 · R1 05:44:20 · R2 05:44:20 (IST)</description><Point><coordinates>70.8022,22.3039,0</coordinates></Point></Placemark>
<Placemark><name>Rameswaram</name><styleUrl>#city</styleUrl><description>near miss: Antares passes 2.7′ from the limb (IST)</description><Point><coordinates>79.3129,9.2876,0</coordinates></Point></Placemark>
<Placemark><name>Ranchi</name><styleUrl>#city</styleUrl><description>D1 05:00:17 · D2 05:00:17 · R1 06:06:15 · R2 06:06:15 (IST)</description><Point><coordinates>85.3096,23.3441,0</coordinates></Point></Placemark>
<Placemark><name>Roorkee</name><styleUrl>#city</styleUrl><description>D1 04:33:07 · D2 04:33:07 · R1 05:56:57 · R2 05:56:57 (IST)</description><Point><coordinates>77.888,29.8543,0</coordinates></Point></Placemark>
<Placemark><name>Rourkela</name><styleUrl>#city</styleUrl><description>D1 05:01:07 · D2 05:01:07 · R1 06:05:02 · R2 06:05:02 (IST)</description><Point><coordinates>84.8536,22.2604,0</coordinates></Point></Placemark>
<Placemark><name>Salem</name><styleUrl>#city</styleUrl><description>near miss: Antares passes 0.4′ from the limb (IST)</description><Point><coordinates>78.146,11.6643,0</coordinates></Point></Placemark>
<Placemark><name>Shillong</name><styleUrl>#city</styleUrl><description>D1 05:12:14 · D2 05:12:14 · R1 06:11:50 · R2 06:11:50 (IST)</description><Point><coordinates>91.8933,25.5788,0</coordinates></Point></Placemark>
<Placemark><name>Shimla</name><styleUrl>#city</styleUrl><description>D1 04:30:24 · D2 04:30:24 · R1 05:55:09 · R2 05:55:09 (IST)</description><Point><coordinates>77.1734,31.1048,0</coordinates></Point></Placemark>
<Placemark><name>Silchar</name><styleUrl>#city</styleUrl><description>D1 05:15:54 · D2 05:15:54 · R1 06:11:33 · R2 06:11:33 (IST)</description><Point><coordinates>92.7789,24.8333,0</coordinates></Point></Placemark>
<Placemark><name>Sriharikota</name><styleUrl>#city</styleUrl><description>D1 05:15:21 · D2 05:15:21 · R1 05:41:16 · R2 05:41:16 (IST)</description><Point><coordinates>80.2304,13.7199,0</coordinates></Point></Placemark>
<Placemark><name>Srinagar</name><styleUrl>#city</styleUrl><description>D1 04:23:02 · D2 04:23:02 · R1 05:49:00 · R2 05:49:00 (IST)</description><Point><coordinates>74.7973,34.0837,0</coordinates></Point></Placemark>
<Placemark><name>Surat</name><styleUrl>#city</styleUrl><description>D1 04:29:31 · D2 04:29:31 · R1 05:47:48 · R2 05:47:48 (IST)</description><Point><coordinates>72.8311,21.1702,0</coordinates></Point></Placemark>
<Placemark><name>Thanjavur</name><styleUrl>#city</styleUrl><description>near miss: Antares passes 1.4′ from the limb (IST)</description><Point><coordinates>79.1378,10.787,0</coordinates></Point></Placemark>
<Placemark><name>Tezpur</name><styleUrl>#city</styleUrl><description>D1 05:12:12 · D2 05:12:12 · R1 06:12:48 · R2 06:12:48 (IST)</description><Point><coordinates>92.8006,26.6338,0</coordinates></Point></Placemark>
<Placemark><name>Thiruvananthapuram</name><styleUrl>#city</styleUrl><description>near miss: Antares passes 2.7′ from the limb (IST)</description><Point><coordinates>76.9366,8.5241,0</coordinates></Point></Placemark>
<Placemark><name>Tiruchirappalli</name><styleUrl>#city</styleUrl><description>near miss: Antares passes 1.3′ from the limb (IST)</description><Point><coordinates>78.7047,10.7905,0</coordinates></Point></Placemark>
<Placemark><name>Tirupati</name><styleUrl>#city</styleUrl><description>D1 05:12:28 · D2 05:12:28 · R1 05:41:01 · R2 05:41:01 (IST)</description><Point><coordinates>79.4192,13.6288,0</coordinates></Point></Placemark>
<Placemark><name>Udaipur</name><styleUrl>#city</styleUrl><description>D1 04:27:25 · D2 04:27:25 · R1 05:50:38 · R2 05:50:38 (IST)</description><Point><coordinates>73.7125,24.5854,0</coordinates></Point></Placemark>
<Placemark><name>Ujjain</name><styleUrl>#city</styleUrl><description>D1 04:34:51 · D2 04:34:51 · R1 05:54:02 · R2 05:54:02 (IST)</description><Point><coordinates>75.7885,23.1765,0</coordinates></Point></Placemark>
<Placemark><name>Vadodara</name><styleUrl>#city</styleUrl><description>D1 04:28:50 · D2 04:28:50 · R1 05:49:04 · R2 05:49:04 (IST)</description><Point><coordinates>73.1812,22.3072,0</coordinates></Point></Placemark>
<Placemark><name>Varanasi</name><styleUrl>#city</styleUrl><description>D1 04:50:57 · D2 04:50:57 · R1 06:04:42 · R2 06:04:42 (IST)</description><Point><coordinates>82.9739,25.3176,0</coordinates></Point></Placemark>
<Placemark><name>Vellore</name><styleUrl>#city</styleUrl><description>D1 05:17:36 · D2 05:17:36 · R1 05:36:10 · R2 05:36:10 (IST)</description><Point><coordinates>79.1325,12.9165,0</coordinates></Point></Placemark>
<Placemark><name>Vijayawada</name><styleUrl>#city</styleUrl><description>D1 05:03:42 · D2 05:03:42 · R1 05:52:31 · R2 05:52:31 (IST)</description><Point><coordinates>80.648,16.5062,0</coordinates></Point></Placemark>
<Placemark><name>Visakhapatnam</name><styleUrl>#city</styleUrl><description>D1 05:08:05 · D2 05:08:05 · R1 05:57:02 · R2 05:57:02 (IST)</description><Point><coordinates>83.2185,17.6868,0</coordinates></Point></Placemark>
</Folder></Document></kml>
