<?xml version="1.0" encoding="UTF-8"?>
<kml xmlns="http://www.opengis.net/kml/2.2"><Document><name>The Moon occults Jupiter — 2027-04-15</name>
<description>Graze limits from https://occult.alokm.com/jupiter-2027-04-15, traced against the real lunar limb (LRO LOLA).</description>
<Style id="graze"><LineStyle><color>ff06b6d9</color><width>4</width></LineStyle></Style>
<Placemark><name>north graze limit</name><styleUrl>#graze</styleUrl><LineString><tessellate>1</tessellate><coordinates>17.0,-16.8275,0 18.0,-16.5403,0 19.0,-16.2611,0 19.94,-16.0041,0 20.0,-15.9875,0 21.0,-15.7203,0 22.0,-15.4694,0 23.0,-15.2232,0 23.93,-15.0004,0 24.0,-14.9841,0 25.0,-14.7507,0 26.0,-14.5347,0 27.0,-14.3255,0 28.0,-14.1304,0 28.74,-13.9933,0 29.0,-13.946,0 30.0,-13.7747,0 31.0,-13.6178,0 32.0,-13.4684,0 33.0,-13.3337,0 34.0,-13.2095,0 35.0,-13.0998,0 36.0,-13.0034,0 36.16,-12.9902,0 37.0,-12.9257,0 38.0,-12.8642,0 39.0,-12.8199,0 40.0,-12.7838,0 41.0,-12.7913,0 42.0,-12.7911,0 43.0,-12.8248,0 44.0,-12.8695,0 45.0,-12.9454,0 45.55,-12.997,0 46.0,-13.0447,0 47.0,-13.1576,0 48.0,-13.2897,0 49.0,-13.4489,0 50.0,-13.6393,0 51.0,-13.8553,0 51.59,-13.9929,0 52.0,-14.0946,0 53.0,-14.3661,0 54.0,-14.6596,0 55.0,-14.9863,0 55.02,-14.9932,0 56.0,-15.343,0 57.0,-15.7309,0 57.61,-15.9869,0 58.0,-16.1524,0 59.0,-16.6095,0 59.78,-16.9898,0 60.0,-17.1017,0 61.0,-17.6247,0 61.67,-17.9921,0 62.0,-18.1787,0 63.0,-18.7705,0 63.36,-18.992,0 64.0,-19.3865,0 64.91,-19.9782,0 65.0,-20.0394,0 66.0,-20.7269,0 66.36,-20.9847,0 67.0,-21.4492,0 67.72,-21.9922,0 68.0,-22.2036,0 69.0,-22.9884,0 69.01,-22.9963,0 70.0,-23.7969,0 70.25,-24.0004,0 71.0,-24.6245,0 71.45,-25.0041,0 72.0,-25.4709,0 72.61,-25.999,0 73.0,-26.339,0 73.75,-26.997,0 74.0,-27.219,0 74.88,-28.0059,0 75.0,-28.1136,0 75.99,-29.0071,0 76.0,-29.0162,0 77.0,-29.9258,0 77.09,-30.0073,0 78.0,-30.837,0 78.18,-31.0013,0 79.0,-31.7494,0 79.28,-32.005,0 80.0,-32.661,0 80.38,-33.006,0 81.0,-33.5672,0 81.48,-34.0003,0 82.0,-34.4673,0 82.6,-35.002,0 83.0,-35.3566,0 83.73,-36.0033,0 84.0,-36.2404,0 84.88,-37.0052,0 85.0,-37.1087,0 86.0,-37.9683,0 86.04,-38.0023,0 87.0,-38.8095,0 87.23,-39.0012,0 88.0,-39.6393,0 88.44,-39.9984,0 89.0,-40.4498,0 89.69,-40.997,0 90.0,-41.2429,0 90.96,-41.99,0 91.0,-42.0213,0 92.0,-42.7848,0 92.27,-42.9864,0 93.0,-43.531,0 93.62,-43.9921,0 94.0,-44.2658,0 95.0,-44.9808,0 95.0,-44.9808,0 96.0,-45.6833,0 96.44,-45.9862,0 97.0,-46.3685,0 97.92,-46.9875,0 98.0,-47.0396,0 99.0,-47.6998,0 99.47,-48.0018,0 100.0,-48.3377,0 101.0,-48.9569,0 101.07,-48.9993,0 102.0,-49.5655,0 102.73,-49.9935,0 103.0,-50.1528,0 104.0,-50.7283,0 104.47,-50.9944,0 105.0,-51.2902,0 106.0,-51.8384,0 106.29,-51.9943,0 107.0,-52.3741,0 108.0,-52.8911,0 108.2,-52.9943,0 109.0,-53.4015,0 110.0,-53.8914,0 110.21,-53.9932,0 111.0,-54.3719,0 112.0,-54.8409,0 112.33,-54.9923,0 113.0,-55.2989,0 114.0,-55.7477,0 114.56,-55.9902,0 115.0,-56.1783,0 116.0,-56.6026,0 116.94,-56.9909,0 117.0,-57.0149,0 118.0,-57.4165,0</coordinates></LineString></Placemark>
</Document></kml>
