<?xml version="1.0" encoding="UTF-8"?>
<kml xmlns="http://www.opengis.net/kml/2.2"><Document><name>The Moon occults Jupiter — 2027-03-19</name>
<description>Graze limits and visibility from https://occult.alokm.com/jupiter-2027-03-19. Solid limits are traced against the real lunar limb (LRO LOLA); the dotted line is the mean-sphere limit. Times in the city placemarks are UTC, real limb.</description>
<Style id="exact"><LineStyle><color>ff06b6d9</color><width>4</width></LineStyle></Style>
<Style id="mean"><LineStyle><color>8006b6d9</color><width>2</width></LineStyle></Style>
<Style id="region"><LineStyle><color>80e6c07d</color><width>1</width></LineStyle><PolyStyle><color>3fe6c07d</color></PolyStyle></Style>
<Style id="night"><LineStyle><width>0</width></LineStyle><PolyStyle><color>3fed3ac4</color></PolyStyle></Style>
<Style id="city"><IconStyle><scale>0.8</scale></IconStyle></Style>
<Folder><name>Graze limits (real lunar limb)</name>
<Placemark><name>north limit — real limb</name><styleUrl>#exact</styleUrl><LineString><tessellate>1</tessellate><coordinates>118.0,-12.1928,0 118.68,-12.0026,0 119.0,-11.9163,0 120.0,-11.6445,0 121.0,-11.3819,0 122.0,-11.1245,0 122.51,-11.0021,0 123.0,-10.8821,0 124.0,-10.6445,0 125.0,-10.4121,0 126.0,-10.1944,0 126.95,-9.9943,0 127.0,-9.9838,0 128.0,-9.7855,0 129.0,-9.5985,0 130.0,-9.4224,0 131.0,-9.2594,0 132.0,-9.108,0 132.76,-8.9977,0 133.0,-8.9648,0 134.0,-8.8348,0 135.0,-8.7219,0 136.0,-8.6159,0 137.0,-8.5237,0 138.0,-8.4504,0 139.0,-8.3934,0 140.0,-8.3473,0 141.0,-8.3277,0 142.0,-8.3178,0 143.0,-8.3269,0 144.0,-8.3517,0 145.0,-8.3965,0 146.0,-8.4676,0 147.0,-8.5626,0 148.0,-8.6648,0 149.0,-8.7912,0 150.0,-8.9407,0 150.3,-8.9907,0 151.0,-9.1189,0 152.0,-9.3209,0 153.0,-9.545,0 154.0,-9.7989,0 154.72,-9.9938,0 155.0,-10.0726,0 156.0,-10.3776,0 157.0,-10.7114,0 157.77,-10.989,0 158.0,-11.0743,0 159.0,-11.4687,0 160.0,-11.8958,0 160.21,-11.991,0 161.0,-12.3571,0 162.0,-12.844,0 162.29,-12.9921,0 163.0,-13.3649,0 164.0,-13.9213,0 164.13,-13.9965,0 165.0,-14.4985,0 165.79,-14.9827,0 166.0,-15.1145,0 167.0,-15.7652,0 167.32,-15.9803,0 168.0,-16.45,0 168.76,-16.9923,0 169.0,-17.1673,0 170.0,-17.9169,0 170.11,-17.9995,0 171.0,-18.6876,0 171.4,-19.0014,0 172.0,-19.483,0 172.64,-20.0034,0 173.0,-20.3025,0 173.83,-20.998,0 174.0,-21.143,0 175.0,-22.0002,0 175.0,-22.0002,0 176.0,-22.8744,0 176.14,-22.9981,0 177.0,-23.7612,0 177.27,-24.0021,0 178.0,-24.6577,0 178.38,-25.0004,0 179.0,-25.5632,0 179.48,-26.0005,0 180.0,-26.4744,0</coordinates></LineString></Placemark>
<Placemark><name>north limit — real limb</name><styleUrl>#exact</styleUrl><LineString><tessellate>1</tessellate><coordinates>-180.0,-26.4744,0 -179.43,-26.9941,0 -179.0,-27.3862,0 -178.33,-27.9971,0 -178.0,-28.2976,0 -177.23,-28.9958,0 -177.0,-29.204,0 -176.12,-29.9994,0 -176.0,-30.1077,0 -175.0,-31.0034,0 -175.0,-31.0034,0 -174.0,-31.8908,0 -173.88,-31.9973,0 -173.0,-32.7666,0 -172.73,-33.0003,0 -172.0,-33.6304,0 -171.56,-34.0058,0 -171.0,-34.4801,0 -170.38,-35.0003,0 -170.0,-35.3162,0 -169.16,-36.0052,0 -169.0,-36.1355,0 -168.0,-36.9401,0 -167.92,-37.0032,0 -167.0,-37.7292,0 -166.65,-38.0016,0 -166.0,-38.5013,0 -165.34,-39.0013,0 -165.0,-39.2555,0 -164.0,-39.9891,0 -163.99,-39.9965,0 -163.0,-40.7108,0 -162.61,-40.9847,0 -162.0,-41.4148,0 -161.17,-41.9857,0 -161.0,-42.1018,0 -160.0,-42.778,0 -159.69,-42.9845,0 -159.0,-43.435,0 -158.14,-43.9892,0 -158.0,-44.079,0 -157.0,-44.7078,0 -156.54,-44.9935,0 -156.0,-45.3218,0 -155.0,-45.9266,0 -154.88,-45.9983,0 -154.0,-46.5099,0 -153.14,-46.9972,0 -153.0,-47.0754,0 -152.0,-47.6319,0 -151.32,-47.9956,0 -151.0,-48.1674,0 -150.0,-48.6931,0 -149.41,-48.9978,0 -149.0,-49.2059,0 -148.0,-49.7049,0 -147.4,-49.9999,0 -147.0,-50.1937,0 -146.0,-50.665,0 -145.29,-50.9978,0 -145.0,-51.1298,0 -144.0,-51.5768,0 -143.05,-51.9925,0 -143.0,-52.0145,0 -142.0,-52.4417,0 -141.0,-52.8594,0 -140.67,-52.9945,0 -140.0,-53.2679,0 -139.0,-53.6598,0 -138.14,-53.9928,0 -138.0,-54.0458,0 -137.0,-54.4211,0</coordinates></LineString></Placemark>
</Folder><Folder><name>Mean-sphere limits</name>
<Placemark><name>north limit — mean sphere</name><styleUrl>#mean</styleUrl><LineString><tessellate>1</tessellate><coordinates>118.0,-12.19,0 118.68,-12.0,0 119.0,-11.91,0 120.0,-11.64,0 121.0,-11.38,0 122.0,-11.13,0 122.51,-11.0,0 123.0,-10.88,0 124.0,-10.65,0 125.0,-10.42,0 126.0,-10.2,0 126.95,-10.0,0 127.0,-9.99,0 128.0,-9.79,0 129.0,-9.61,0 130.0,-9.43,0 131.0,-9.26,0 132.0,-9.11,0 132.76,-9.0,0 133.0,-8.97,0 134.0,-8.84,0 135.0,-8.72,0 136.0,-8.62,0 137.0,-8.53,0 138.0,-8.46,0 139.0,-8.4,0 140.0,-8.36,0 141.0,-8.33,0 142.0,-8.33,0 143.0,-8.33,0 144.0,-8.36,0 145.0,-8.41,0 146.0,-8.47,0 147.0,-8.56,0 148.0,-8.67,0 149.0,-8.8,0 150.0,-8.95,0 150.3,-9.0,0 151.0,-9.12,0 152.0,-9.33,0 153.0,-9.55,0 154.0,-9.8,0 154.72,-10.0,0 155.0,-10.08,0 156.0,-10.39,0 157.0,-10.72,0 157.77,-11.0,0 158.0,-11.09,0 159.0,-11.48,0 160.0,-11.91,0 160.21,-12.0,0 161.0,-12.36,0 162.0,-12.85,0 162.29,-13.0,0 163.0,-13.37,0 164.0,-13.93,0 164.13,-14.0,0 165.0,-14.51,0 165.79,-15.0,0 166.0,-15.13,0 167.0,-15.78,0 167.32,-16.0,0 168.0,-16.46,0 168.76,-17.0,0 169.0,-17.18,0 170.0,-17.92,0 170.11,-18.0,0 171.0,-18.69,0 171.4,-19.0,0 172.0,-19.48,0 172.64,-20.0,0 173.0,-20.3,0 173.83,-21.0,0 174.0,-21.14,0 175.0,-22.0,0 175.0,-22.0,0 176.0,-22.87,0 176.14,-23.0,0 177.0,-23.76,0 177.27,-24.0,0 178.0,-24.66,0 178.38,-25.0,0 179.0,-25.57,0 179.48,-26.0,0 180.0,-26.48,0</coordinates></LineString></Placemark>
<Placemark><name>north limit — mean sphere</name><styleUrl>#mean</styleUrl><LineString><tessellate>1</tessellate><coordinates>-180.0,-26.48,0 -179.43,-27.0,0 -179.0,-27.39,0 -178.33,-28.0,0 -178.0,-28.3,0 -177.23,-29.0,0 -177.0,-29.21,0 -176.12,-30.0,0 -176.0,-30.11,0 -175.0,-31.0,0 -175.0,-31.0,0 -174.0,-31.89,0 -173.88,-32.0,0 -173.0,-32.77,0 -172.73,-33.0,0 -172.0,-33.63,0 -171.56,-34.0,0 -171.0,-34.48,0 -170.38,-35.0,0 -170.0,-35.31,0 -169.16,-36.0,0 -169.0,-36.13,0 -168.0,-36.94,0 -167.92,-37.0,0 -167.0,-37.73,0 -166.65,-38.0,0 -166.0,-38.5,0 -165.34,-39.0,0 -165.0,-39.26,0 -164.0,-40.0,0 -163.99,-40.0,0 -163.0,-40.72,0 -162.61,-41.0,0 -162.0,-41.43,0 -161.17,-42.0,0 -161.0,-42.12,0 -160.0,-42.79,0 -159.69,-43.0,0 -159.0,-43.45,0 -158.14,-44.0,0 -158.0,-44.09,0 -157.0,-44.72,0 -156.54,-45.0,0 -156.0,-45.33,0 -155.0,-45.93,0 -154.88,-46.0,0 -154.0,-46.51,0 -153.14,-47.0,0 -153.0,-47.08,0 -152.0,-47.63,0 -151.32,-48.0,0 -151.0,-48.17,0 -150.0,-48.7,0 -149.41,-49.0,0 -149.0,-49.21,0 -148.0,-49.71,0 -147.4,-50.0,0 -147.0,-50.2,0 -146.0,-50.67,0 -145.29,-51.0,0 -145.0,-51.13,0 -144.0,-51.58,0 -143.05,-52.0,0 -143.0,-52.02,0 -142.0,-52.45,0 -141.0,-52.87,0 -140.67,-53.0,0 -140.0,-53.27,0 -139.0,-53.67,0 -138.14,-54.0,0 -138.0,-54.05,0 -137.0,-54.43,0</coordinates></LineString></Placemark>
</Folder><Folder><name>Visibility</name>
<Placemark><name>sees the occultation</name><styleUrl>#region</styleUrl><Polygon><outerBoundaryIs><LinearRing><coordinates>-180.0,-73.0,0 -180.0,-73.02,0 -179.0,-73.02,0 -178.0,-73.02,0 -177.0,-73.02,0 -176.0,-73.03,0 -175.0,-73.03,0 -174.0,-73.02,0 -173.0,-73.02,0 -172.0,-73.02,0 -171.0,-73.01,0 -170.0,-73.0,0 -169.3,-73.0,0 -169.0,-72.94,0 -168.0,-72.78,0 -167.0,-72.66,0 -166.0,-72.57,0 -165.0,-72.5,0 -164.0,-72.39,0 -163.0,-72.28,0 -162.0,-72.2,0 -161.0,-72.1,0 -160.0,-72.04,0 -159.66,-72.0,0 -159.0,-71.85,0 -158.0,-71.63,0 -157.0,-71.51,0 -156.0,-71.29,0 -155.0,-71.17,0 -154.23,-71.0,0 -154.0,-70.93,0 -153.0,-70.75,0 -152.0,-70.5,0 -151.0,-70.25,0 -150.0,-70.07,0 -149.76,-70.0,0 -149.0,-69.7,0 -148.0,-69.49,0 -147.0,-69.11,0 -146.45,-69.0,0 -146.0,-68.88,0 -145.0,-68.4,0 -144.0,-68.15,0 -143.67,-68.0,0 -143.0,-67.58,0 -142.0,-67.25,0 -141.24,-67.0,0 -141.0,-66.88,0 -140.0,-66.29,0 -139.53,-66.0,0 -139.0,-65.65,0 -138.0,-65.05,0 -137.9,-65.0,0 -137.0,-64.53,0 -136.4,-64.0,0 -136.0,-63.61,0 -135.33,-63.0,0 -135.0,-62.66,0 -134.3,-62.0,0 -134.0,-61.68,0 -133.3,-61.0,0 -133.0,-60.41,0 -132.62,-60.0,0 -132.0,-59.19,0 -131.91,-59.0,0 -131.95,-58.0,0 -131.69,-57.0,0 -132.0,-56.56,0 -132.7,-56.0,0 -133.0,-55.84,0 -134.0,-55.5,0 -135.0,-55.15,0 -135.43,-55.0,0 -136.0,-54.8,0 -137.0,-54.43,0 -138.0,-54.05,0 -138.14,-54.0,0 -139.0,-53.67,0 -140.0,-53.27,0 -140.67,-53.0,0 -141.0,-52.87,0 -142.0,-52.45,0 -143.0,-52.02,0 -143.05,-52.0,0 -144.0,-51.58,0 -145.0,-51.13,0 -145.29,-51.0,0 -146.0,-50.67,0 -147.0,-50.2,0 -147.4,-50.0,0 -148.0,-49.71,0 -149.0,-49.21,0 -149.41,-49.0,0 -150.0,-48.7,0 -151.0,-48.17,0 -151.32,-48.0,0 -152.0,-47.63,0 -153.0,-47.08,0 -153.14,-47.0,0 -154.0,-46.51,0 -154.88,-46.0,0 -155.0,-45.93,0 -156.0,-45.33,0 -156.54,-45.0,0 -157.0,-44.72,0 -158.0,-44.09,0 -158.14,-44.0,0 -159.0,-43.45,0 -159.69,-43.0,0 -160.0,-42.79,0 -161.0,-42.12,0 -161.17,-42.0,0 -162.0,-41.43,0 -162.61,-41.0,0 -163.0,-40.72,0 -163.99,-40.0,0 -164.0,-40.0,0 -165.0,-39.26,0 -165.34,-39.0,0 -166.0,-38.5,0 -166.65,-38.0,0 -167.0,-37.73,0 -167.92,-37.0,0 -168.0,-36.94,0 -169.0,-36.13,0 -169.16,-36.0,0 -170.0,-35.31,0 -170.38,-35.0,0 -171.0,-34.48,0 -171.56,-34.0,0 -172.0,-33.63,0 -172.73,-33.0,0 -173.0,-32.77,0 -173.88,-32.0,0 -174.0,-31.89,0 -175.0,-31.0,0 -175.0,-31.0,0 -176.0,-30.11,0 -176.12,-30.0,0 -177.0,-29.21,0 -177.23,-29.0,0 -178.0,-28.3,0 -178.33,-28.0,0 -179.0,-27.39,0 -179.43,-27.0,0 -180.0,-26.48,0 -180.0,-27.0,0 -180.0,-28.0,0 -180.0,-29.0,0 -180.0,-30.0,0 -180.0,-31.0,0 -180.0,-32.0,0 -180.0,-33.0,0 -180.0,-34.0,0 -180.0,-35.0,0 -180.0,-36.0,0 -180.0,-37.0,0 -180.0,-38.0,0 -180.0,-39.0,0 -180.0,-40.0,0 -180.0,-41.0,0 -180.0,-42.0,0 -180.0,-43.0,0 -180.0,-44.0,0 -180.0,-45.0,0 -180.0,-46.0,0 -180.0,-47.0,0 -180.0,-48.0,0 -180.0,-49.0,0 -180.0,-50.0,0 -180.0,-51.0,0 -180.0,-52.0,0 -180.0,-53.0,0 -180.0,-54.0,0 -180.0,-55.0,0 -180.0,-56.0,0 -180.0,-57.0,0 -180.0,-58.0,0 -180.0,-59.0,0 -180.0,-60.0,0 -180.0,-61.0,0 -180.0,-62.0,0 -180.0,-63.0,0 -180.0,-64.0,0 -180.0,-65.0,0 -180.0,-66.0,0 -180.0,-67.0,0 -180.0,-68.0,0 -180.0,-69.0,0 -180.0,-70.0,0 -180.0,-71.0,0 -180.0,-72.0,0 -180.0,-73.0,0</coordinates></LinearRing></outerBoundaryIs></Polygon></Placemark>
<Placemark><name>sees the occultation</name><styleUrl>#region</styleUrl><Polygon><outerBoundaryIs><LinearRing><coordinates>153.55,-73.0,0 154.0,-73.0,0 155.0,-73.0,0 156.0,-73.01,0 157.0,-73.01,0 158.0,-73.02,0 159.0,-73.02,0 160.0,-73.02,0 161.0,-73.02,0 162.0,-73.02,0 163.0,-73.02,0 164.0,-73.02,0 165.0,-73.02,0 166.0,-73.02,0 167.0,-73.02,0 168.0,-73.02,0 169.0,-73.02,0 170.0,-73.02,0 171.0,-73.02,0 172.0,-73.02,0 173.0,-73.02,0 174.0,-73.02,0 175.0,-73.02,0 176.0,-73.02,0 177.0,-73.02,0 178.0,-73.02,0 179.0,-73.02,0 180.0,-73.02,0 180.0,-73.0,0 180.0,-72.0,0 180.0,-71.0,0 180.0,-70.0,0 180.0,-69.0,0 180.0,-68.0,0 180.0,-67.0,0 180.0,-66.0,0 180.0,-65.0,0 180.0,-64.0,0 180.0,-63.0,0 180.0,-62.0,0 180.0,-61.0,0 180.0,-60.0,0 180.0,-59.0,0 180.0,-58.0,0 180.0,-57.0,0 180.0,-56.0,0 180.0,-55.0,0 180.0,-54.0,0 180.0,-53.0,0 180.0,-52.0,0 180.0,-51.0,0 180.0,-50.0,0 180.0,-49.0,0 180.0,-48.0,0 180.0,-47.0,0 180.0,-46.0,0 180.0,-45.0,0 180.0,-44.0,0 180.0,-43.0,0 180.0,-42.0,0 180.0,-41.0,0 180.0,-40.0,0 180.0,-39.0,0 180.0,-38.0,0 180.0,-37.0,0 180.0,-36.0,0 180.0,-35.0,0 180.0,-34.0,0 180.0,-33.0,0 180.0,-32.0,0 180.0,-31.0,0 180.0,-30.0,0 180.0,-29.0,0 180.0,-28.0,0 180.0,-27.0,0 180.0,-26.48,0 179.48,-26.0,0 179.0,-25.57,0 178.38,-25.0,0 178.0,-24.66,0 177.27,-24.0,0 177.0,-23.76,0 176.14,-23.0,0 176.0,-22.87,0 175.0,-22.0,0 175.0,-22.0,0 174.0,-21.14,0 173.83,-21.0,0 173.0,-20.3,0 172.64,-20.0,0 172.0,-19.48,0 171.4,-19.0,0 171.0,-18.69,0 170.11,-18.0,0 170.0,-17.92,0 169.0,-17.18,0 168.76,-17.0,0 168.0,-16.46,0 167.32,-16.0,0 167.0,-15.78,0 166.0,-15.13,0 165.79,-15.0,0 165.0,-14.51,0 164.13,-14.0,0 164.0,-13.93,0 163.0,-13.37,0 162.29,-13.0,0 162.0,-12.85,0 161.0,-12.36,0 160.21,-12.0,0 160.0,-11.91,0 159.0,-11.48,0 158.0,-11.09,0 157.77,-11.0,0 157.0,-10.72,0 156.0,-10.39,0 155.0,-10.08,0 154.72,-10.0,0 154.0,-9.8,0 153.0,-9.55,0 152.0,-9.33,0 151.0,-9.12,0 150.3,-9.0,0 150.0,-8.95,0 149.0,-8.8,0 148.0,-8.67,0 147.0,-8.56,0 146.0,-8.47,0 145.0,-8.41,0 144.0,-8.36,0 143.0,-8.33,0 142.0,-8.33,0 141.0,-8.33,0 140.0,-8.36,0 139.0,-8.4,0 138.0,-8.46,0 137.0,-8.53,0 136.0,-8.62,0 135.0,-8.72,0 134.0,-8.84,0 133.0,-8.97,0 132.76,-9.0,0 132.0,-9.11,0 131.0,-9.26,0 130.0,-9.43,0 129.0,-9.61,0 128.0,-9.79,0 127.0,-9.99,0 126.95,-10.0,0 126.0,-10.2,0 125.0,-10.42,0 124.0,-10.65,0 123.0,-10.88,0 122.51,-11.0,0 122.0,-11.13,0 121.0,-11.38,0 120.0,-11.64,0 119.0,-11.91,0 118.68,-12.0,0 118.0,-12.19,0 117.0,-12.47,0 116.0,-12.77,0 115.54,-13.0,0 115.0,-13.26,0 114.0,-13.9,0 113.93,-14.0,0 113.35,-15.0,0 113.05,-16.0,0 113.0,-16.08,0 112.22,-17.0,0 112.19,-18.0,0 112.0,-18.25,0 111.71,-19.0,0 111.57,-20.0,0 111.41,-21.0,0 111.11,-22.0,0 111.19,-23.0,0 111.0,-23.58,0 110.76,-24.0,0 111.0,-24.86,0 111.02,-25.0,0 111.0,-25.07,0 110.5,-26.0,0 110.82,-27.0,0 110.31,-28.0,0 110.65,-29.0,0 110.55,-30.0,0 110.53,-31.0,0 110.49,-32.0,0 110.44,-33.0,0 110.45,-34.0,0 110.38,-35.0,0 110.79,-36.0,0 110.65,-37.0,0 110.76,-38.0,0 111.0,-38.58,0 111.1,-39.0,0 111.0,-39.41,0 110.86,-40.0,0 111.0,-40.61,0 111.17,-41.0,0 111.32,-42.0,0 111.55,-43.0,0 111.59,-44.0,0 112.0,-44.96,0 112.01,-45.0,0 112.24,-46.0,0 112.47,-47.0,0 112.44,-48.0,0 112.87,-49.0,0 113.0,-49.32,0 113.29,-50.0,0 113.71,-51.0,0 114.0,-51.69,0 114.13,-52.0,0 114.55,-53.0,0 114.96,-54.0,0 115.0,-54.09,0 115.38,-55.0,0 115.88,-56.0,0 116.0,-56.17,0 116.57,-57.0,0 117.0,-57.64,0 117.45,-58.0,0 117.92,-59.0,0 118.0,-59.12,0 119.0,-59.92,0 119.05,-60.0,0 119.73,-61.0,0 120.0,-61.4,0 120.74,-62.0,0 121.0,-62.21,0 121.99,-63.0,0 122.0,-63.01,0 123.0,-63.81,0 123.24,-64.0,0 124.0,-64.61,0 124.49,-65.0,0 125.0,-65.24,0 126.0,-65.72,0 126.32,-66.0,0 127.0,-66.42,0 127.92,-67.0,0 128.0,-67.05,0 129.0,-67.38,0 130.0,-67.72,0 130.44,-68.0,0 131.0,-68.26,0 132.0,-68.68,0 132.94,-69.0,0 133.0,-69.02,0 134.0,-69.27,0 135.0,-69.61,0 135.96,-70.0,0 136.0,-70.01,0 137.0,-70.22,0 138.0,-70.43,0 139.0,-70.69,0 139.89,-71.0,0 140.0,-71.03,0 141.0,-71.18,0 142.0,-71.33,0 143.0,-71.56,0 144.0,-71.77,0 145.0,-71.93,0 145.37,-72.0,0 146.0,-72.07,0 147.0,-72.24,0 148.0,-72.37,0 149.0,-72.48,0 150.0,-72.58,0 151.0,-72.69,0 152.0,-72.8,0 153.0,-72.92,0 153.55,-73.0,0</coordinates></LinearRing></outerBoundaryIs></Polygon></Placemark>
<Placemark><name>after sunset</name><styleUrl>#night</styleUrl><Polygon><outerBoundaryIs><LinearRing><coordinates>-180.0,-73.0,0 -180.0,-73.02,0 -179.0,-73.02,0 -178.0,-73.02,0 -177.0,-73.02,0 -176.0,-73.03,0 -175.0,-73.03,0 -174.0,-73.02,0 -173.0,-73.02,0 -172.0,-73.02,0 -171.0,-73.01,0 -170.0,-73.0,0 -169.3,-73.0,0 -169.0,-72.94,0 -168.0,-72.78,0 -167.0,-72.66,0 -166.0,-72.57,0 -165.0,-72.5,0 -164.0,-72.39,0 -163.0,-72.28,0 -162.0,-72.2,0 -161.0,-72.1,0 -160.0,-72.04,0 -159.66,-72.0,0 -159.0,-71.85,0 -158.0,-71.63,0 -157.0,-71.51,0 -156.0,-71.29,0 -155.0,-71.17,0 -154.23,-71.0,0 -154.0,-70.93,0 -153.0,-70.75,0 -152.0,-70.5,0 -151.0,-70.25,0 -150.0,-70.07,0 -149.76,-70.0,0 -149.0,-69.7,0 -148.0,-69.49,0 -147.0,-69.11,0 -146.45,-69.0,0 -146.0,-68.88,0 -145.0,-68.4,0 -144.0,-68.15,0 -143.67,-68.0,0 -143.0,-67.58,0 -142.0,-67.25,0 -141.24,-67.0,0 -141.0,-66.88,0 -140.0,-66.29,0 -139.53,-66.0,0 -139.0,-65.65,0 -138.0,-65.05,0 -137.9,-65.0,0 -137.0,-64.53,0 -136.4,-64.0,0 -136.0,-63.61,0 -135.33,-63.0,0 -135.0,-62.66,0 -134.3,-62.0,0 -134.0,-61.68,0 -133.3,-61.0,0 -133.0,-60.41,0 -132.62,-60.0,0 -132.0,-59.19,0 -131.91,-59.0,0 -131.95,-58.0,0 -131.69,-57.0,0 -132.0,-56.56,0 -132.7,-56.0,0 -133.0,-55.84,0 -134.0,-55.5,0 -135.0,-55.15,0 -135.43,-55.0,0 -136.0,-54.8,0 -137.0,-54.43,0 -138.0,-54.05,0 -138.14,-54.0,0 -139.0,-53.67,0 -140.0,-53.27,0 -140.67,-53.0,0 -141.0,-52.87,0 -142.0,-52.45,0 -143.0,-52.02,0 -143.05,-52.0,0 -144.0,-51.58,0 -145.0,-51.13,0 -145.29,-51.0,0 -146.0,-50.67,0 -147.0,-50.2,0 -147.4,-50.0,0 -148.0,-49.71,0 -149.0,-49.21,0 -149.41,-49.0,0 -150.0,-48.7,0 -151.0,-48.17,0 -151.32,-48.0,0 -152.0,-47.63,0 -153.0,-47.08,0 -153.14,-47.0,0 -154.0,-46.51,0 -154.88,-46.0,0 -155.0,-45.93,0 -156.0,-45.33,0 -156.54,-45.0,0 -157.0,-44.72,0 -158.0,-44.09,0 -158.14,-44.0,0 -159.0,-43.45,0 -159.69,-43.0,0 -160.0,-42.79,0 -161.0,-42.12,0 -161.17,-42.0,0 -162.0,-41.43,0 -162.61,-41.0,0 -163.0,-40.72,0 -163.99,-40.0,0 -164.0,-40.0,0 -165.0,-39.26,0 -165.34,-39.0,0 -166.0,-38.5,0 -166.65,-38.0,0 -167.0,-37.73,0 -167.92,-37.0,0 -168.0,-36.94,0 -169.0,-36.13,0 -169.16,-36.0,0 -170.0,-35.31,0 -170.38,-35.0,0 -171.0,-34.48,0 -171.56,-34.0,0 -172.0,-33.63,0 -172.73,-33.0,0 -173.0,-32.77,0 -173.88,-32.0,0 -174.0,-31.89,0 -175.0,-31.0,0 -175.0,-31.0,0 -176.0,-30.11,0 -176.12,-30.0,0 -177.0,-29.21,0 -177.23,-29.0,0 -178.0,-28.3,0 -178.33,-28.0,0 -179.0,-27.39,0 -179.43,-27.0,0 -180.0,-26.48,0 -180.0,-27.0,0 -180.0,-28.0,0 -180.0,-29.0,0 -180.0,-30.0,0 -180.0,-31.0,0 -180.0,-32.0,0 -180.0,-33.0,0 -180.0,-34.0,0 -180.0,-35.0,0 -180.0,-36.0,0 -180.0,-37.0,0 -180.0,-38.0,0 -180.0,-39.0,0 -180.0,-40.0,0 -180.0,-41.0,0 -180.0,-42.0,0 -180.0,-43.0,0 -180.0,-44.0,0 -180.0,-45.0,0 -180.0,-46.0,0 -180.0,-47.0,0 -180.0,-48.0,0 -180.0,-49.0,0 -180.0,-50.0,0 -180.0,-51.0,0 -180.0,-52.0,0 -180.0,-53.0,0 -180.0,-54.0,0 -180.0,-55.0,0 -180.0,-56.0,0 -180.0,-57.0,0 -180.0,-58.0,0 -180.0,-59.0,0 -180.0,-60.0,0 -180.0,-61.0,0 -180.0,-62.0,0 -180.0,-63.0,0 -180.0,-64.0,0 -180.0,-65.0,0 -180.0,-66.0,0 -180.0,-67.0,0 -180.0,-68.0,0 -180.0,-69.0,0 -180.0,-70.0,0 -180.0,-71.0,0 -180.0,-72.0,0 -180.0,-73.0,0</coordinates></LinearRing></outerBoundaryIs></Polygon></Placemark>
<Placemark><name>after sunset</name><styleUrl>#night</styleUrl><Polygon><outerBoundaryIs><LinearRing><coordinates>153.55,-73.0,0 154.0,-73.0,0 155.0,-73.0,0 156.0,-73.01,0 157.0,-73.01,0 158.0,-73.01,0 159.0,-73.02,0 160.0,-73.02,0 161.0,-73.02,0 162.0,-73.02,0 163.0,-73.02,0 164.0,-73.02,0 165.0,-73.02,0 166.0,-73.02,0 167.0,-73.02,0 168.0,-73.02,0 169.0,-73.02,0 170.0,-73.02,0 171.0,-73.02,0 172.0,-73.02,0 173.0,-73.02,0 174.0,-73.02,0 175.0,-73.02,0 176.0,-73.02,0 177.0,-73.02,0 178.0,-73.02,0 179.0,-73.02,0 180.0,-73.02,0 180.0,-73.0,0 180.0,-72.0,0 180.0,-71.0,0 180.0,-70.0,0 180.0,-69.0,0 180.0,-68.0,0 180.0,-67.0,0 180.0,-66.0,0 180.0,-65.0,0 180.0,-64.0,0 180.0,-63.0,0 180.0,-62.0,0 180.0,-61.0,0 180.0,-60.0,0 180.0,-59.0,0 180.0,-58.0,0 180.0,-57.0,0 180.0,-56.0,0 180.0,-55.0,0 180.0,-54.0,0 180.0,-53.0,0 180.0,-52.0,0 180.0,-51.0,0 180.0,-50.0,0 180.0,-49.0,0 180.0,-48.0,0 180.0,-47.0,0 180.0,-46.0,0 180.0,-45.0,0 180.0,-44.0,0 180.0,-43.0,0 180.0,-42.0,0 180.0,-41.0,0 180.0,-40.0,0 180.0,-39.0,0 180.0,-38.0,0 180.0,-37.0,0 180.0,-36.0,0 180.0,-35.0,0 180.0,-34.0,0 180.0,-33.0,0 180.0,-32.0,0 180.0,-31.0,0 180.0,-30.0,0 180.0,-29.0,0 180.0,-28.0,0 180.0,-27.0,0 180.0,-26.48,0 179.48,-26.0,0 179.0,-25.57,0 178.38,-25.0,0 178.0,-24.66,0 177.27,-24.0,0 177.0,-23.76,0 176.14,-23.0,0 176.0,-22.87,0 175.0,-22.0,0 175.0,-22.0,0 174.0,-21.14,0 173.83,-21.0,0 173.0,-20.3,0 172.64,-20.0,0 172.0,-19.48,0 171.4,-19.0,0 171.0,-18.69,0 170.11,-18.0,0 170.0,-17.92,0 169.0,-17.18,0 168.76,-17.0,0 168.0,-16.46,0 167.32,-16.0,0 167.0,-15.78,0 166.0,-15.13,0 165.79,-15.0,0 165.0,-14.51,0 164.13,-14.0,0 164.0,-13.93,0 163.0,-13.37,0 162.29,-13.0,0 162.0,-12.85,0 161.0,-12.36,0 160.21,-12.0,0 160.0,-11.91,0 159.0,-11.48,0 158.0,-11.09,0 157.77,-11.0,0 157.0,-10.72,0 156.0,-10.39,0 155.0,-10.08,0 154.72,-10.0,0 154.0,-9.8,0 153.0,-9.55,0 152.0,-9.33,0 151.0,-9.12,0 150.3,-9.0,0 150.0,-8.99,0 150.0,-9.0,0 149.97,-10.0,0 149.94,-11.0,0 149.92,-12.0,0 149.0,-12.9,0 148.96,-13.0,0 148.92,-14.0,0 148.91,-15.0,0 148.59,-16.0,0 148.62,-17.0,0 148.65,-18.0,0 148.0,-18.62,0 147.9,-19.0,0 147.79,-20.0,0 147.79,-21.0,0 147.0,-21.91,0 146.96,-22.0,0 146.99,-23.0,0 146.84,-24.0,0 146.63,-25.0,0 146.66,-26.0,0 146.0,-26.65,0 145.86,-27.0,0 145.84,-28.0,0 145.77,-29.0,0 145.46,-30.0,0 145.53,-31.0,0 145.0,-31.52,0 144.82,-32.0,0 144.76,-33.0,0 144.72,-34.0,0 144.39,-35.0,0 144.5,-36.0,0 144.0,-36.51,0 143.82,-37.0,0 143.8,-38.0,0 143.75,-39.0,0 143.5,-40.0,0 143.59,-41.0,0 143.0,-41.73,0 142.91,-42.0,0 142.98,-43.0,0 142.79,-44.0,0 142.66,-45.0,0 142.71,-46.0,0 142.36,-47.0,0 142.55,-48.0,0 142.0,-48.66,0 141.89,-49.0,0 142.0,-49.88,0 142.08,-50.0,0 142.0,-50.09,0 141.81,-51.0,0 141.74,-52.0,0 141.77,-53.0,0 141.64,-54.0,0 141.73,-55.0,0 141.54,-56.0,0 141.69,-57.0,0 141.47,-58.0,0 141.67,-59.0,0 141.47,-60.0,0 141.73,-61.0,0 141.77,-62.0,0 141.93,-63.0,0 142.0,-63.13,0 142.55,-64.0,0 142.43,-65.0,0 142.94,-66.0,0 142.88,-67.0,0 143.0,-67.16,0 143.64,-68.0,0 143.73,-69.0,0 144.0,-69.3,0 144.66,-70.0,0 144.0,-70.61,0 143.0,-70.85,0 142.0,-70.91,0 141.0,-70.95,0 140.0,-70.99,0 139.89,-71.0,0 140.0,-71.03,0 141.0,-71.18,0 142.0,-71.33,0 143.0,-71.56,0 144.0,-71.77,0 145.0,-71.93,0 145.37,-72.0,0 146.0,-72.07,0 147.0,-72.24,0 148.0,-72.37,0 149.0,-72.48,0 150.0,-72.58,0 151.0,-72.69,0 152.0,-72.8,0 153.0,-72.92,0 153.55,-73.0,0</coordinates></LinearRing></outerBoundaryIs></Polygon></Placemark>
</Folder><Folder><name>Cities</name>
<Placemark><name>Shanghai, CN</name><styleUrl>#city</styleUrl><description>near miss: Jupiter passes 41.8′ from the limb (UTC)</description><Point><coordinates>121.45806,31.22222,0</coordinates></Point></Placemark>
<Placemark><name>Beijing, CN</name><styleUrl>#city</styleUrl><description>near miss: Jupiter passes 51.3′ from the limb (UTC)</description><Point><coordinates>116.39723,39.9075,0</coordinates></Point></Placemark>
<Placemark><name>Shenzhen, CN</name><styleUrl>#city</styleUrl><description>near miss: Jupiter passes 34.8′ from the limb (UTC)</description><Point><coordinates>114.0683,22.54554,0</coordinates></Point></Placemark>
<Placemark><name>Guangzhou, CN</name><styleUrl>#city</styleUrl><description>near miss: Jupiter passes 35.6′ from the limb (UTC)</description><Point><coordinates>113.25,23.11667,0</coordinates></Point></Placemark>
<Placemark><name>Mexico City, MX</name><styleUrl>#city</styleUrl><description>near miss: Jupiter passes 76.6′ from the limb (UTC)</description><Point><coordinates>-99.12766,19.42847,0</coordinates></Point></Placemark>
<Placemark><name>Tianjin, CN</name><styleUrl>#city</styleUrl><description>near miss: Jupiter passes 50.4′ from the limb (UTC)</description><Point><coordinates>117.17667,39.14222,0</coordinates></Point></Placemark>
<Placemark><name>Wuhan, CN</name><styleUrl>#city</styleUrl><description>near miss: Jupiter passes 42.7′ from the limb (UTC)</description><Point><coordinates>114.26667,30.58333,0</coordinates></Point></Placemark>
<Placemark><name>Seoul, KR</name><styleUrl>#city</styleUrl><description>near miss: Jupiter passes 47.2′ from the limb (UTC)</description><Point><coordinates>126.9784,37.566,0</coordinates></Point></Placemark>
<Placemark><name>Tokyo, JP</name><styleUrl>#city</styleUrl><description>near miss: Jupiter passes 44.1′ from the limb (UTC)</description><Point><coordinates>139.69171,35.6895,0</coordinates></Point></Placemark>
<Placemark><name>Dongguan, CN</name><styleUrl>#city</styleUrl><description>near miss: Jupiter passes 35.3′ from the limb (UTC)</description><Point><coordinates>113.74866,23.01797,0</coordinates></Point></Placemark>
<Placemark><name>Xi’an, CN</name><styleUrl>#city</styleUrl><description>near miss: Jupiter passes 47.5′ from the limb (UTC)</description><Point><coordinates>108.92861,34.25833,0</coordinates></Point></Placemark>
<Placemark><name>Nanjing, CN</name><styleUrl>#city</styleUrl><description>near miss: Jupiter passes 43.2′ from the limb (UTC)</description><Point><coordinates>118.77778,32.06167,0</coordinates></Point></Placemark>
<Placemark><name>Hangzhou, CN</name><styleUrl>#city</styleUrl><description>near miss: Jupiter passes 41.1′ from the limb (UTC)</description><Point><coordinates>120.16142,30.29365,0</coordinates></Point></Placemark>
<Placemark><name>Foshan, CN</name><styleUrl>#city</styleUrl><description>near miss: Jupiter passes 35.5′ from the limb (UTC)</description><Point><coordinates>113.13148,23.02677,0</coordinates></Point></Placemark>
<Placemark><name>Taipei, TW</name><styleUrl>#city</styleUrl><description>near miss: Jupiter passes 35.6′ from the limb (UTC)</description><Point><coordinates>121.52639,25.05306,0</coordinates></Point></Placemark>
<Placemark><name>Chongqing, CN</name><styleUrl>#city</styleUrl><description>near miss: Jupiter passes 43.7′ from the limb (UTC)</description><Point><coordinates>106.55771,29.56026,0</coordinates></Point></Placemark>
<Placemark><name>Hong Kong, HK</name><styleUrl>#city</styleUrl><description>near miss: Jupiter passes 34.5′ from the limb (UTC)</description><Point><coordinates>114.17469,22.27832,0</coordinates></Point></Placemark>
<Placemark><name>Wuzhong, CN</name><styleUrl>#city</styleUrl><description>near miss: Jupiter passes 51.7′ from the limb (UTC)</description><Point><coordinates>106.201,37.9867,0</coordinates></Point></Placemark>
<Placemark><name>Qingdao, CN</name><styleUrl>#city</styleUrl><description>near miss: Jupiter passes 46.8′ from the limb (UTC)</description><Point><coordinates>120.38042,36.06488,0</coordinates></Point></Placemark>
<Placemark><name>Shenyang, CN</name><styleUrl>#city</styleUrl><description>near miss: Jupiter passes 51.9′ from the limb (UTC)</description><Point><coordinates>123.43278,41.79222,0</coordinates></Point></Placemark>
<Placemark><name>Suzhou, CN</name><styleUrl>#city</styleUrl><description>near miss: Jupiter passes 42.0′ from the limb (UTC)</description><Point><coordinates>120.59538,31.30408,0</coordinates></Point></Placemark>
<Placemark><name>Pudong, CN</name><styleUrl>#city</styleUrl><description>near miss: Jupiter passes 41.8′ from the limb (UTC)</description><Point><coordinates>121.50094,31.23995,0</coordinates></Point></Placemark>
<Placemark><name>Sydney, AU</name><styleUrl>#city</styleUrl><description>D1 08:32:32 · D2 08:34:06 · R1 09:47:43 · R2 09:49:23 (UTC)</description><Point><coordinates>151.20732,-33.86785,0</coordinates></Point></Placemark>
<Placemark><name>Melbourne, AU</name><styleUrl>#city</styleUrl><description>D1 08:30:47 · D2 08:32:17 · R1 09:42:33 · R2 09:44:11 (UTC)</description><Point><coordinates>144.96332,-37.814,0</coordinates></Point></Placemark>
<Placemark><name>Harbin, CN</name><styleUrl>#city</styleUrl><description>near miss: Jupiter passes 55.3′ from the limb (UTC)</description><Point><coordinates>126.65,45.75,0</coordinates></Point></Placemark>
<Placemark><name>Hefei, CN</name><styleUrl>#city</styleUrl><description>near miss: Jupiter passes 43.3′ from the limb (UTC)</description><Point><coordinates>117.28083,31.86389,0</coordinates></Point></Placemark>
<Placemark><name>Dalian, CN</name><styleUrl>#city</styleUrl><description>near miss: Jupiter passes 49.4′ from the limb (UTC)</description><Point><coordinates>121.60222,38.91222,0</coordinates></Point></Placemark>
<Placemark><name>Changchun, CN</name><styleUrl>#city</styleUrl><description>near miss: Jupiter passes 53.7′ from the limb (UTC)</description><Point><coordinates>125.32278,43.88,0</coordinates></Point></Placemark>
<Placemark><name>Xiamen, CN</name><styleUrl>#city</styleUrl><description>near miss: Jupiter passes 35.7′ from the limb (UTC)</description><Point><coordinates>118.08187,24.47979,0</coordinates></Point></Placemark>
<Placemark><name>Bao&#x27;an, CN</name><styleUrl>#city</styleUrl><description>near miss: Jupiter passes 34.8′ from the limb (UTC)</description><Point><coordinates>113.88288,22.55213,0</coordinates></Point></Placemark>
<Placemark><name>Wuxi, CN</name><styleUrl>#city</styleUrl><description>near miss: Jupiter passes 42.4′ from the limb (UTC)</description><Point><coordinates>120.28857,31.56887,0</coordinates></Point></Placemark>
<Placemark><name>Jinan, CN</name><styleUrl>#city</styleUrl><description>near miss: Jupiter passes 48.1′ from the limb (UTC)</description><Point><coordinates>116.99722,36.66833,0</coordinates></Point></Placemark>
<Placemark><name>Taiyuan, CN</name><styleUrl>#city</styleUrl><description>near miss: Jupiter passes 50.1′ from the limb (UTC)</description><Point><coordinates>112.56028,37.86944,0</coordinates></Point></Placemark>
<Placemark><name>Zhengzhou, CN</name><styleUrl>#city</styleUrl><description>near miss: Jupiter passes 46.9′ from the limb (UTC)</description><Point><coordinates>113.64861,34.75778,0</coordinates></Point></Placemark>
<Placemark><name>New Taipei City, TW</name><styleUrl>#city</styleUrl><description>near miss: Jupiter passes 35.6′ from the limb (UTC)</description><Point><coordinates>121.45703,25.06199,0</coordinates></Point></Placemark>
<Placemark><name>New Territories, HK</name><styleUrl>#city</styleUrl><description>near miss: Jupiter passes 34.6′ from the limb (UTC)</description><Point><coordinates>114.11095,22.42441,0</coordinates></Point></Placemark>
<Placemark><name>Shijiazhuang, CN</name><styleUrl>#city</styleUrl><description>near miss: Jupiter passes 49.9′ from the limb (UTC)</description><Point><coordinates>114.47861,38.04139,0</coordinates></Point></Placemark>
<Placemark><name>Zhongshan, CN</name><styleUrl>#city</styleUrl><description>near miss: Jupiter passes 34.9′ from the limb (UTC)</description><Point><coordinates>113.37912,22.52306,0</coordinates></Point></Placemark>
<Placemark><name>Nanning, CN</name><styleUrl>#city</styleUrl><description>near miss: Jupiter passes 36.6′ from the limb (UTC)</description><Point><coordinates>108.31667,22.81667,0</coordinates></Point></Placemark>
<Placemark><name>Shantou, CN</name><styleUrl>#city</styleUrl><description>near miss: Jupiter passes 34.9′ from the limb (UTC)</description><Point><coordinates>116.67876,23.35489,0</coordinates></Point></Placemark>
<Placemark><name>Los Angeles, US</name><styleUrl>#city</styleUrl><description>near miss: Jupiter passes 79.5′ from the limb (UTC)</description><Point><coordinates>-118.24368,34.05223,0</coordinates></Point></Placemark>
<Placemark><name>Yokohama, JP</name><styleUrl>#city</styleUrl><description>near miss: Jupiter passes 43.8′ from the limb (UTC)</description><Point><coordinates>139.65,35.43333,0</coordinates></Point></Placemark>
<Placemark><name>Fuzhou, CN</name><styleUrl>#city</styleUrl><description>near miss: Jupiter passes 37.1′ from the limb (UTC)</description><Point><coordinates>119.30611,26.06139,0</coordinates></Point></Placemark>
<Placemark><name>Ningbo, CN</name><styleUrl>#city</styleUrl><description>near miss: Jupiter passes 40.4′ from the limb (UTC)</description><Point><coordinates>121.54945,29.87819,0</coordinates></Point></Placemark>
<Placemark><name>Puyang, CN</name><styleUrl>#city</styleUrl><description>near miss: Jupiter passes 40.4′ from the limb (UTC)</description><Point><coordinates>119.88872,29.45679,0</coordinates></Point></Placemark>
<Placemark><name>Shiyan, CN</name><styleUrl>#city</styleUrl><description>near miss: Jupiter passes 45.6′ from the limb (UTC)</description><Point><coordinates>110.77806,32.6475,0</coordinates></Point></Placemark>
<Placemark><name>Tangshan, CN</name><styleUrl>#city</styleUrl><description>near miss: Jupiter passes 50.7′ from the limb (UTC)</description><Point><coordinates>118.18319,39.64381,0</coordinates></Point></Placemark>
<Placemark><name>Lüliang, CN</name><styleUrl>#city</styleUrl><description>near miss: Jupiter passes 50.1′ from the limb (UTC)</description><Point><coordinates>111.14436,37.5192,0</coordinates></Point></Placemark>
<Placemark><name>Changzhou, CN</name><styleUrl>#city</styleUrl><description>near miss: Jupiter passes 42.6′ from the limb (UTC)</description><Point><coordinates>119.95401,31.77359,0</coordinates></Point></Placemark>
<Placemark><name>Busan, KR</name><styleUrl>#city</styleUrl><description>near miss: Jupiter passes 44.5′ from the limb (UTC)</description><Point><coordinates>129.03004,35.10168,0</coordinates></Point></Placemark>
<Placemark><name>Pyongyang, KP</name><styleUrl>#city</styleUrl><description>near miss: Jupiter passes 48.9′ from the limb (UTC)</description><Point><coordinates>125.75432,39.03385,0</coordinates></Point></Placemark>
<Placemark><name>Zibo, CN</name><styleUrl>#city</styleUrl><description>near miss: Jupiter passes 48.0′ from the limb (UTC)</description><Point><coordinates>118.06333,36.79056,0</coordinates></Point></Placemark>
<Placemark><name>Changsha, CN</name><styleUrl>#city</styleUrl><description>near miss: Jupiter passes 40.7′ from the limb (UTC)</description><Point><coordinates>112.97087,28.19874,0</coordinates></Point></Placemark>
<Placemark><name>Quezon City, PH</name><styleUrl>#city</styleUrl><description>near miss: Jupiter passes 25.1′ from the limb (UTC)</description><Point><coordinates>121.0509,14.6488,0</coordinates></Point></Placemark>
<Placemark><name>Guiyang, CN</name><styleUrl>#city</styleUrl><description>near miss: Jupiter passes 40.7′ from the limb (UTC)</description><Point><coordinates>106.71667,26.58333,0</coordinates></Point></Placemark>
<Placemark><name>Incheon, KR</name><styleUrl>#city</styleUrl><description>near miss: Jupiter passes 47.2′ from the limb (UTC)</description><Point><coordinates>126.70515,37.45646,0</coordinates></Point></Placemark>
<Placemark><name>Lanzhou, CN</name><styleUrl>#city</styleUrl><description>near miss: Jupiter passes 50.5′ from the limb (UTC)</description><Point><coordinates>103.83987,36.05701,0</coordinates></Point></Placemark>
<Placemark><name>Huizhou, CN</name><styleUrl>#city</styleUrl><description>near miss: Jupiter passes 35.3′ from the limb (UTC)</description><Point><coordinates>114.41523,23.11147,0</coordinates></Point></Placemark>
<Placemark><name>Haikou, CN</name><styleUrl>#city</styleUrl><description>near miss: Jupiter passes 33.3′ from the limb (UTC)</description><Point><coordinates>110.34651,20.03421,0</coordinates></Point></Placemark>
<Placemark><name>Taichung, TW</name><styleUrl>#city</styleUrl><description>near miss: Jupiter passes 34.8′ from the limb (UTC)</description><Point><coordinates>120.6839,24.1469,0</coordinates></Point></Placemark>
<Placemark><name>Brisbane, AU</name><styleUrl>#city</styleUrl><description>D1 08:26:48 · D2 08:28:30 · R1 09:40:48 · R2 09:42:34 (UTC)</description><Point><coordinates>153.02809,-27.46794,0</coordinates></Point></Placemark>
<Placemark><name>Osaka, JP</name><styleUrl>#city</styleUrl><description>near miss: Jupiter passes 43.3′ from the limb (UTC)</description><Point><coordinates>135.50107,34.69379,0</coordinates></Point></Placemark>
<Placemark><name>Linyi, CN</name><styleUrl>#city</styleUrl><description>near miss: Jupiter passes 46.2′ from the limb (UTC)</description><Point><coordinates>118.34278,35.06306,0</coordinates></Point></Placemark>
<Placemark><name>Baoding, CN</name><styleUrl>#city</styleUrl><description>near miss: Jupiter passes 50.5′ from the limb (UTC)</description><Point><coordinates>115.46246,38.87288,0</coordinates></Point></Placemark>
<Placemark><name>Kaohsiung, TW</name><styleUrl>#city</styleUrl><description>near miss: Jupiter passes 33.4′ from the limb (UTC)</description><Point><coordinates>120.31333,22.61626,0</coordinates></Point></Placemark>
<Placemark><name>Minhang, CN</name><styleUrl>#city</styleUrl><description>near miss: Jupiter passes 41.7′ from the limb (UTC)</description><Point><coordinates>121.37471,31.10881,0</coordinates></Point></Placemark>
<Placemark><name>Bazhong, CN</name><styleUrl>#city</styleUrl><description>near miss: Jupiter passes 45.8′ from the limb (UTC)</description><Point><coordinates>106.74432,31.8694,0</coordinates></Point></Placemark>
<Placemark><name>Chicago, US</name><styleUrl>#city</styleUrl><description>near miss: Jupiter passes 90.0′ from the limb (UTC)</description><Point><coordinates>-87.65005,41.85003,0</coordinates></Point></Placemark>
<Placemark><name>Wenzhou, CN</name><styleUrl>#city</styleUrl><description>near miss: Jupiter passes 38.7′ from the limb (UTC)</description><Point><coordinates>120.66682,27.99942,0</coordinates></Point></Placemark>
<Placemark><name>Yunfu, CN</name><styleUrl>#city</styleUrl><description>near miss: Jupiter passes 35.7′ from the limb (UTC)</description><Point><coordinates>112.03809,22.92787,0</coordinates></Point></Placemark>
<Placemark><name>Huai&#x27;an, CN</name><styleUrl>#city</styleUrl><description>near miss: Jupiter passes 44.6′ from the limb (UTC)</description><Point><coordinates>119.01917,33.58861,0</coordinates></Point></Placemark>
<Placemark><name>Daegu, KR</name><styleUrl>#city</styleUrl><description>near miss: Jupiter passes 45.3′ from the limb (UTC)</description><Point><coordinates>128.59111,35.87028,0</coordinates></Point></Placemark>
<Placemark><name>Nanchang, CN</name><styleUrl>#city</styleUrl><description>near miss: Jupiter passes 40.5′ from the limb (UTC)</description><Point><coordinates>115.85306,28.68396,0</coordinates></Point></Placemark>
<Placemark><name>Hohhot, CN</name><styleUrl>#city</styleUrl><description>near miss: Jupiter passes 53.1′ from the limb (UTC)</description><Point><coordinates>111.65222,40.81056,0</coordinates></Point></Placemark>
<Placemark><name>Nagoya, JP</name><styleUrl>#city</styleUrl><description>near miss: Jupiter passes 43.7′ from the limb (UTC)</description><Point><coordinates>136.90641,35.18147,0</coordinates></Point></Placemark>
<Placemark><name>Houston, US</name><styleUrl>#city</styleUrl><description>near miss: Jupiter passes 83.5′ from the limb (UTC)</description><Point><coordinates>-95.36327,29.76328,0</coordinates></Point></Placemark>
<Placemark><name>Perth, AU</name><styleUrl>#city</styleUrl><description>D1 08:02:16 · D2 08:03:29 · R1 09:00:43 · R2 09:02:05 (UTC)</description><Point><coordinates>115.8614,-31.95224,0</coordinates></Point></Placemark>
<Placemark><name>Shaoxing, CN</name><styleUrl>#city</styleUrl><description>near miss: Jupiter passes 40.8′ from the limb (UTC)</description><Point><coordinates>120.57864,30.00237,0</coordinates></Point></Placemark>
<Placemark><name>Nantong, CN</name><styleUrl>#city</styleUrl><description>near miss: Jupiter passes 42.7′ from the limb (UTC)</description><Point><coordinates>120.87472,32.03028,0</coordinates></Point></Placemark>
<Placemark><name>Baoshan, CN</name><styleUrl>#city</styleUrl><description>near miss: Jupiter passes 42.0′ from the limb (UTC)</description><Point><coordinates>121.48956,31.40845,0</coordinates></Point></Placemark>
<Placemark><name>Kowloon, HK</name><styleUrl>#city</styleUrl><description>near miss: Jupiter passes 34.5′ from the limb (UTC)</description><Point><coordinates>114.18333,22.31667,0</coordinates></Point></Placemark>
<Placemark><name>Yantai, CN</name><styleUrl>#city</styleUrl><description>near miss: Jupiter passes 48.0′ from the limb (UTC)</description><Point><coordinates>121.44081,37.47649,0</coordinates></Point></Placemark>
<Placemark><name>Zhuhai, CN</name><styleUrl>#city</styleUrl><description>near miss: Jupiter passes 34.6′ from the limb (UTC)</description><Point><coordinates>113.56778,22.27694,0</coordinates></Point></Placemark>
<Placemark><name>Baotou, CN</name><styleUrl>#city</styleUrl><description>near miss: Jupiter passes 53.3′ from the limb (UTC)</description><Point><coordinates>109.84389,40.6516,0</coordinates></Point></Placemark>
<Placemark><name>Qingyang, CN</name><styleUrl>#city</styleUrl><description>near miss: Jupiter passes 49.2′ from the limb (UTC)</description><Point><coordinates>107.64455,35.70976,0</coordinates></Point></Placemark>
<Placemark><name>Kunshan, CN</name><styleUrl>#city</styleUrl><description>near miss: Jupiter passes 42.0′ from the limb (UTC)</description><Point><coordinates>120.95431,31.37762,0</coordinates></Point></Placemark>
<Placemark><name>Weifang, CN</name><styleUrl>#city</styleUrl><description>near miss: Jupiter passes 47.7′ from the limb (UTC)</description><Point><coordinates>119.10194,36.71,0</coordinates></Point></Placemark>
<Placemark><name>Zunyi, CN</name><styleUrl>#city</styleUrl><description>near miss: Jupiter passes 41.8′ from the limb (UTC)</description><Point><coordinates>106.90722,27.68667,0</coordinates></Point></Placemark>
<Placemark><name>Lianyungang, CN</name><styleUrl>#city</styleUrl><description>near miss: Jupiter passes 45.6′ from the limb (UTC)</description><Point><coordinates>119.21556,34.59845,0</coordinates></Point></Placemark>
<Placemark><name>Ganzhou, CN</name><styleUrl>#city</styleUrl><description>near miss: Jupiter passes 37.9′ from the limb (UTC)</description><Point><coordinates>114.9326,25.84664,0</coordinates></Point></Placemark>
<Placemark><name>Sapporo, JP</name><styleUrl>#city</styleUrl><description>near miss: Jupiter passes 51.6′ from the limb (UTC)</description><Point><coordinates>141.35,43.06667,0</coordinates></Point></Placemark>
<Placemark><name>Songjiang, CN</name><styleUrl>#city</styleUrl><description>near miss: Jupiter passes 41.7′ from the limb (UTC)</description><Point><coordinates>121.22326,31.03443,0</coordinates></Point></Placemark>
<Placemark><name>Ordos, CN</name><styleUrl>#city</styleUrl><description>near miss: Jupiter passes 52.4′ from the limb (UTC)</description><Point><coordinates>109.78157,39.6086,0</coordinates></Point></Placemark>
<Placemark><name>Tijuana, MX</name><styleUrl>#city</styleUrl><description>near miss: Jupiter passes 79.2′ from the limb (UTC)</description><Point><coordinates>-117.00371,32.5027,0</coordinates></Point></Placemark>
<Placemark><name>Jieyang, CN</name><styleUrl>#city</styleUrl><description>near miss: Jupiter passes 35.2′ from the limb (UTC)</description><Point><coordinates>116.36581,23.5418,0</coordinates></Point></Placemark>
<Placemark><name>Jilin, CN</name><styleUrl>#city</styleUrl><description>near miss: Jupiter passes 53.5′ from the limb (UTC)</description><Point><coordinates>126.5608,43.84652,0</coordinates></Point></Placemark>
<Placemark><name>Jiading, CN</name><styleUrl>#city</styleUrl><description>near miss: Jupiter passes 42.0′ from the limb (UTC)</description><Point><coordinates>121.24465,31.38575,0</coordinates></Point></Placemark>
<Placemark><name>Shangqiu, CN</name><styleUrl>#city</styleUrl><description>near miss: Jupiter passes 46.1′ from the limb (UTC)</description><Point><coordinates>115.65613,34.4143,0</coordinates></Point></Placemark>
<Placemark><name>Nanchong, CN</name><styleUrl>#city</styleUrl><description>near miss: Jupiter passes 45.0′ from the limb (UTC)</description><Point><coordinates>106.08473,30.79508,0</coordinates></Point></Placemark>
<Placemark><name>Tainan, TW</name><styleUrl>#city</styleUrl><description>near miss: Jupiter passes 33.8′ from the limb (UTC)</description><Point><coordinates>120.21333,22.99083,0</coordinates></Point></Placemark>
<Placemark><name>Datong, CN</name><styleUrl>#city</styleUrl><description>near miss: Jupiter passes 52.1′ from the limb (UTC)</description><Point><coordinates>113.29139,40.09361,0</coordinates></Point></Placemark>
<Placemark><name>Davao, PH</name><styleUrl>#city</styleUrl><description>near miss: Jupiter passes 16.5′ from the limb (UTC)</description><Point><coordinates>125.61278,7.07306,0</coordinates></Point></Placemark>
<Placemark><name>Iztapalapa, MX</name><styleUrl>#city</styleUrl><description>near miss: Jupiter passes 76.5′ from the limb (UTC)</description><Point><coordinates>-99.06224,19.35529,0</coordinates></Point></Placemark>
<Placemark><name>Nanyang, CN</name><styleUrl>#city</styleUrl><description>near miss: Jupiter passes 45.5′ from the limb (UTC)</description><Point><coordinates>112.54659,33.00524,0</coordinates></Point></Placemark>
<Placemark><name>Jiangmen, CN</name><styleUrl>#city</styleUrl><description>near miss: Jupiter passes 35.1′ from the limb (UTC)</description><Point><coordinates>113.08333,22.58333,0</coordinates></Point></Placemark>
<Placemark><name>Jiangyin, CN</name><styleUrl>#city</styleUrl><description>near miss: Jupiter passes 42.7′ from the limb (UTC)</description><Point><coordinates>120.26302,31.91102,0</coordinates></Point></Placemark>
<Placemark><name>Fuyang, CN</name><styleUrl>#city</styleUrl><description>near miss: Jupiter passes 44.6′ from the limb (UTC)</description><Point><coordinates>115.81667,32.9,0</coordinates></Point></Placemark>
<Placemark><name>Bayan Nur, CN</name><styleUrl>#city</styleUrl><description>near miss: Jupiter passes 54.0′ from the limb (UTC)</description><Point><coordinates>107.38599,40.74143,0</coordinates></Point></Placemark>
<Placemark><name>Chaozhou, CN</name><styleUrl>#city</styleUrl><description>near miss: Jupiter passes 35.3′ from the limb (UTC)</description><Point><coordinates>116.62262,23.65396,0</coordinates></Point></Placemark>
<Placemark><name>Qingyuan, CN</name><styleUrl>#city</styleUrl><description>near miss: Jupiter passes 36.2′ from the limb (UTC)</description><Point><coordinates>113.03333,23.7,0</coordinates></Point></Placemark>
<Placemark><name>Tai’an, CN</name><styleUrl>#city</styleUrl><description>near miss: Jupiter passes 47.6′ from the limb (UTC)</description><Point><coordinates>117.12,36.18528,0</coordinates></Point></Placemark>
<Placemark><name>Caloocan, PH</name><styleUrl>#city</styleUrl><description>near miss: Jupiter passes 25.1′ from the limb (UTC)</description><Point><coordinates>120.96788,14.64953,0</coordinates></Point></Placemark>
<Placemark><name>Puebla, MX</name><styleUrl>#city</styleUrl><description>near miss: Jupiter passes 76.5′ from the limb (UTC)</description><Point><coordinates>-98.20723,19.04778,0</coordinates></Point></Placemark>
<Placemark><name>Xining, CN</name><styleUrl>#city</styleUrl><description>near miss: Jupiter passes 51.6′ from the limb (UTC)</description><Point><coordinates>101.75739,36.62554,0</coordinates></Point></Placemark>
<Placemark><name>Changshu, CN</name><styleUrl>#city</styleUrl><description>near miss: Jupiter passes 42.4′ from the limb (UTC)</description><Point><coordinates>120.74221,31.64615,0</coordinates></Point></Placemark>
<Placemark><name>Huainan, CN</name><styleUrl>#city</styleUrl><description>near miss: Jupiter passes 44.1′ from the limb (UTC)</description><Point><coordinates>116.99694,32.62639,0</coordinates></Point></Placemark>
<Placemark><name>Phoenix, US</name><styleUrl>#city</styleUrl><description>near miss: Jupiter passes 81.3′ from the limb (UTC)</description><Point><coordinates>-112.07404,33.44838,0</coordinates></Point></Placemark>
<Placemark><name>Ecatepec de Morelos, MX</name><styleUrl>#city</styleUrl><description>near miss: Jupiter passes 76.7′ from the limb (UTC)</description><Point><coordinates>-99.06064,19.60492,0</coordinates></Point></Placemark>
<Placemark><name>Lu’an, CN</name><styleUrl>#city</styleUrl><description>near miss: Jupiter passes 43.3′ from the limb (UTC)</description><Point><coordinates>116.51688,31.73561,0</coordinates></Point></Placemark>
<Placemark><name>Yancheng, CN</name><styleUrl>#city</styleUrl><description>near miss: Jupiter passes 44.2′ from the limb (UTC)</description><Point><coordinates>120.1573,33.3575,0</coordinates></Point></Placemark>
<Placemark><name>Fukuoka, JP</name><styleUrl>#city</styleUrl><description>near miss: Jupiter passes 42.8′ from the limb (UTC)</description><Point><coordinates>130.41667,33.6,0</coordinates></Point></Placemark>
<Placemark><name>Taizhou, CN</name><styleUrl>#city</styleUrl><description>near miss: Jupiter passes 43.4′ from the limb (UTC)</description><Point><coordinates>119.90812,32.49069,0</coordinates></Point></Placemark>
<Placemark><name>Daqing, CN</name><styleUrl>#city</styleUrl><description>near miss: Jupiter passes 56.3′ from the limb (UTC)</description><Point><coordinates>125.0,46.58333,0</coordinates></Point></Placemark>
<Placemark><name>Manila, PH</name><styleUrl>#city</styleUrl><description>near miss: Jupiter passes 25.1′ from the limb (UTC)</description><Point><coordinates>120.9822,14.6042,0</coordinates></Point></Placemark>
<Placemark><name>Wuhu, CN</name><styleUrl>#city</styleUrl><description>near miss: Jupiter passes 42.5′ from the limb (UTC)</description><Point><coordinates>118.42947,31.35259,0</coordinates></Point></Placemark>
<Placemark><name>Santiago de Querétaro, MX</name><styleUrl>#city</styleUrl><description>near miss: Jupiter passes 77.1′ from the limb (UTC)</description><Point><coordinates>-100.38806,20.58806,0</coordinates></Point></Placemark>
<Placemark><name>Dazhou, CN</name><styleUrl>#city</styleUrl><description>near miss: Jupiter passes 45.0′ from the limb (UTC)</description><Point><coordinates>107.46308,31.2106,0</coordinates></Point></Placemark>
<Placemark><name>Yangzhou, CN</name><styleUrl>#city</styleUrl><description>near miss: Jupiter passes 43.4′ from the limb (UTC)</description><Point><coordinates>119.43583,32.39722,0</coordinates></Point></Placemark>
<Placemark><name>León de los Aldama, MX</name><styleUrl>#city</styleUrl><description>near miss: Jupiter passes 77.2′ from the limb (UTC)</description><Point><coordinates>-101.68253,21.12183,0</coordinates></Point></Placemark>
<Placemark><name>Guilin, CN</name><styleUrl>#city</styleUrl><description>near miss: Jupiter passes 38.5′ from the limb (UTC)</description><Point><coordinates>110.29639,25.28022,0</coordinates></Point></Placemark>
<Placemark><name>Zhaoqing, CN</name><styleUrl>#city</styleUrl><description>near miss: Jupiter passes 35.7′ from the limb (UTC)</description><Point><coordinates>112.46091,23.04893,0</coordinates></Point></Placemark>
<Placemark><name>Mianyang, CN</name><styleUrl>#city</styleUrl><description>near miss: Jupiter passes 46.0′ from the limb (UTC)</description><Point><coordinates>104.68168,31.46784,0</coordinates></Point></Placemark>
<Placemark><name>Auckland, NZ</name><styleUrl>#city</styleUrl><description>D1 09:18:30 · D2 09:20:23 · R1 10:25:29 · R2 10:27:21 (UTC)</description><Point><coordinates>174.76349,-36.84853,0</coordinates></Point></Placemark>
<Placemark><name>Wanzhou, CN</name><styleUrl>#city</styleUrl><description>near miss: Jupiter passes 44.3′ from the limb (UTC)</description><Point><coordinates>108.39586,30.76451,0</coordinates></Point></Placemark>
<Placemark><name>Putian, CN</name><styleUrl>#city</styleUrl><description>near miss: Jupiter passes 36.5′ from the limb (UTC)</description><Point><coordinates>119.01028,25.43944,0</coordinates></Point></Placemark>
<Placemark><name>Kawasaki, JP</name><styleUrl>#city</styleUrl><description>near miss: Jupiter passes 43.9′ from the limb (UTC)</description><Point><coordinates>139.71722,35.52056,0</coordinates></Point></Placemark>
<Placemark><name>San Antonio, US</name><styleUrl>#city</styleUrl><description>near miss: Jupiter passes 82.7′ from the limb (UTC)</description><Point><coordinates>-98.49363,29.42412,0</coordinates></Point></Placemark>
<Placemark><name>Kobe, JP</name><styleUrl>#city</styleUrl><description>near miss: Jupiter passes 43.4′ from the limb (UTC)</description><Point><coordinates>135.183,34.6913,0</coordinates></Point></Placemark>
<Placemark><name>Ciudad Juárez, MX</name><styleUrl>#city</styleUrl><description>near miss: Jupiter passes 82.1′ from the limb (UTC)</description><Point><coordinates>-106.46084,31.72024,0</coordinates></Point></Placemark>
<Placemark><name>Yinchuan, CN</name><styleUrl>#city</styleUrl><description>near miss: Jupiter passes 52.1′ from the limb (UTC)</description><Point><coordinates>106.27306,38.46806,0</coordinates></Point></Placemark>
<Placemark><name>Yiwu, CN</name><styleUrl>#city</styleUrl><description>near miss: Jupiter passes 40.2′ from the limb (UTC)</description><Point><coordinates>120.07676,29.31506,0</coordinates></Point></Placemark>
<Placemark><name>Zapopan, MX</name><styleUrl>#city</styleUrl><description>near miss: Jupiter passes 76.5′ from the limb (UTC)</description><Point><coordinates>-103.38742,20.72111,0</coordinates></Point></Placemark>
<Placemark><name>Makassar, ID</name><styleUrl>#city</styleUrl><description>near miss: Jupiter passes 6.3′ from the limb (UTC)</description><Point><coordinates>119.43194,-5.14861,0</coordinates></Point></Placemark>
<Placemark><name>Adelaide, AU</name><styleUrl>#city</styleUrl><description>D1 08:19:13 · D2 08:20:39 · R1 09:28:58 · R2 09:30:32 (UTC)</description><Point><coordinates>138.59863,-34.92866,0</coordinates></Point></Placemark>
<Placemark><name>Quanzhou, CN</name><styleUrl>#city</styleUrl><description>near miss: Jupiter passes 36.1′ from the limb (UTC)</description><Point><coordinates>118.58583,24.91389,0</coordinates></Point></Placemark>
<Placemark><name>Jinhua, CN</name><styleUrl>#city</styleUrl><description>near miss: Jupiter passes 40.0′ from the limb (UTC)</description><Point><coordinates>119.64421,29.10678,0</coordinates></Point></Placemark>
<Placemark><name>Kyoto, JP</name><styleUrl>#city</styleUrl><description>near miss: Jupiter passes 43.6′ from the limb (UTC)</description><Point><coordinates>135.75385,35.02107,0</coordinates></Point></Placemark>
<Placemark><name>Cixi, CN</name><styleUrl>#city</styleUrl><description>near miss: Jupiter passes 40.8′ from the limb (UTC)</description><Point><coordinates>121.2457,30.1764,0</coordinates></Point></Placemark>
<Placemark><name>Changde, CN</name><styleUrl>#city</styleUrl><description>near miss: Jupiter passes 41.8′ from the limb (UTC)</description><Point><coordinates>111.69844,29.03205,0</coordinates></Point></Placemark>
<Placemark><name>Kaifeng, CN</name><styleUrl>#city</styleUrl><description>near miss: Jupiter passes 46.8′ from the limb (UTC)</description><Point><coordinates>114.30742,34.7986,0</coordinates></Point></Placemark>
<Placemark><name>Anshan, CN</name><styleUrl>#city</styleUrl><description>near miss: Jupiter passes 51.3′ from the limb (UTC)</description><Point><coordinates>122.99,41.12361,0</coordinates></Point></Placemark>
<Placemark><name>Daejeon, KR</name><styleUrl>#city</styleUrl><description>near miss: Jupiter passes 46.0′ from the limb (UTC)</description><Point><coordinates>127.38493,36.34913,0</coordinates></Point></Placemark>
<Placemark><name>Baoji, CN</name><styleUrl>#city</styleUrl><description>near miss: Jupiter passes 48.1′ from the limb (UTC)</description><Point><coordinates>107.23705,34.36775,0</coordinates></Point></Placemark>
<Placemark><name>Suqian, CN</name><styleUrl>#city</styleUrl><description>near miss: Jupiter passes 45.1′ from the limb (UTC)</description><Point><coordinates>118.29583,33.94917,0</coordinates></Point></Placemark>
<Placemark><name>Liuzhou, CN</name><styleUrl>#city</styleUrl><description>near miss: Jupiter passes 37.8′ from the limb (UTC)</description><Point><coordinates>109.40698,24.32405,0</coordinates></Point></Placemark>
<Placemark><name>Zhangjiagang, CN</name><styleUrl>#city</styleUrl><description>near miss: Jupiter passes 42.6′ from the limb (UTC)</description><Point><coordinates>120.53889,31.865,0</coordinates></Point></Placemark>
<Placemark><name>Jinjiang, CN</name><styleUrl>#city</styleUrl><description>near miss: Jupiter passes 36.0′ from the limb (UTC)</description><Point><coordinates>118.57415,24.81978,0</coordinates></Point></Placemark>
<Placemark><name>Bozhou, CN</name><styleUrl>#city</styleUrl><description>near miss: Jupiter passes 45.6′ from the limb (UTC)</description><Point><coordinates>115.77028,33.87722,0</coordinates></Point></Placemark>
<Placemark><name>San Diego, US</name><styleUrl>#city</styleUrl><description>near miss: Jupiter passes 79.3′ from the limb (UTC)</description><Point><coordinates>-117.16472,32.71571,0</coordinates></Point></Placemark>
<Placemark><name>Gwangju, KR</name><styleUrl>#city</styleUrl><description>near miss: Jupiter passes 44.8′ from the limb (UTC)</description><Point><coordinates>126.91556,35.15472,0</coordinates></Point></Placemark>
<Placemark><name>Zhanjiang, CN</name><styleUrl>#city</styleUrl><description>near miss: Jupiter passes 34.5′ from the limb (UTC)</description><Point><coordinates>110.38749,21.23391,0</coordinates></Point></Placemark>
<Placemark><name>Fushun, CN</name><styleUrl>#city</styleUrl><description>near miss: Jupiter passes 51.9′ from the limb (UTC)</description><Point><coordinates>123.94363,41.88669,0</coordinates></Point></Placemark>
<Placemark><name>Luoyang, CN</name><styleUrl>#city</styleUrl><description>near miss: Jupiter passes 47.1′ from the limb (UTC)</description><Point><coordinates>112.43684,34.67345,0</coordinates></Point></Placemark>
<Placemark><name>Guadalajara, MX</name><styleUrl>#city</styleUrl><description>near miss: Jupiter passes 76.5′ from the limb (UTC)</description><Point><coordinates>-103.34749,20.67738,0</coordinates></Point></Placemark>
<Placemark><name>Guankou, CN</name><styleUrl>#city</styleUrl><description>near miss: Jupiter passes 40.5′ from the limb (UTC)</description><Point><coordinates>113.62709,28.15861,0</coordinates></Point></Placemark>
<Placemark><name>Handan, CN</name><styleUrl>#city</styleUrl><description>near miss: Jupiter passes 48.5′ from the limb (UTC)</description><Point><coordinates>114.48764,36.60999,0</coordinates></Point></Placemark>
<Placemark><name>Yichang, CN</name><styleUrl>#city</styleUrl><description>near miss: Jupiter passes 43.6′ from the limb (UTC)</description><Point><coordinates>111.28472,30.71444,0</coordinates></Point></Placemark>
<Placemark><name>Heze, CN</name><styleUrl>#city</styleUrl><description>near miss: Jupiter passes 47.0′ from the limb (UTC)</description><Point><coordinates>115.47358,35.23929,0</coordinates></Point></Placemark>
<Placemark><name>Dallas, US</name><styleUrl>#city</styleUrl><description>near miss: Jupiter passes 84.8′ from the limb (UTC)</description><Point><coordinates>-96.80667,32.78306,0</coordinates></Point></Placemark>
<Placemark><name>Saitama, JP</name><styleUrl>#city</styleUrl><description>near miss: Jupiter passes 44.3′ from the limb (UTC)</description><Point><coordinates>139.65657,35.90807,0</coordinates></Point></Placemark>
<Placemark><name>Taguig, PH</name><styleUrl>#city</styleUrl><description>near miss: Jupiter passes 25.0′ from the limb (UTC)</description><Point><coordinates>121.0792,14.5243,0</coordinates></Point></Placemark>
<Placemark><name>Maoming, CN</name><styleUrl>#city</styleUrl><description>near miss: Jupiter passes 34.8′ from the limb (UTC)</description><Point><coordinates>110.91364,21.66625,0</coordinates></Point></Placemark>
<Placemark><name>Calgary, CA</name><styleUrl>#city</styleUrl><description>near miss: Jupiter passes 87.3′ from the limb (UTC)</description><Point><coordinates>-114.08529,51.05011,0</coordinates></Point></Placemark>
<Placemark><name>Qinzhou, CN</name><styleUrl>#city</styleUrl><description>near miss: Jupiter passes 35.7′ from the limb (UTC)</description><Point><coordinates>108.65061,21.98247,0</coordinates></Point></Placemark>
<Placemark><name>Luohe, CN</name><styleUrl>#city</styleUrl><description>near miss: Jupiter passes 45.7′ from the limb (UTC)</description><Point><coordinates>114.03261,33.57424,0</coordinates></Point></Placemark>
<Placemark><name>Xiangyang, CN</name><styleUrl>#city</styleUrl><description>near miss: Jupiter passes 44.6′ from the limb (UTC)</description><Point><coordinates>112.14479,32.0422,0</coordinates></Point></Placemark>
<Placemark><name>Yangjiang, CN</name><styleUrl>#city</styleUrl><description>near miss: Jupiter passes 34.6′ from the limb (UTC)</description><Point><coordinates>111.96272,21.85563,0</coordinates></Point></Placemark>
<Placemark><name>Yixing, CN</name><styleUrl>#city</styleUrl><description>near miss: Jupiter passes 42.3′ from the limb (UTC)</description><Point><coordinates>119.82016,31.36059,0</coordinates></Point></Placemark>
</Folder></Document></kml>
