<?xml version="1.0" encoding="UTF-8"?>
<kml xmlns="http://www.opengis.net/kml/2.2"><Document><name>The Moon occults Jupiter — 2027-02-20</name>
<description>Graze limits and visibility from https://occult.alokm.com/jupiter-2027-02-20. Solid limits are traced against the real lunar limb (LRO LOLA); the dotted line is the mean-sphere limit. Times in the city placemarks are UTC, real limb.</description>
<Style id="exact"><LineStyle><color>ff06b6d9</color><width>4</width></LineStyle></Style>
<Style id="mean"><LineStyle><color>8006b6d9</color><width>2</width></LineStyle></Style>
<Style id="region"><LineStyle><color>80e6c07d</color><width>1</width></LineStyle><PolyStyle><color>3fe6c07d</color></PolyStyle></Style>
<Style id="night"><LineStyle><width>0</width></LineStyle><PolyStyle><color>3fed3ac4</color></PolyStyle></Style>
<Style id="city"><IconStyle><scale>0.8</scale></IconStyle></Style>
<Folder><name>Graze limits (real lunar limb)</name>
<Placemark><name>north limit — real limb</name><styleUrl>#exact</styleUrl><LineString><tessellate>1</tessellate><coordinates>-146.0,-27.4833,0 -145.0,-27.2264,0 -144.05,-26.9918,0 -144.0,-26.9798,0 -143.0,-26.743,0 -142.0,-26.5198,0 -141.0,-26.3102,0 -140.0,-26.1068,0 -139.42,-25.9936,0 -139.0,-25.9161,0 -138.0,-25.7364,0 -137.0,-25.5754,0 -136.0,-25.423,0 -135.0,-25.2828,0 -134.0,-25.159,0 -133.0,-25.0553,0 -132.23,-24.9827,0 -132.0,-24.9652,0 -131.0,-24.8954,0 -130.0,-24.832,0 -129.0,-24.8086,0 -128.0,-24.7911,0 -127.0,-24.7823,0 -126.0,-24.8156,0 -125.0,-24.848,0 -124.0,-24.9128,0 -123.18,-24.991,0 -123.0,-25.0083,0 -122.0,-25.1287,0 -121.0,-25.2669,0 -120.0,-25.4135,0 -119.0,-25.6046,0 -118.0,-25.8159,0 -117.29,-25.9857,0 -117.0,-26.0622,0 -116.0,-26.3361,0 -115.0,-26.6392,0 -114.0,-26.9735,0 -113.95,-26.991,0 -113.0,-27.3421,0 -112.0,-27.7358,0 -111.41,-27.9834,0 -111.0,-28.1643,0 -110.0,-28.6354,0 -109.3,-28.9808,0 -109.0,-29.1318,0 -108.0,-29.6703,0 -107.46,-29.9747,0 -107.0,-30.2453,0 -106.0,-30.8494,0 -105.8,-30.9741,0 -105.0,-31.4946,0 -104.29,-31.9775,0 -104.0,-32.1806,0 -103.0,-32.8928,0 -102.88,-32.982,0 -102.0,-33.6385,0 -101.55,-33.9854,0 -101.0,-34.4168,0 -100.29,-34.9865,0 -100.0,-35.2209,0 -99.09,-35.9809,0 -99.0,-36.0571,0 -98.0,-36.9182,0 -97.93,-36.9796,0 -97.0,-37.8069,0 -96.8,-37.9847,0 -96.0,-38.7029,0 -95.7,-38.9773,0 -95.0,-39.6259,0 -94.62,-39.9806,0 -94.0,-40.5629,0 -93.55,-40.9873,0 -93.0,-41.5089,0 -92.5,-41.9852,0 -92.0,-42.4632,0 -91.46,-42.9805,0 -91.0,-43.4219,0 -90.42,-43.9798,0 -90.0,-44.3833,0 -89.38,-44.9781,0 -89.0,-45.3429,0 -88.33,-45.9894,0 -88.0,-46.3085,0 -87.29,-46.989,0 -87.0,-47.2613,0 -86.23,-47.985,0 -86.0,-48.203,0 -85.17,-48.9821,0 -85.0,-49.141,0 -84.09,-49.9841,0 -84.0,-50.0668,0 -83.0,-50.9808,0 -83.0,-50.9808,0 -82.0,-51.8836,0 -81.88,-51.9903,0 -81.0,-52.7698,0 -80.75,-52.9896,0 -80.0,-53.6396,0 -79.6,-53.9789,0 -79.0,-54.4922,0 -78.41,-54.9897,0 -78.0,-55.3282,0 -77.2,-55.9802,0 -77.0,-56.1419,0 -76.0,-56.9408,0 -75.95,-56.9803,0 -75.0,-57.7225,0 -74.67,-57.9805,0 -74.0,-58.4922,0 -73.35,-58.9833,0 -73.0,-59.2404,0 -72.0,-59.9652,0 -71.98,-59.9798,0 -71.0,-60.679,0 -70.57,-60.9779,0 -70.0,-61.3714,0 -69.1,-61.9779,0 -69.0,-62.0458,0 -68.0,-62.7083,0 -67.57,-62.9847,0 -67.0,-63.3454,0 -66.0,-63.9638,0 -65.97,-63.9822,0 -65.0,-64.5634,0 -64.29,-64.9828,0 -64.0,-65.1505,0 -63.0,-65.7249,0 -62.53,-65.9868,0 -62.0,-66.2815,0 -61.0,-66.8229,0 -60.67,-66.9969,0 -60.0,-67.3439,0</coordinates></LineString></Placemark>
</Folder><Folder><name>Mean-sphere limits</name>
<Placemark><name>north limit — mean sphere</name><styleUrl>#mean</styleUrl><LineString><tessellate>1</tessellate><coordinates>-146.0,-27.49,0 -145.0,-27.24,0 -144.05,-27.0,0 -144.0,-26.99,0 -143.0,-26.75,0 -142.0,-26.53,0 -141.0,-26.31,0 -140.0,-26.11,0 -139.42,-26.0,0 -139.0,-25.92,0 -138.0,-25.74,0 -137.0,-25.58,0 -136.0,-25.43,0 -135.0,-25.3,0 -134.0,-25.17,0 -133.0,-25.07,0 -132.23,-25.0,0 -132.0,-24.98,0 -131.0,-24.91,0 -130.0,-24.85,0 -129.0,-24.82,0 -128.0,-24.8,0 -127.0,-24.8,0 -126.0,-24.82,0 -125.0,-24.86,0 -124.0,-24.93,0 -123.18,-25.0,0 -123.0,-25.02,0 -122.0,-25.13,0 -121.0,-25.27,0 -120.0,-25.43,0 -119.0,-25.61,0 -118.0,-25.83,0 -117.29,-26.0,0 -117.0,-26.07,0 -116.0,-26.35,0 -115.0,-26.65,0 -114.0,-26.98,0 -113.95,-27.0,0 -113.0,-27.35,0 -112.0,-27.75,0 -111.41,-28.0,0 -111.0,-28.18,0 -110.0,-28.65,0 -109.3,-29.0,0 -109.0,-29.15,0 -108.0,-29.69,0 -107.46,-30.0,0 -107.0,-30.26,0 -106.0,-30.87,0 -105.8,-31.0,0 -105.0,-31.52,0 -104.29,-32.0,0 -104.0,-32.2,0 -103.0,-32.91,0 -102.88,-33.0,0 -102.0,-33.66,0 -101.55,-34.0,0 -101.0,-34.43,0 -100.29,-35.0,0 -100.0,-35.24,0 -99.09,-36.0,0 -99.0,-36.07,0 -98.0,-36.93,0 -97.93,-37.0,0 -97.0,-37.82,0 -96.8,-38.0,0 -96.0,-38.72,0 -95.7,-39.0,0 -95.0,-39.64,0 -94.62,-40.0,0 -94.0,-40.58,0 -93.55,-41.0,0 -93.0,-41.53,0 -92.5,-42.0,0 -92.0,-42.48,0 -91.46,-43.0,0 -91.0,-43.44,0 -90.42,-44.0,0 -90.0,-44.4,0 -89.38,-45.0,0 -89.0,-45.36,0 -88.33,-46.0,0 -88.0,-46.32,0 -87.29,-47.0,0 -87.0,-47.28,0 -86.23,-48.0,0 -86.0,-48.22,0 -85.17,-49.0,0 -85.0,-49.16,0 -84.09,-50.0,0 -84.0,-50.08,0 -83.0,-51.0,0 -83.0,-51.0,0 -82.0,-51.9,0 -81.88,-52.0,0 -81.0,-52.78,0 -80.75,-53.0,0 -80.0,-53.66,0 -79.6,-54.0,0 -79.0,-54.51,0 -78.41,-55.0,0 -78.0,-55.35,0 -77.2,-56.0,0 -77.0,-56.16,0 -76.0,-56.96,0 -75.95,-57.0,0 -75.0,-57.75,0 -74.67,-58.0,0 -74.0,-58.52,0 -73.35,-59.0,0 -73.0,-59.26,0 -72.0,-59.99,0 -71.98,-60.0,0 -71.0,-60.7,0 -70.57,-61.0,0 -70.0,-61.4,0 -69.1,-62.0,0 -69.0,-62.07,0 -68.0,-62.73,0 -67.57,-63.0,0 -67.0,-63.36,0 -66.0,-63.98,0 -65.97,-64.0,0 -65.0,-64.59,0 -64.29,-65.0,0 -64.0,-65.17,0 -63.0,-65.74,0 -62.53,-66.0,0 -62.0,-66.3,0 -61.0,-66.83,0 -60.67,-67.0,0 -60.0,-67.35,0</coordinates></LineString></Placemark>
</Folder><Folder><name>Visibility</name>
<Placemark><name>sees the occultation</name><styleUrl>#region</styleUrl><Polygon><outerBoundaryIs><LinearRing><coordinates>-111.25,-74.0,0 -111.0,-74.0,0 -110.0,-74.0,0 -109.0,-74.01,0 -108.0,-74.01,0 -107.0,-74.01,0 -106.0,-74.01,0 -105.0,-74.01,0 -104.0,-74.01,0 -103.0,-74.01,0 -102.0,-74.01,0 -101.0,-74.01,0 -100.0,-74.01,0 -99.0,-74.01,0 -98.0,-74.01,0 -97.0,-74.01,0 -96.0,-74.01,0 -95.0,-74.01,0 -94.0,-74.01,0 -93.0,-74.01,0 -92.0,-74.01,0 -91.0,-74.01,0 -90.0,-74.01,0 -89.0,-74.01,0 -88.0,-74.01,0 -87.0,-74.01,0 -86.0,-74.01,0 -85.0,-74.01,0 -84.0,-74.01,0 -83.0,-74.01,0 -82.0,-74.01,0 -81.0,-74.01,0 -80.0,-74.01,0 -79.0,-74.01,0 -78.0,-74.01,0 -77.0,-74.01,0 -76.0,-74.01,0 -75.0,-74.01,0 -74.0,-74.0,0 -73.0,-74.0,0 -72.66,-74.0,0 -72.0,-73.81,0 -71.0,-73.51,0 -70.0,-73.35,0 -69.0,-73.26,0 -68.0,-73.2,0 -67.0,-73.16,0 -66.0,-73.11,0 -65.0,-73.04,0 -64.17,-73.0,0 -64.0,-72.93,0 -63.0,-72.47,0 -62.0,-72.34,0 -61.0,-72.21,0 -60.0,-72.07,0 -59.22,-72.0,0 -59.0,-71.86,0 -58.0,-71.32,0 -57.0,-71.18,0 -56.0,-71.05,0 -55.76,-71.0,0 -55.0,-70.11,0 -54.4,-70.0,0 -55.0,-69.73,0 -56.0,-69.28,0 -56.61,-69.0,0 -57.0,-68.82,0 -58.0,-68.35,0 -58.7,-68.0,0 -59.0,-67.86,0 -60.0,-67.35,0 -60.67,-67.0,0 -61.0,-66.83,0 -62.0,-66.3,0 -62.53,-66.0,0 -63.0,-65.74,0 -64.0,-65.17,0 -64.29,-65.0,0 -65.0,-64.59,0 -65.97,-64.0,0 -66.0,-63.98,0 -67.0,-63.36,0 -67.57,-63.0,0 -68.0,-62.73,0 -69.0,-62.07,0 -69.1,-62.0,0 -70.0,-61.4,0 -70.57,-61.0,0 -71.0,-60.7,0 -71.98,-60.0,0 -72.0,-59.99,0 -73.0,-59.26,0 -73.35,-59.0,0 -74.0,-58.52,0 -74.67,-58.0,0 -75.0,-57.75,0 -75.95,-57.0,0 -76.0,-56.96,0 -77.0,-56.16,0 -77.2,-56.0,0 -78.0,-55.35,0 -78.41,-55.0,0 -79.0,-54.51,0 -79.6,-54.0,0 -80.0,-53.66,0 -80.75,-53.0,0 -81.0,-52.78,0 -81.88,-52.0,0 -82.0,-51.9,0 -83.0,-51.0,0 -83.0,-51.0,0 -84.0,-50.08,0 -84.09,-50.0,0 -85.0,-49.16,0 -85.17,-49.0,0 -86.0,-48.22,0 -86.23,-48.0,0 -87.0,-47.28,0 -87.29,-47.0,0 -88.0,-46.32,0 -88.33,-46.0,0 -89.0,-45.36,0 -89.38,-45.0,0 -90.0,-44.4,0 -90.42,-44.0,0 -91.0,-43.44,0 -91.46,-43.0,0 -92.0,-42.48,0 -92.5,-42.0,0 -93.0,-41.53,0 -93.55,-41.0,0 -94.0,-40.58,0 -94.62,-40.0,0 -95.0,-39.64,0 -95.7,-39.0,0 -96.0,-38.72,0 -96.8,-38.0,0 -97.0,-37.82,0 -97.93,-37.0,0 -98.0,-36.93,0 -99.0,-36.07,0 -99.09,-36.0,0 -100.0,-35.24,0 -100.29,-35.0,0 -101.0,-34.43,0 -101.55,-34.0,0 -102.0,-33.66,0 -102.88,-33.0,0 -103.0,-32.91,0 -104.0,-32.2,0 -104.29,-32.0,0 -105.0,-31.52,0 -105.8,-31.0,0 -106.0,-30.87,0 -107.0,-30.26,0 -107.46,-30.0,0 -108.0,-29.69,0 -109.0,-29.15,0 -109.3,-29.0,0 -110.0,-28.65,0 -111.0,-28.18,0 -111.41,-28.0,0 -112.0,-27.75,0 -113.0,-27.35,0 -113.95,-27.0,0 -114.0,-26.98,0 -115.0,-26.65,0 -116.0,-26.35,0 -117.0,-26.07,0 -117.29,-26.0,0 -118.0,-25.83,0 -119.0,-25.61,0 -120.0,-25.43,0 -121.0,-25.27,0 -122.0,-25.13,0 -123.0,-25.02,0 -123.18,-25.0,0 -124.0,-24.93,0 -125.0,-24.86,0 -126.0,-24.82,0 -127.0,-24.8,0 -128.0,-24.8,0 -129.0,-24.82,0 -130.0,-24.85,0 -131.0,-24.91,0 -132.0,-24.98,0 -132.23,-25.0,0 -133.0,-25.07,0 -134.0,-25.17,0 -135.0,-25.3,0 -136.0,-25.43,0 -137.0,-25.58,0 -138.0,-25.74,0 -139.0,-25.92,0 -139.42,-26.0,0 -140.0,-26.11,0 -141.0,-26.31,0 -142.0,-26.53,0 -143.0,-26.75,0 -144.0,-26.99,0 -144.05,-27.0,0 -145.0,-27.24,0 -146.0,-27.49,0 -147.0,-27.76,0 -147.84,-28.0,0 -148.0,-28.05,0 -149.0,-28.66,0 -149.46,-29.0,0 -150.0,-29.89,0 -150.04,-30.0,0 -150.56,-31.0,0 -151.0,-31.75,0 -151.11,-32.0,0 -151.26,-33.0,0 -151.56,-34.0,0 -151.99,-35.0,0 -151.89,-36.0,0 -151.86,-37.0,0 -152.0,-37.37,0 -152.41,-38.0,0 -152.23,-39.0,0 -152.45,-40.0,0 -152.62,-41.0,0 -152.39,-42.0,0 -152.52,-43.0,0 -152.38,-44.0,0 -152.44,-45.0,0 -152.16,-46.0,0 -152.0,-46.53,0 -151.92,-47.0,0 -152.0,-47.25,0 -152.22,-48.0,0 -152.05,-49.0,0 -152.0,-49.29,0 -151.78,-50.0,0 -151.45,-51.0,0 -151.12,-52.0,0 -151.0,-52.36,0 -150.79,-53.0,0 -150.44,-54.0,0 -150.09,-55.0,0 -150.0,-55.26,0 -149.73,-56.0,0 -149.2,-57.0,0 -149.0,-57.3,0 -148.54,-58.0,0 -148.0,-58.81,0 -147.88,-59.0,0 -147.38,-60.0,0 -147.0,-60.31,0 -146.53,-61.0,0 -146.0,-61.79,0 -145.73,-62.0,0 -145.0,-62.58,0 -144.46,-63.0,0 -144.0,-63.36,0 -143.18,-64.0,0 -143.0,-64.14,0 -142.0,-64.94,0 -141.94,-65.0,0 -141.0,-65.8,0 -140.57,-66.0,0 -140.0,-66.26,0 -139.13,-67.0,0 -139.0,-67.08,0 -138.0,-67.55,0 -137.02,-68.0,0 -137.0,-68.01,0 -136.0,-68.45,0 -135.0,-68.93,0 -134.77,-69.0,0 -134.0,-69.24,0 -133.0,-69.65,0 -132.27,-70.0,0 -132.0,-70.12,0 -131.0,-70.37,0 -130.0,-70.61,0 -129.0,-70.86,0 -128.7,-71.0,0 -128.0,-71.26,0 -127.0,-71.46,0 -126.0,-71.66,0 -125.0,-71.86,0 -124.65,-72.0,0 -124.0,-72.17,0 -123.0,-72.32,0 -122.0,-72.46,0 -121.0,-72.7,0 -120.0,-72.88,0 -119.29,-73.0,0 -119.0,-73.03,0 -118.0,-73.14,0 -117.0,-73.25,0 -116.0,-73.41,0 -115.0,-73.5,0 -114.0,-73.6,0 -113.0,-73.69,0 -112.0,-73.8,0 -111.25,-74.0,0</coordinates></LinearRing></outerBoundaryIs></Polygon></Placemark>
<Placemark><name>after sunset</name><styleUrl>#night</styleUrl><Polygon><outerBoundaryIs><LinearRing><coordinates>-83.41,-73.0,0 -83.0,-73.0,0 -82.0,-73.01,0 -81.0,-73.01,0 -80.0,-73.0,0 -79.78,-73.0,0 -79.0,-72.84,0 -78.0,-72.7,0 -77.0,-72.57,0 -76.0,-72.46,0 -75.0,-72.38,0 -74.0,-72.3,0 -73.0,-72.25,0 -72.0,-72.18,0 -71.0,-72.15,0 -70.0,-72.12,0 -69.0,-72.1,0 -68.0,-72.09,0 -67.0,-72.07,0 -66.0,-72.07,0 -65.0,-72.07,0 -64.25,-72.0,0 -64.0,-71.71,0 -63.0,-71.21,0 -62.0,-71.11,0 -61.0,-71.09,0 -60.0,-71.1,0 -59.0,-71.08,0 -58.0,-71.09,0 -57.0,-71.06,0 -56.0,-71.02,0 -55.83,-71.0,0 -55.0,-70.11,0 -54.4,-70.0,0 -55.0,-69.73,0 -56.0,-69.28,0 -56.61,-69.0,0 -57.0,-68.82,0 -58.0,-68.35,0 -58.7,-68.0,0 -59.0,-67.86,0 -60.0,-67.35,0 -60.67,-67.0,0 -61.0,-66.83,0 -62.0,-66.3,0 -62.53,-66.0,0 -63.0,-65.74,0 -64.0,-65.17,0 -64.29,-65.0,0 -65.0,-64.59,0 -65.97,-64.0,0 -66.0,-63.98,0 -67.0,-63.36,0 -67.57,-63.0,0 -68.0,-62.73,0 -69.0,-62.07,0 -69.1,-62.0,0 -70.0,-61.4,0 -70.57,-61.0,0 -71.0,-60.7,0 -71.98,-60.0,0 -72.0,-59.99,0 -73.0,-59.26,0 -73.35,-59.0,0 -74.0,-58.52,0 -74.67,-58.0,0 -75.0,-57.75,0 -75.95,-57.0,0 -76.0,-56.96,0 -77.0,-56.16,0 -77.2,-56.0,0 -78.0,-55.35,0 -78.41,-55.0,0 -79.0,-54.51,0 -79.6,-54.0,0 -80.0,-53.66,0 -80.75,-53.0,0 -81.0,-52.78,0 -81.88,-52.0,0 -82.0,-51.9,0 -83.0,-51.0,0 -83.0,-51.0,0 -84.0,-50.08,0 -84.09,-50.0,0 -85.0,-49.16,0 -85.17,-49.0,0 -86.0,-48.22,0 -86.23,-48.0,0 -87.0,-47.28,0 -87.29,-47.0,0 -88.0,-46.32,0 -88.33,-46.0,0 -89.0,-45.36,0 -89.38,-45.0,0 -90.0,-44.4,0 -90.42,-44.0,0 -91.0,-43.44,0 -91.46,-43.0,0 -92.0,-42.48,0 -92.5,-42.0,0 -93.0,-41.53,0 -93.55,-41.0,0 -94.0,-40.58,0 -94.62,-40.0,0 -95.0,-39.64,0 -95.7,-39.0,0 -96.0,-38.72,0 -96.8,-38.0,0 -97.0,-37.82,0 -97.93,-37.0,0 -98.0,-36.93,0 -99.0,-36.07,0 -99.09,-36.0,0 -100.0,-35.24,0 -100.29,-35.0,0 -101.0,-34.43,0 -101.55,-34.0,0 -102.0,-33.66,0 -102.88,-33.0,0 -103.0,-32.91,0 -104.0,-32.2,0 -104.29,-32.0,0 -105.0,-31.52,0 -105.8,-31.0,0 -106.0,-30.87,0 -107.0,-30.26,0 -107.46,-30.0,0 -108.0,-29.69,0 -109.0,-29.15,0 -109.3,-29.0,0 -110.0,-28.65,0 -111.0,-28.18,0 -111.41,-28.0,0 -112.0,-27.75,0 -113.0,-27.35,0 -113.95,-27.0,0 -114.0,-26.98,0 -115.0,-26.65,0 -116.0,-26.35,0 -117.0,-26.07,0 -117.29,-26.0,0 -118.0,-25.83,0 -119.0,-25.61,0 -120.0,-25.43,0 -121.0,-25.27,0 -122.0,-25.13,0 -123.0,-25.02,0 -123.18,-25.0,0 -124.0,-24.93,0 -125.0,-24.86,0 -126.0,-24.82,0 -127.0,-24.8,0 -128.0,-24.8,0 -129.0,-24.82,0 -130.0,-24.85,0 -131.0,-24.91,0 -132.0,-24.98,0 -132.23,-25.0,0 -133.0,-25.07,0 -134.0,-25.17,0 -135.0,-25.3,0 -135.01,-26.0,0 -135.05,-27.0,0 -135.04,-28.0,0 -135.13,-29.0,0 -135.08,-30.0,0 -135.24,-31.0,0 -135.12,-32.0,0 -135.33,-33.0,0 -135.16,-34.0,0 -135.36,-35.0,0 -135.18,-36.0,0 -135.34,-37.0,0 -135.18,-38.0,0 -135.3,-39.0,0 -135.14,-40.0,0 -135.25,-41.0,0 -135.0,-41.69,0 -134.7,-42.0,0 -135.0,-42.38,0 -135.14,-43.0,0 -135.0,-43.27,0 -134.37,-44.0,0 -134.54,-45.0,0 -134.86,-46.0,0 -134.29,-47.0,0 -134.34,-48.0,0 -134.0,-48.56,0 -133.57,-49.0,0 -133.63,-50.0,0 -133.26,-51.0,0 -133.03,-52.0,0 -133.0,-52.38,0 -132.87,-53.0,0 -132.07,-54.0,0 -132.0,-54.36,0 -131.76,-55.0,0 -131.26,-56.0,0 -131.0,-56.49,0 -130.49,-57.0,0 -130.18,-58.0,0 -130.0,-58.15,0 -129.3,-59.0,0 -129.0,-59.44,0 -128.39,-60.0,0 -128.0,-60.58,0 -127.63,-61.0,0 -127.0,-61.38,0 -126.38,-62.0,0 -126.0,-62.41,0 -125.21,-63.0,0 -125.0,-63.19,0 -124.09,-64.0,0 -124.0,-64.04,0 -123.0,-64.72,0 -122.72,-65.0,0 -122.0,-65.29,0 -121.0,-65.54,0 -120.53,-66.0,0 -120.0,-66.32,0 -119.0,-66.61,0 -118.57,-67.0,0 -118.0,-67.27,0 -117.0,-67.52,0 -116.31,-68.0,0 -116.0,-68.1,0 -115.0,-68.35,0 -114.0,-68.64,0 -113.54,-69.0,0 -113.0,-69.14,0 -112.0,-69.25,0 -111.0,-69.48,0 -110.05,-70.0,0 -110.0,-70.01,0 -109.0,-70.19,0 -108.0,-70.23,0 -107.0,-70.4,0 -106.0,-70.65,0 -105.45,-71.0,0 -105.0,-71.07,0 -104.0,-71.17,0 -103.0,-71.2,0 -102.0,-71.29,0 -101.0,-71.37,0 -100.0,-71.52,0 -99.0,-71.85,0 -98.77,-72.0,0 -98.0,-72.08,0 -97.0,-72.15,0 -96.0,-72.17,0 -95.0,-72.18,0 -94.0,-72.2,0 -93.0,-72.22,0 -92.0,-72.25,0 -91.0,-72.31,0 -90.0,-72.35,0 -89.0,-72.4,0 -88.0,-72.47,0 -87.0,-72.54,0 -86.0,-72.63,0 -85.0,-72.83,0 -84.0,-72.94,0 -83.41,-73.0,0</coordinates></LinearRing></outerBoundaryIs></Polygon></Placemark>
</Folder><Folder><name>Cities</name>
<Placemark><name>São Paulo, BR</name><styleUrl>#city</styleUrl><description>near miss: Jupiter passes 37.8′ from the limb (UTC)</description><Point><coordinates>-46.63611,-23.5475,0</coordinates></Point></Placemark>
<Placemark><name>Mexico City, MX</name><styleUrl>#city</styleUrl><description>near miss: Jupiter passes 42.8′ from the limb (UTC)</description><Point><coordinates>-99.12766,19.42847,0</coordinates></Point></Placemark>
<Placemark><name>London, GB</name><styleUrl>#city</styleUrl><description>near miss: Jupiter passes 105.3′ from the limb (UTC)</description><Point><coordinates>-0.12574,51.50853,0</coordinates></Point></Placemark>
<Placemark><name>New York City, US</name><styleUrl>#city</styleUrl><description>near miss: Jupiter passes 73.0′ from the limb (UTC)</description><Point><coordinates>-74.00597,40.71427,0</coordinates></Point></Placemark>
<Placemark><name>Lima, PE</name><styleUrl>#city</styleUrl><description>near miss: Jupiter passes 27.6′ from the limb (UTC)</description><Point><coordinates>-77.02824,-12.04318,0</coordinates></Point></Placemark>
<Placemark><name>Bogotá, CO</name><styleUrl>#city</styleUrl><description>near miss: Jupiter passes 42.6′ from the limb (UTC)</description><Point><coordinates>-74.08175,4.60971,0</coordinates></Point></Placemark>
<Placemark><name>Rio de Janeiro, BR</name><styleUrl>#city</styleUrl><description>near miss: Jupiter passes 40.1′ from the limb (UTC)</description><Point><coordinates>-43.18223,-22.90642,0</coordinates></Point></Placemark>
<Placemark><name>Saint Petersburg, RU</name><styleUrl>#city</styleUrl><description>near miss: Jupiter passes 109.0′ from the limb (UTC)</description><Point><coordinates>30.31413,59.93863,0</coordinates></Point></Placemark>
<Placemark><name>Santiago, CL</name><styleUrl>#city</styleUrl><description>near miss: Jupiter passes 16.3′ from the limb (UTC)</description><Point><coordinates>-70.64827,-33.45694,0</coordinates></Point></Placemark>
<Placemark><name>Bamako, ML</name><styleUrl>#city</styleUrl><description>near miss: Jupiter passes 84.4′ from the limb (UTC)</description><Point><coordinates>-7.97522,12.60915,0</coordinates></Point></Placemark>
<Placemark><name>Los Angeles, US</name><styleUrl>#city</styleUrl><description>near miss: Jupiter passes 55.2′ from the limb (UTC)</description><Point><coordinates>-118.24368,34.05223,0</coordinates></Point></Placemark>
<Placemark><name>Casablanca, MA</name><styleUrl>#city</styleUrl><description>near miss: Jupiter passes 97.6′ from the limb (UTC)</description><Point><coordinates>-7.61138,33.58831,0</coordinates></Point></Placemark>
<Placemark><name>Berlin, DE</name><styleUrl>#city</styleUrl><description>near miss: Jupiter passes 107.2′ from the limb (UTC)</description><Point><coordinates>13.41053,52.52437,0</coordinates></Point></Placemark>
<Placemark><name>Madrid, ES</name><styleUrl>#city</styleUrl><description>near miss: Jupiter passes 101.4′ from the limb (UTC)</description><Point><coordinates>-3.70256,40.4165,0</coordinates></Point></Placemark>
<Placemark><name>Caracas, VE</name><styleUrl>#city</styleUrl><description>near miss: Jupiter passes 52.4′ from the limb (UTC)</description><Point><coordinates>-66.87919,10.48801,0</coordinates></Point></Placemark>
<Placemark><name>Buenos Aires, AR</name><styleUrl>#city</styleUrl><description>near miss: Jupiter passes 22.1′ from the limb (UTC)</description><Point><coordinates>-58.37723,-34.61315,0</coordinates></Point></Placemark>
<Placemark><name>Toronto, CA</name><styleUrl>#city</styleUrl><description>near miss: Jupiter passes 73.3′ from the limb (UTC)</description><Point><coordinates>-79.39864,43.70643,0</coordinates></Point></Placemark>
<Placemark><name>Quito, EC</name><styleUrl>#city</styleUrl><description>near miss: Jupiter passes 35.7′ from the limb (UTC)</description><Point><coordinates>-78.52495,-0.22985,0</coordinates></Point></Placemark>
<Placemark><name>Brooklyn, US</name><styleUrl>#city</styleUrl><description>near miss: Jupiter passes 72.9′ from the limb (UTC)</description><Point><coordinates>-73.94958,40.6501,0</coordinates></Point></Placemark>
<Placemark><name>Guayaquil, EC</name><styleUrl>#city</styleUrl><description>near miss: Jupiter passes 33.2′ from the limb (UTC)</description><Point><coordinates>-79.88621,-2.19616,0</coordinates></Point></Placemark>
<Placemark><name>Belo Horizonte, BR</name><styleUrl>#city</styleUrl><description>near miss: Jupiter passes 42.5′ from the limb (UTC)</description><Point><coordinates>-43.93778,-19.92083,0</coordinates></Point></Placemark>
<Placemark><name>Salvador, BR</name><styleUrl>#city</styleUrl><description>near miss: Jupiter passes 51.5′ from the limb (UTC)</description><Point><coordinates>-38.49096,-12.97563,0</coordinates></Point></Placemark>
<Placemark><name>Chicago, US</name><styleUrl>#city</styleUrl><description>near miss: Jupiter passes 68.7′ from the limb (UTC)</description><Point><coordinates>-87.65005,41.85003,0</coordinates></Point></Placemark>
<Placemark><name>Dakar, SN</name><styleUrl>#city</styleUrl><description>near miss: Jupiter passes 83.4′ from the limb (UTC)</description><Point><coordinates>-17.44406,14.6937,0</coordinates></Point></Placemark>
<Placemark><name>Fortaleza, BR</name><styleUrl>#city</styleUrl><description>near miss: Jupiter passes 59.7′ from the limb (UTC)</description><Point><coordinates>-38.54306,-3.71722,0</coordinates></Point></Placemark>
<Placemark><name>Cali, CO</name><styleUrl>#city</styleUrl><description>near miss: Jupiter passes 40.0′ from the limb (UTC)</description><Point><coordinates>-76.5199,3.43054,0</coordinates></Point></Placemark>
<Placemark><name>Algiers, DZ</name><styleUrl>#city</styleUrl><description>near miss: Jupiter passes 101.1′ from the limb (UTC)</description><Point><coordinates>3.08746,36.73225,0</coordinates></Point></Placemark>
<Placemark><name>Rome, IT</name><styleUrl>#city</styleUrl><description>near miss: Jupiter passes 104.4′ from the limb (UTC)</description><Point><coordinates>12.51133,41.89193,0</coordinates></Point></Placemark>
<Placemark><name>Queens, US</name><styleUrl>#city</styleUrl><description>near miss: Jupiter passes 73.0′ from the limb (UTC)</description><Point><coordinates>-73.83652,40.68149,0</coordinates></Point></Placemark>
<Placemark><name>Houston, US</name><styleUrl>#city</styleUrl><description>near miss: Jupiter passes 54.4′ from the limb (UTC)</description><Point><coordinates>-95.36327,29.76328,0</coordinates></Point></Placemark>
<Placemark><name>Manaus, BR</name><styleUrl>#city</styleUrl><description>near miss: Jupiter passes 46.7′ from the limb (UTC)</description><Point><coordinates>-60.025,-3.10194,0</coordinates></Point></Placemark>
<Placemark><name>Brasília, BR</name><styleUrl>#city</styleUrl><description>near miss: Jupiter passes 44.0′ from the limb (UTC)</description><Point><coordinates>-47.92972,-15.77972,0</coordinates></Point></Placemark>
<Placemark><name>Santo Domingo, DO</name><styleUrl>#city</styleUrl><description>near miss: Jupiter passes 56.8′ from the limb (UTC)</description><Point><coordinates>-69.89232,18.47186,0</coordinates></Point></Placemark>
<Placemark><name>Havana, CU</name><styleUrl>#city</styleUrl><description>near miss: Jupiter passes 53.4′ from the limb (UTC)</description><Point><coordinates>-82.38304,23.13302,0</coordinates></Point></Placemark>
<Placemark><name>Paris, FR</name><styleUrl>#city</styleUrl><description>near miss: Jupiter passes 105.1′ from the limb (UTC)</description><Point><coordinates>2.3488,48.85341,0</coordinates></Point></Placemark>
<Placemark><name>Córdoba, AR</name><styleUrl>#city</styleUrl><description>near miss: Jupiter passes 21.5′ from the limb (UTC)</description><Point><coordinates>-64.18853,-31.40648,0</coordinates></Point></Placemark>
<Placemark><name>La Paz, BO</name><styleUrl>#city</styleUrl><description>near miss: Jupiter passes 30.4′ from the limb (UTC)</description><Point><coordinates>-68.15,-16.5,0</coordinates></Point></Placemark>
<Placemark><name>Medellín, CO</name><styleUrl>#city</styleUrl><description>near miss: Jupiter passes 42.9′ from the limb (UTC)</description><Point><coordinates>-75.57151,6.245,0</coordinates></Point></Placemark>
<Placemark><name>Hamburg, DE</name><styleUrl>#city</styleUrl><description>near miss: Jupiter passes 107.0′ from the limb (UTC)</description><Point><coordinates>9.99302,53.55073,0</coordinates></Point></Placemark>
<Placemark><name>Curitiba, BR</name><styleUrl>#city</styleUrl><description>near miss: Jupiter passes 34.7′ from the limb (UTC)</description><Point><coordinates>-49.27306,-25.42778,0</coordinates></Point></Placemark>
<Placemark><name>Conakry, GN</name><styleUrl>#city</styleUrl><description>near miss: Jupiter passes 80.6′ from the limb (UTC)</description><Point><coordinates>-13.67729,9.53795,0</coordinates></Point></Placemark>
<Placemark><name>Tijuana, MX</name><styleUrl>#city</styleUrl><description>near miss: Jupiter passes 53.6′ from the limb (UTC)</description><Point><coordinates>-117.00371,32.5027,0</coordinates></Point></Placemark>
<Placemark><name>Camayenne, GN</name><styleUrl>#city</styleUrl><description>near miss: Jupiter passes 80.6′ from the limb (UTC)</description><Point><coordinates>-13.68778,9.535,0</coordinates></Point></Placemark>
<Placemark><name>Iztapalapa, MX</name><styleUrl>#city</styleUrl><description>near miss: Jupiter passes 42.8′ from the limb (UTC)</description><Point><coordinates>-99.06224,19.35529,0</coordinates></Point></Placemark>
<Placemark><name>Santa Cruz de la Sierra, BO</name><styleUrl>#city</styleUrl><description>near miss: Jupiter passes 32.8′ from the limb (UTC)</description><Point><coordinates>-63.18117,-17.78629,0</coordinates></Point></Placemark>
<Placemark><name>Montréal, CA</name><styleUrl>#city</styleUrl><description>near miss: Jupiter passes 77.0′ from the limb (UTC)</description><Point><coordinates>-73.58781,45.50884,0</coordinates></Point></Placemark>
<Placemark><name>Maracaibo, VE</name><styleUrl>#city</styleUrl><description>near miss: Jupiter passes 49.2′ from the limb (UTC)</description><Point><coordinates>-71.61089,10.64232,0</coordinates></Point></Placemark>
<Placemark><name>Warsaw, PL</name><styleUrl>#city</styleUrl><description>near miss: Jupiter passes 107.8′ from the limb (UTC)</description><Point><coordinates>21.01178,52.22977,0</coordinates></Point></Placemark>
<Placemark><name>Puebla, MX</name><styleUrl>#city</styleUrl><description>near miss: Jupiter passes 42.7′ from the limb (UTC)</description><Point><coordinates>-98.20723,19.04778,0</coordinates></Point></Placemark>
<Placemark><name>Vienna, AT</name><styleUrl>#city</styleUrl><description>near miss: Jupiter passes 106.6′ from the limb (UTC)</description><Point><coordinates>16.37208,48.20849,0</coordinates></Point></Placemark>
<Placemark><name>Barcelona, ES</name><styleUrl>#city</styleUrl><description>near miss: Jupiter passes 102.8′ from the limb (UTC)</description><Point><coordinates>2.15899,41.38879,0</coordinates></Point></Placemark>
<Placemark><name>Rabat, MA</name><styleUrl>#city</styleUrl><description>near miss: Jupiter passes 98.0′ from the limb (UTC)</description><Point><coordinates>-6.83255,34.01325,0</coordinates></Point></Placemark>
<Placemark><name>Recife, BR</name><styleUrl>#city</styleUrl><description>near miss: Jupiter passes 57.7′ from the limb (UTC)</description><Point><coordinates>-34.88111,-8.05389,0</coordinates></Point></Placemark>
<Placemark><name>Phoenix, US</name><styleUrl>#city</styleUrl><description>near miss: Jupiter passes 54.9′ from the limb (UTC)</description><Point><coordinates>-112.07404,33.44838,0</coordinates></Point></Placemark>
<Placemark><name>Ecatepec de Morelos, MX</name><styleUrl>#city</styleUrl><description>near miss: Jupiter passes 43.0′ from the limb (UTC)</description><Point><coordinates>-99.06064,19.60492,0</coordinates></Point></Placemark>
<Placemark><name>Valencia, VE</name><styleUrl>#city</styleUrl><description>near miss: Jupiter passes 51.4′ from the limb (UTC)</description><Point><coordinates>-68.00044,10.16153,0</coordinates></Point></Placemark>
<Placemark><name>Santiago de Querétaro, MX</name><styleUrl>#city</styleUrl><description>near miss: Jupiter passes 43.6′ from the limb (UTC)</description><Point><coordinates>-100.38806,20.58806,0</coordinates></Point></Placemark>
<Placemark><name>León de los Aldama, MX</name><styleUrl>#city</styleUrl><description>near miss: Jupiter passes 43.8′ from the limb (UTC)</description><Point><coordinates>-101.68253,21.12183,0</coordinates></Point></Placemark>
<Placemark><name>Philadelphia, US</name><styleUrl>#city</styleUrl><description>near miss: Jupiter passes 71.8′ from the limb (UTC)</description><Point><coordinates>-75.16362,39.95238,0</coordinates></Point></Placemark>
<Placemark><name>Monrovia, LR</name><styleUrl>#city</styleUrl><description>near miss: Jupiter passes 78.8′ from the limb (UTC)</description><Point><coordinates>-10.7969,6.30054,0</coordinates></Point></Placemark>
<Placemark><name>Goiânia, BR</name><styleUrl>#city</styleUrl><description>near miss: Jupiter passes 42.4′ from the limb (UTC)</description><Point><coordinates>-49.25389,-16.67861,0</coordinates></Point></Placemark>
<Placemark><name>San Antonio, US</name><styleUrl>#city</styleUrl><description>near miss: Jupiter passes 53.2′ from the limb (UTC)</description><Point><coordinates>-98.49363,29.42412,0</coordinates></Point></Placemark>
<Placemark><name>Stockholm, SE</name><styleUrl>#city</styleUrl><description>near miss: Jupiter passes 108.4′ from the limb (UTC)</description><Point><coordinates>18.06871,59.32938,0</coordinates></Point></Placemark>
<Placemark><name>Ciudad Juárez, MX</name><styleUrl>#city</styleUrl><description>near miss: Jupiter passes 53.8′ from the limb (UTC)</description><Point><coordinates>-106.46084,31.72024,0</coordinates></Point></Placemark>
<Placemark><name>Munich, DE</name><styleUrl>#city</styleUrl><description>near miss: Jupiter passes 106.1′ from the limb (UTC)</description><Point><coordinates>11.57549,48.13743,0</coordinates></Point></Placemark>
<Placemark><name>Belém, BR</name><styleUrl>#city</styleUrl><description>near miss: Jupiter passes 55.8′ from the limb (UTC)</description><Point><coordinates>-48.50444,-1.45583,0</coordinates></Point></Placemark>
<Placemark><name>Porto Alegre, BR</name><styleUrl>#city</styleUrl><description>near miss: Jupiter passes 29.7′ from the limb (UTC)</description><Point><coordinates>-51.23019,-30.03283,0</coordinates></Point></Placemark>
<Placemark><name>Manhattan, US</name><styleUrl>#city</styleUrl><description>near miss: Jupiter passes 73.0′ from the limb (UTC)</description><Point><coordinates>-73.96625,40.78343,0</coordinates></Point></Placemark>
<Placemark><name>Asunción, PY</name><styleUrl>#city</styleUrl><description>near miss: Jupiter passes 30.1′ from the limb (UTC)</description><Point><coordinates>-57.647,-25.28646,0</coordinates></Point></Placemark>
<Placemark><name>Zapopan, MX</name><styleUrl>#city</styleUrl><description>near miss: Jupiter passes 43.0′ from the limb (UTC)</description><Point><coordinates>-103.38742,20.72111,0</coordinates></Point></Placemark>
<Placemark><name>San Diego, US</name><styleUrl>#city</styleUrl><description>near miss: Jupiter passes 53.8′ from the limb (UTC)</description><Point><coordinates>-117.16472,32.71571,0</coordinates></Point></Placemark>
<Placemark><name>Guadalajara, MX</name><styleUrl>#city</styleUrl><description>near miss: Jupiter passes 42.9′ from the limb (UTC)</description><Point><coordinates>-103.34749,20.67738,0</coordinates></Point></Placemark>
<Placemark><name>The Bronx, US</name><styleUrl>#city</styleUrl><description>near miss: Jupiter passes 73.1′ from the limb (UTC)</description><Point><coordinates>-73.86641,40.84985,0</coordinates></Point></Placemark>
<Placemark><name>Milan, IT</name><styleUrl>#city</styleUrl><description>near miss: Jupiter passes 105.2′ from the limb (UTC)</description><Point><coordinates>9.18951,45.46427,0</coordinates></Point></Placemark>
<Placemark><name>Dallas, US</name><styleUrl>#city</styleUrl><description>near miss: Jupiter passes 57.0′ from the limb (UTC)</description><Point><coordinates>-96.80667,32.78306,0</coordinates></Point></Placemark>
<Placemark><name>Calgary, CA</name><styleUrl>#city</styleUrl><description>near miss: Jupiter passes 72.8′ from the limb (UTC)</description><Point><coordinates>-114.08529,51.05011,0</coordinates></Point></Placemark>
</Folder></Document></kml>
