<?xml version="1.0" encoding="UTF-8"?>
<kml xmlns="http://www.opengis.net/kml/2.2"><Document><name>The Moon occults Jupiter — 2026-11-30</name>
<description>Graze limits and visibility from https://occult.alokm.com/jupiter-2026-11-30. Solid limits are traced against the real lunar limb (LRO LOLA); the dotted line is the mean-sphere limit. Times in the city placemarks are UTC, real limb.</description>
<Style id="exact"><LineStyle><color>ff06b6d9</color><width>4</width></LineStyle></Style>
<Style id="mean"><LineStyle><color>8006b6d9</color><width>2</width></LineStyle></Style>
<Style id="region"><LineStyle><color>80e6c07d</color><width>1</width></LineStyle><PolyStyle><color>3fe6c07d</color></PolyStyle></Style>
<Style id="night"><LineStyle><width>0</width></LineStyle><PolyStyle><color>3fed3ac4</color></PolyStyle></Style>
<Style id="city"><IconStyle><scale>0.8</scale></IconStyle></Style>
<Folder><name>Graze limits (real lunar limb)</name>
<Placemark><name>north limit — real limb</name><styleUrl>#exact</styleUrl><LineString><tessellate>1</tessellate><coordinates>-112.0,-26.6722,0 -111.0,-26.4616,0 -110.0,-26.2624,0 -109.0,-26.0769,0 -108.54,-25.9943,0 -108.0,-25.8992,0 -107.0,-25.7316,0 -106.0,-25.5765,0 -105.0,-25.4388,0 -104.0,-25.3074,0 -103.0,-25.192,0 -102.0,-25.0888,0 -101.0,-25.0071,0 -100.64,-24.9801,0 -100.0,-24.9436,0 -99.0,-24.889,0 -98.0,-24.8475,0 -97.0,-24.8473,0 -96.0,-24.8429,0 -95.0,-24.8614,0 -94.0,-24.9092,0 -93.0,-24.9714,0 -92.83,-24.9841,0 -92.0,-25.0585,0 -91.0,-25.1733,0 -90.0,-25.3052,0 -89.0,-25.4548,0 -88.0,-25.6355,0 -87.0,-25.8378,0 -86.38,-25.9802,0 -86.0,-26.0757,0 -85.0,-26.3411,0 -84.0,-26.6405,0 -83.0,-26.9676,0 -82.94,-26.9892,0 -82.0,-27.329,0 -81.0,-27.7155,0 -80.36,-27.9855,0 -80.0,-28.1414,0 -79.0,-28.6051,0 -78.24,-28.9778,0 -78.0,-29.0978,0 -77.0,-29.6326,0 -76.4,-29.9682,0 -76.0,-30.2024,0 -75.0,-30.8097,0 -74.76,-30.9633,0 -74.0,-31.4656,0 -73.27,-31.972,0 -73.0,-32.162,0 -72.0,-32.8883,0 -71.89,-32.9713,0 -71.0,-33.6511,0 -70.6,-33.9663,0 -70.0,-34.4506,0 -69.38,-34.9637,0 -69.0,-35.284,0 -68.22,-35.9607,0 -68.0,-36.1585,0 -67.1,-36.9577,0 -67.0,-37.0488,0 -66.02,-37.9604,0 -66.0,-37.9798,0 -65.0,-38.933,0 -64.96,-38.9715,0 -64.0,-39.9048,0 -63.94,-39.9635,0 -63.0,-40.8961,0 -62.92,-40.9757,0 -62.0,-41.8918,0 -61.92,-41.9719,0 -61.0,-42.9027,0 -60.93,-42.9737,0 -60.0,-43.9216,0 -59.95,-43.9724,0 -59.0,-44.9306,0 -58.97,-44.9611,0 -58.0,-45.9471,0 -57.98,-45.9674,0 -57.0,-46.9542,0 -56.99,-46.9643,0 -56.0,-47.9529,0 -55.99,-47.9629,0 -55.0,-48.954,0 -54.99,-48.9638,0 -54.0,-49.9281,0 -53.97,-49.9571,0 -53.0,-50.8948,0 -52.93,-50.9621,0 -52.0,-51.8456,0 -51.88,-51.9594,0 -51.0,-52.7857,0 -50.81,-52.959,0 -50.0,-53.6998,0 -49.71,-53.9621,0 -49.0,-54.6005,0 -48.58,-54.9719,0 -48.0,-55.4733,0 -47.43,-55.9697,0 -47.0,-56.3346,0 -46.24,-56.9657,0 -46.0,-57.1635,0 -45.02,-57.9579,0 -45.0,-57.974,0 -44.0,-58.7665,0 -43.75,-58.9604,0 -43.0,-59.5422,0 -42.44,-59.9674,0 -42.0,-60.2946,0 -41.08,-60.9697,0 -41.0,-61.0274,0 -40.0,-61.7374,0 -39.67,-61.97,0 -39.0,-62.4303,0 -38.19,-62.9756,0 -38.0,-63.1031,0 -37.0,-63.7556,0 -36.64,-63.9844,0 -36.0,-64.3868,0 -35.02,-64.9827,0 -35.0,-64.9949,0 -34.0,-65.5839,0 -33.31,-65.9823,0 -33.0,-66.1603,0 -32.0,-66.7147,0 -31.5,-66.9854,0 -31.0,-67.2538,0 -30.0,-67.7743,0 -29.58,-67.9909,0 -29.0,-68.2797,0 -28.0,-68.7647,0 -27.54,-68.9834,0 -27.0,-69.2355,0 -26.0,-69.6904,0 -25.34,-69.9858,0 -25.0,-70.1328,0</coordinates></LineString></Placemark>
</Folder><Folder><name>Mean-sphere limits</name>
<Placemark><name>north limit — mean sphere</name><styleUrl>#mean</styleUrl><LineString><tessellate>1</tessellate><coordinates>-112.0,-26.69,0 -111.0,-26.47,0 -110.0,-26.27,0 -109.0,-26.08,0 -108.54,-26.0,0 -108.0,-25.9,0 -107.0,-25.74,0 -106.0,-25.59,0 -105.0,-25.45,0 -104.0,-25.32,0 -103.0,-25.21,0 -102.0,-25.11,0 -101.0,-25.02,0 -100.64,-25.0,0 -100.0,-24.96,0 -99.0,-24.91,0 -98.0,-24.87,0 -97.0,-24.86,0 -96.0,-24.86,0 -95.0,-24.88,0 -94.0,-24.92,0 -93.0,-24.99,0 -92.83,-25.0,0 -92.0,-25.07,0 -91.0,-25.18,0 -90.0,-25.31,0 -89.0,-25.47,0 -88.0,-25.65,0 -87.0,-25.86,0 -86.38,-26.0,0 -86.0,-26.09,0 -85.0,-26.36,0 -84.0,-26.65,0 -83.0,-26.98,0 -82.94,-27.0,0 -82.0,-27.34,0 -81.0,-27.73,0 -80.36,-28.0,0 -80.0,-28.16,0 -79.0,-28.62,0 -78.24,-29.0,0 -78.0,-29.12,0 -77.0,-29.66,0 -76.4,-30.0,0 -76.0,-30.23,0 -75.0,-30.85,0 -74.76,-31.0,0 -74.0,-31.5,0 -73.27,-32.0,0 -73.0,-32.19,0 -72.0,-32.92,0 -71.89,-33.0,0 -71.0,-33.69,0 -70.6,-34.0,0 -70.0,-34.49,0 -69.38,-35.0,0 -69.0,-35.32,0 -68.22,-36.0,0 -68.0,-36.19,0 -67.1,-37.0,0 -67.0,-37.09,0 -66.02,-38.0,0 -66.0,-38.02,0 -65.0,-38.97,0 -64.96,-39.0,0 -64.0,-39.94,0 -63.94,-40.0,0 -63.0,-40.92,0 -62.92,-41.0,0 -62.0,-41.92,0 -61.92,-42.0,0 -61.0,-42.93,0 -60.93,-43.0,0 -60.0,-43.95,0 -59.95,-44.0,0 -59.0,-44.96,0 -58.97,-45.0,0 -58.0,-45.98,0 -57.98,-46.0,0 -57.0,-46.99,0 -56.99,-47.0,0 -56.0,-47.99,0 -55.99,-48.0,0 -55.0,-48.99,0 -54.99,-49.0,0 -54.0,-49.97,0 -53.97,-50.0,0 -53.0,-50.94,0 -52.93,-51.0,0 -52.0,-51.89,0 -51.88,-52.0,0 -51.0,-52.82,0 -50.81,-53.0,0 -50.0,-53.74,0 -49.71,-54.0,0 -49.0,-54.64,0 -48.58,-55.0,0 -48.0,-55.51,0 -47.43,-56.0,0 -47.0,-56.37,0 -46.24,-57.0,0 -46.0,-57.2,0 -45.02,-58.0,0 -45.0,-58.01,0 -44.0,-58.81,0 -43.75,-59.0,0 -43.0,-59.58,0 -42.44,-60.0,0 -42.0,-60.33,0 -41.08,-61.0,0 -41.0,-61.06,0 -40.0,-61.77,0 -39.67,-62.0,0 -39.0,-62.46,0 -38.19,-63.0,0 -38.0,-63.13,0 -37.0,-63.78,0 -36.64,-64.0,0 -36.0,-64.41,0 -35.02,-65.0,0 -35.0,-65.01,0 -34.0,-65.61,0 -33.31,-66.0,0 -33.0,-66.18,0 -32.0,-66.74,0 -31.5,-67.0,0 -31.0,-67.27,0 -30.0,-67.79,0 -29.58,-68.0,0 -29.0,-68.3,0 -28.0,-68.78,0 -27.54,-69.0,0 -27.0,-69.25,0 -26.0,-69.71,0 -25.34,-70.0,0 -25.0,-70.15,0</coordinates></LineString></Placemark>
</Folder><Folder><name>Visibility</name>
<Placemark><name>sees the occultation</name><styleUrl>#region</styleUrl><Polygon><outerBoundaryIs><LinearRing><coordinates>-81.4,-76.0,0 -81.0,-76.04,0 -80.0,-76.09,0 -79.0,-76.14,0 -78.0,-76.18,0 -77.0,-76.23,0 -76.0,-76.26,0 -75.0,-76.3,0 -74.0,-76.31,0 -73.0,-76.32,0 -72.0,-76.32,0 -71.0,-76.35,0 -70.0,-76.34,0 -69.0,-76.37,0 -68.0,-76.37,0 -67.0,-76.34,0 -66.0,-76.01,0 -65.0,-76.01,0 -64.0,-76.01,0 -63.0,-76.01,0 -62.0,-76.01,0 -61.0,-76.01,0 -60.0,-76.01,0 -59.0,-76.01,0 -58.0,-76.01,0 -57.0,-76.01,0 -56.0,-76.01,0 -55.0,-76.01,0 -54.0,-76.01,0 -53.0,-76.01,0 -52.0,-76.01,0 -51.0,-76.01,0 -50.0,-76.01,0 -49.0,-76.01,0 -48.0,-76.01,0 -47.0,-76.01,0 -46.0,-76.01,0 -45.0,-76.01,0 -44.0,-76.01,0 -43.0,-76.01,0 -42.0,-76.01,0 -41.0,-76.01,0 -40.0,-76.01,0 -39.0,-76.01,0 -38.0,-76.01,0 -37.0,-76.0,0 -36.0,-76.0,0 -35.26,-76.0,0 -35.0,-75.86,0 -34.0,-75.51,0 -33.0,-75.34,0 -32.0,-75.28,0 -31.0,-75.21,0 -30.0,-75.16,0 -29.0,-75.1,0 -28.0,-75.05,0 -27.46,-75.0,0 -27.0,-74.69,0 -26.0,-74.35,0 -25.0,-74.25,0 -24.0,-74.14,0 -23.0,-74.01,0 -22.9,-74.0,0 -22.0,-73.46,0 -21.0,-73.16,0 -20.0,-73.06,0 -19.76,-73.0,0 -20.0,-72.21,0 -20.38,-72.0,0 -21.0,-71.77,0 -22.0,-71.39,0 -22.96,-71.0,0 -23.0,-70.99,0 -24.0,-70.58,0 -25.0,-70.15,0 -25.34,-70.0,0 -26.0,-69.71,0 -27.0,-69.25,0 -27.54,-69.0,0 -28.0,-68.78,0 -29.0,-68.3,0 -29.58,-68.0,0 -30.0,-67.79,0 -31.0,-67.27,0 -31.5,-67.0,0 -32.0,-66.74,0 -33.0,-66.18,0 -33.31,-66.0,0 -34.0,-65.61,0 -35.0,-65.01,0 -35.02,-65.0,0 -36.0,-64.41,0 -36.64,-64.0,0 -37.0,-63.78,0 -38.0,-63.13,0 -38.19,-63.0,0 -39.0,-62.46,0 -39.67,-62.0,0 -40.0,-61.77,0 -41.0,-61.06,0 -41.08,-61.0,0 -42.0,-60.33,0 -42.44,-60.0,0 -43.0,-59.58,0 -43.75,-59.0,0 -44.0,-58.81,0 -45.0,-58.01,0 -45.02,-58.0,0 -46.0,-57.2,0 -46.24,-57.0,0 -47.0,-56.37,0 -47.43,-56.0,0 -48.0,-55.51,0 -48.58,-55.0,0 -49.0,-54.64,0 -49.71,-54.0,0 -50.0,-53.74,0 -50.81,-53.0,0 -51.0,-52.82,0 -51.88,-52.0,0 -52.0,-51.89,0 -52.93,-51.0,0 -53.0,-50.94,0 -53.97,-50.0,0 -54.0,-49.97,0 -54.99,-49.0,0 -55.0,-48.99,0 -55.99,-48.0,0 -56.0,-47.99,0 -56.99,-47.0,0 -57.0,-46.99,0 -57.98,-46.0,0 -58.0,-45.98,0 -58.97,-45.0,0 -59.0,-44.96,0 -59.95,-44.0,0 -60.0,-43.95,0 -60.93,-43.0,0 -61.0,-42.93,0 -61.92,-42.0,0 -62.0,-41.92,0 -62.92,-41.0,0 -63.0,-40.92,0 -63.94,-40.0,0 -64.0,-39.94,0 -64.96,-39.0,0 -65.0,-38.97,0 -66.0,-38.02,0 -66.02,-38.0,0 -67.0,-37.09,0 -67.1,-37.0,0 -68.0,-36.19,0 -68.22,-36.0,0 -69.0,-35.32,0 -69.38,-35.0,0 -70.0,-34.49,0 -70.6,-34.0,0 -71.0,-33.69,0 -71.89,-33.0,0 -72.0,-32.92,0 -73.0,-32.19,0 -73.27,-32.0,0 -74.0,-31.5,0 -74.76,-31.0,0 -75.0,-30.85,0 -76.0,-30.23,0 -76.4,-30.0,0 -77.0,-29.66,0 -78.0,-29.12,0 -78.24,-29.0,0 -79.0,-28.62,0 -80.0,-28.16,0 -80.36,-28.0,0 -81.0,-27.73,0 -82.0,-27.34,0 -82.94,-27.0,0 -83.0,-26.98,0 -84.0,-26.65,0 -85.0,-26.36,0 -86.0,-26.09,0 -86.38,-26.0,0 -87.0,-25.86,0 -88.0,-25.65,0 -89.0,-25.47,0 -90.0,-25.31,0 -91.0,-25.18,0 -92.0,-25.07,0 -92.83,-25.0,0 -93.0,-24.99,0 -94.0,-24.92,0 -95.0,-24.88,0 -96.0,-24.86,0 -97.0,-24.86,0 -98.0,-24.87,0 -99.0,-24.91,0 -100.0,-24.96,0 -100.64,-25.0,0 -101.0,-25.02,0 -102.0,-25.11,0 -103.0,-25.21,0 -104.0,-25.32,0 -105.0,-25.45,0 -106.0,-25.59,0 -107.0,-25.74,0 -108.0,-25.9,0 -108.54,-26.0,0 -109.0,-26.08,0 -110.0,-26.27,0 -111.0,-26.47,0 -112.0,-26.69,0 -113.0,-26.91,0 -113.41,-27.0,0 -114.0,-27.14,0 -115.0,-27.59,0 -115.43,-28.0,0 -116.0,-28.36,0 -116.42,-29.0,0 -117.0,-29.8,0 -117.1,-30.0,0 -117.4,-31.0,0 -118.0,-31.64,0 -118.16,-32.0,0 -118.35,-33.0,0 -118.62,-34.0,0 -119.0,-34.86,0 -119.1,-35.0,0 -119.02,-36.0,0 -119.72,-37.0,0 -119.57,-38.0,0 -119.67,-39.0,0 -120.0,-39.9,0 -120.06,-40.0,0 -120.0,-40.32,0 -119.92,-41.0,0 -120.0,-41.21,0 -120.26,-42.0,0 -120.26,-43.0,0 -120.47,-44.0,0 -120.63,-45.0,0 -120.37,-46.0,0 -120.51,-47.0,0 -120.68,-48.0,0 -120.4,-49.0,0 -120.11,-50.0,0 -120.36,-51.0,0 -120.2,-52.0,0 -120.03,-53.0,0 -120.0,-53.2,0 -119.75,-54.0,0 -119.43,-55.0,0 -119.11,-56.0,0 -119.0,-56.32,0 -118.77,-57.0,0 -118.44,-58.0,0 -118.09,-59.0,0 -118.0,-59.27,0 -117.74,-60.0,0 -117.21,-61.0,0 -117.0,-61.31,0 -116.15,-62.0,0 -116.0,-62.41,0 -115.78,-63.0,0 -115.0,-63.62,0 -114.75,-64.0,0 -114.07,-65.0,0 -114.0,-65.1,0 -113.0,-65.89,0 -112.85,-66.0,0 -112.0,-66.66,0 -111.56,-67.0,0 -111.0,-67.43,0 -110.25,-68.0,0 -110.0,-68.11,0 -109.0,-68.94,0 -108.92,-69.0,0 -108.0,-69.41,0 -107.0,-69.86,0 -106.69,-70.0,0 -106.0,-70.31,0 -105.0,-70.82,0 -104.44,-71.0,0 -104.0,-71.14,0 -103.0,-71.57,0 -102.08,-72.0,0 -102.0,-72.04,0 -101.0,-72.28,0 -100.0,-72.52,0 -99.0,-72.98,0 -98.94,-73.0,0 -98.0,-73.18,0 -97.0,-73.38,0 -96.0,-73.57,0 -95.0,-73.96,0 -94.79,-74.0,0 -94.0,-74.11,0 -93.0,-74.29,0 -92.0,-74.45,0 -91.0,-74.66,0 -90.0,-74.8,0 -89.35,-75.0,0 -89.0,-75.07,0 -88.0,-75.18,0 -87.0,-75.29,0 -86.0,-75.39,0 -85.0,-75.5,0 -84.0,-75.63,0 -83.0,-75.72,0 -82.0,-75.83,0 -81.4,-76.0,0</coordinates></LinearRing></outerBoundaryIs></Polygon></Placemark>
<Placemark><name>after sunset</name><styleUrl>#night</styleUrl><Polygon><outerBoundaryIs><LinearRing><coordinates>-117.21,-61.0,0 -117.0,-61.01,0 -116.0,-61.01,0 -115.69,-61.0,0 -115.0,-60.8,0 -114.66,-61.0,0 -114.0,-61.04,0 -113.0,-61.01,0 -112.65,-61.0,0 -112.0,-60.89,0 -111.68,-61.0,0 -111.0,-61.04,0 -110.0,-61.01,0 -109.95,-61.0,0 -109.0,-60.44,0 -108.0,-60.32,0 -107.0,-60.25,0 -106.0,-60.2,0 -105.03,-60.0,0 -105.0,-59.97,0 -104.0,-59.49,0 -103.0,-59.32,0 -102.0,-59.24,0 -101.0,-59.08,0 -100.7,-59.0,0 -100.0,-58.54,0 -99.0,-58.32,0 -98.0,-58.18,0 -97.13,-58.0,0 -97.0,-57.87,0 -96.0,-57.39,0 -95.0,-57.19,0 -94.03,-57.0,0 -94.0,-56.97,0 -93.0,-56.25,0 -92.0,-56.17,0 -91.66,-56.0,0 -91.0,-55.34,0 -90.0,-55.2,0 -89.56,-55.0,0 -89.0,-54.43,0 -88.0,-54.22,0 -87.5,-54.0,0 -87.0,-53.5,0 -86.0,-53.23,0 -85.52,-53.0,0 -85.0,-52.47,0 -84.0,-52.21,0 -83.62,-52.0,0 -83.0,-51.37,0 -82.0,-51.05,0 -81.88,-51.0,0 -81.0,-50.26,0 -80.5,-50.0,0 -80.0,-49.49,0 -79.0,-49.09,0 -78.89,-49.0,0 -78.0,-48.14,0 -77.83,-48.0,0 -77.0,-47.16,0 -76.3,-47.0,0 -76.0,-46.68,0 -75.0,-46.08,0 -74.92,-46.0,0 -74.0,-45.09,0 -73.9,-45.0,0 -73.0,-44.09,0 -72.91,-44.0,0 -72.0,-43.08,0 -71.92,-43.0,0 -71.0,-42.07,0 -70.93,-42.0,0 -70.0,-41.06,0 -69.95,-41.0,0 -69.0,-40.04,0 -68.96,-40.0,0 -68.0,-39.02,0 -67.98,-39.0,0 -67.0,-38.01,0 -66.99,-38.0,0 -67.0,-37.09,0 -67.1,-37.0,0 -68.0,-36.19,0 -68.22,-36.0,0 -69.0,-35.32,0 -69.38,-35.0,0 -70.0,-34.49,0 -70.6,-34.0,0 -71.0,-33.69,0 -71.89,-33.0,0 -72.0,-32.92,0 -73.0,-32.19,0 -73.27,-32.0,0 -74.0,-31.5,0 -74.76,-31.0,0 -75.0,-30.85,0 -76.0,-30.23,0 -76.4,-30.0,0 -77.0,-29.66,0 -78.0,-29.12,0 -78.24,-29.0,0 -79.0,-28.62,0 -80.0,-28.16,0 -80.36,-28.0,0 -81.0,-27.73,0 -82.0,-27.34,0 -82.94,-27.0,0 -83.0,-26.98,0 -84.0,-26.65,0 -85.0,-26.36,0 -86.0,-26.09,0 -86.38,-26.0,0 -87.0,-25.86,0 -88.0,-25.65,0 -89.0,-25.47,0 -90.0,-25.31,0 -91.0,-25.18,0 -92.0,-25.07,0 -92.83,-25.0,0 -93.0,-24.99,0 -94.0,-24.92,0 -95.0,-24.88,0 -96.0,-24.86,0 -97.0,-24.86,0 -98.0,-24.87,0 -99.0,-24.91,0 -100.0,-24.96,0 -100.64,-25.0,0 -101.0,-25.02,0 -102.0,-25.11,0 -103.0,-25.21,0 -104.0,-25.32,0 -105.0,-25.45,0 -106.0,-25.59,0 -107.0,-25.74,0 -108.0,-25.9,0 -108.54,-26.0,0 -109.0,-26.08,0 -110.0,-26.27,0 -111.0,-26.47,0 -112.0,-26.69,0 -113.0,-26.91,0 -113.41,-27.0,0 -114.0,-27.14,0 -115.0,-27.59,0 -115.43,-28.0,0 -116.0,-28.36,0 -116.42,-29.0,0 -117.0,-29.8,0 -117.1,-30.0,0 -117.4,-31.0,0 -118.0,-31.64,0 -118.16,-32.0,0 -118.35,-33.0,0 -118.62,-34.0,0 -119.0,-34.86,0 -119.1,-35.0,0 -119.02,-36.0,0 -119.72,-37.0,0 -119.57,-38.0,0 -119.67,-39.0,0 -120.0,-39.9,0 -120.06,-40.0,0 -120.0,-40.32,0 -119.92,-41.0,0 -120.0,-41.21,0 -120.26,-42.0,0 -120.26,-43.0,0 -120.47,-44.0,0 -120.63,-45.0,0 -120.37,-46.0,0 -120.51,-47.0,0 -120.68,-48.0,0 -120.4,-49.0,0 -120.11,-50.0,0 -120.36,-51.0,0 -120.2,-52.0,0 -120.03,-53.0,0 -120.0,-53.2,0 -119.75,-54.0,0 -119.43,-55.0,0 -119.11,-56.0,0 -119.0,-56.32,0 -118.77,-57.0,0 -118.44,-58.0,0 -118.09,-59.0,0 -118.0,-59.27,0 -117.74,-60.0,0 -117.21,-61.0,0</coordinates></LinearRing></outerBoundaryIs></Polygon></Placemark>
</Folder><Folder><name>Cities</name>
<Placemark><name>Kinshasa, CD</name><styleUrl>#city</styleUrl><description>near miss: Jupiter passes 66.7′ from the limb (UTC)</description><Point><coordinates>15.31357,-4.32758,0</coordinates></Point></Placemark>
<Placemark><name>Istanbul, TR</name><styleUrl>#city</styleUrl><description>near miss: Jupiter passes 99.0′ from the limb (UTC)</description><Point><coordinates>28.94966,41.01384,0</coordinates></Point></Placemark>
<Placemark><name>Lagos, NG</name><styleUrl>#city</styleUrl><description>near miss: Jupiter passes 71.5′ from the limb (UTC)</description><Point><coordinates>3.39467,6.45407,0</coordinates></Point></Placemark>
<Placemark><name>São Paulo, BR</name><styleUrl>#city</styleUrl><description>near miss: Jupiter passes 18.2′ from the limb (UTC)</description><Point><coordinates>-46.63611,-23.5475,0</coordinates></Point></Placemark>
<Placemark><name>Mexico City, MX</name><styleUrl>#city</styleUrl><description>near miss: Jupiter passes 38.9′ from the limb (UTC)</description><Point><coordinates>-99.12766,19.42847,0</coordinates></Point></Placemark>
<Placemark><name>Moscow, RU</name><styleUrl>#city</styleUrl><description>near miss: Jupiter passes 103.8′ from the limb (UTC)</description><Point><coordinates>37.61781,55.75204,0</coordinates></Point></Placemark>
<Placemark><name>Cairo, EG</name><styleUrl>#city</styleUrl><description>near miss: Jupiter passes 94.7′ from the limb (UTC)</description><Point><coordinates>31.24967,30.06263,0</coordinates></Point></Placemark>
<Placemark><name>London, GB</name><styleUrl>#city</styleUrl><description>near miss: Jupiter passes 94.3′ from the limb (UTC)</description><Point><coordinates>-0.12574,51.50853,0</coordinates></Point></Placemark>
<Placemark><name>New York City, US</name><styleUrl>#city</styleUrl><description>near miss: Jupiter passes 61.2′ from the limb (UTC)</description><Point><coordinates>-74.00597,40.71427,0</coordinates></Point></Placemark>
<Placemark><name>Lima, PE</name><styleUrl>#city</styleUrl><description>near miss: Jupiter passes 11.2′ from the limb (UTC)</description><Point><coordinates>-77.02824,-12.04318,0</coordinates></Point></Placemark>
<Placemark><name>Bogotá, CO</name><styleUrl>#city</styleUrl><description>near miss: Jupiter passes 25.6′ from the limb (UTC)</description><Point><coordinates>-74.08175,4.60971,0</coordinates></Point></Placemark>
<Placemark><name>Rio de Janeiro, BR</name><styleUrl>#city</styleUrl><description>near miss: Jupiter passes 20.8′ from the limb (UTC)</description><Point><coordinates>-43.18223,-22.90642,0</coordinates></Point></Placemark>
<Placemark><name>Abidjan, CI</name><styleUrl>#city</styleUrl><description>near miss: Jupiter passes 67.2′ from the limb (UTC)</description><Point><coordinates>-4.00167,5.35444,0</coordinates></Point></Placemark>
<Placemark><name>Saint Petersburg, RU</name><styleUrl>#city</styleUrl><description>near miss: Jupiter passes 103.1′ from the limb (UTC)</description><Point><coordinates>30.31413,59.93863,0</coordinates></Point></Placemark>
<Placemark><name>Alexandria, EG</name><styleUrl>#city</styleUrl><description>near miss: Jupiter passes 95.1′ from the limb (UTC)</description><Point><coordinates>29.91582,31.20176,0</coordinates></Point></Placemark>
<Placemark><name>Kano, NG</name><styleUrl>#city</styleUrl><description>near miss: Jupiter passes 77.6′ from the limb (UTC)</description><Point><coordinates>8.51672,12.00012,0</coordinates></Point></Placemark>
<Placemark><name>Santiago, CL</name><styleUrl>#city</styleUrl><description>near miss: Jupiter passes 0.5′ from the limb (UTC)</description><Point><coordinates>-70.64827,-33.45694,0</coordinates></Point></Placemark>
<Placemark><name>Giza, EG</name><styleUrl>#city</styleUrl><description>near miss: Jupiter passes 94.7′ from the limb (UTC)</description><Point><coordinates>31.20861,30.00944,0</coordinates></Point></Placemark>
<Placemark><name>Bamako, ML</name><styleUrl>#city</styleUrl><description>near miss: Jupiter passes 70.3′ from the limb (UTC)</description><Point><coordinates>-7.97522,12.60915,0</coordinates></Point></Placemark>
<Placemark><name>Los Angeles, US</name><styleUrl>#city</styleUrl><description>near miss: Jupiter passes 56.5′ from the limb (UTC)</description><Point><coordinates>-118.24368,34.05223,0</coordinates></Point></Placemark>
<Placemark><name>Casablanca, MA</name><styleUrl>#city</styleUrl><description>near miss: Jupiter passes 83.3′ from the limb (UTC)</description><Point><coordinates>-7.61138,33.58831,0</coordinates></Point></Placemark>
<Placemark><name>Ibadan, NG</name><styleUrl>#city</styleUrl><description>near miss: Jupiter passes 72.4′ from the limb (UTC)</description><Point><coordinates>3.90591,7.37756,0</coordinates></Point></Placemark>
<Placemark><name>Ankara, TR</name><styleUrl>#city</styleUrl><description>near miss: Jupiter passes 99.3′ from the limb (UTC)</description><Point><coordinates>32.85427,39.91987,0</coordinates></Point></Placemark>
<Placemark><name>Berlin, DE</name><styleUrl>#city</styleUrl><description>near miss: Jupiter passes 98.6′ from the limb (UTC)</description><Point><coordinates>13.41053,52.52437,0</coordinates></Point></Placemark>
<Placemark><name>Madrid, ES</name><styleUrl>#city</styleUrl><description>near miss: Jupiter passes 88.5′ from the limb (UTC)</description><Point><coordinates>-3.70256,40.4165,0</coordinates></Point></Placemark>
<Placemark><name>Bursa, TR</name><styleUrl>#city</styleUrl><description>near miss: Jupiter passes 98.8′ from the limb (UTC)</description><Point><coordinates>29.06013,40.19559,0</coordinates></Point></Placemark>
<Placemark><name>Caracas, VE</name><styleUrl>#city</styleUrl><description>near miss: Jupiter passes 33.0′ from the limb (UTC)</description><Point><coordinates>-66.87919,10.48801,0</coordinates></Point></Placemark>
<Placemark><name>Kyiv, UA</name><styleUrl>#city</styleUrl><description>near miss: Jupiter passes 101.9′ from the limb (UTC)</description><Point><coordinates>30.5238,50.45466,0</coordinates></Point></Placemark>
<Placemark><name>İzmir, TR</name><styleUrl>#city</styleUrl><description>near miss: Jupiter passes 97.7′ from the limb (UTC)</description><Point><coordinates>27.13838,38.41273,0</coordinates></Point></Placemark>
<Placemark><name>Buenos Aires, AR</name><styleUrl>#city</styleUrl><description>near miss: Jupiter passes 5.2′ from the limb (UTC)</description><Point><coordinates>-58.37723,-34.61315,0</coordinates></Point></Placemark>
<Placemark><name>Toronto, CA</name><styleUrl>#city</styleUrl><description>near miss: Jupiter passes 63.6′ from the limb (UTC)</description><Point><coordinates>-79.39864,43.70643,0</coordinates></Point></Placemark>
<Placemark><name>Quito, EC</name><styleUrl>#city</styleUrl><description>near miss: Jupiter passes 20.4′ from the limb (UTC)</description><Point><coordinates>-78.52495,-0.22985,0</coordinates></Point></Placemark>
<Placemark><name>Luanda, AO</name><styleUrl>#city</styleUrl><description>near miss: Jupiter passes 62.0′ from the limb (UTC)</description><Point><coordinates>13.23432,-8.83682,0</coordinates></Point></Placemark>
<Placemark><name>Brooklyn, US</name><styleUrl>#city</styleUrl><description>near miss: Jupiter passes 61.2′ from the limb (UTC)</description><Point><coordinates>-73.94958,40.6501,0</coordinates></Point></Placemark>
<Placemark><name>Guayaquil, EC</name><styleUrl>#city</styleUrl><description>near miss: Jupiter passes 18.4′ from the limb (UTC)</description><Point><coordinates>-79.88621,-2.19616,0</coordinates></Point></Placemark>
<Placemark><name>Belo Horizonte, BR</name><styleUrl>#city</styleUrl><description>near miss: Jupiter passes 22.3′ from the limb (UTC)</description><Point><coordinates>-43.93778,-19.92083,0</coordinates></Point></Placemark>
<Placemark><name>Salvador, BR</name><styleUrl>#city</styleUrl><description>near miss: Jupiter passes 30.9′ from the limb (UTC)</description><Point><coordinates>-38.49096,-12.97563,0</coordinates></Point></Placemark>
<Placemark><name>Abuja, NG</name><styleUrl>#city</styleUrl><description>near miss: Jupiter passes 75.1′ from the limb (UTC)</description><Point><coordinates>7.49508,9.05785,0</coordinates></Point></Placemark>
<Placemark><name>Chicago, US</name><styleUrl>#city</styleUrl><description>near miss: Jupiter passes 61.3′ from the limb (UTC)</description><Point><coordinates>-87.65005,41.85003,0</coordinates></Point></Placemark>
<Placemark><name>Dakar, SN</name><styleUrl>#city</styleUrl><description>near miss: Jupiter passes 65.9′ from the limb (UTC)</description><Point><coordinates>-17.44406,14.6937,0</coordinates></Point></Placemark>
<Placemark><name>Kumasi, GH</name><styleUrl>#city</styleUrl><description>near miss: Jupiter passes 69.4′ from the limb (UTC)</description><Point><coordinates>-1.62443,6.68848,0</coordinates></Point></Placemark>
<Placemark><name>Ouagadougou, BF</name><styleUrl>#city</styleUrl><description>near miss: Jupiter passes 73.6′ from the limb (UTC)</description><Point><coordinates>-1.53388,12.36566,0</coordinates></Point></Placemark>
<Placemark><name>Fortaleza, BR</name><styleUrl>#city</styleUrl><description>near miss: Jupiter passes 37.6′ from the limb (UTC)</description><Point><coordinates>-38.54306,-3.71722,0</coordinates></Point></Placemark>
<Placemark><name>Cali, CO</name><styleUrl>#city</styleUrl><description>near miss: Jupiter passes 24.0′ from the limb (UTC)</description><Point><coordinates>-76.5199,3.43054,0</coordinates></Point></Placemark>
<Placemark><name>Algiers, DZ</name><styleUrl>#city</styleUrl><description>near miss: Jupiter passes 89.7′ from the limb (UTC)</description><Point><coordinates>3.08746,36.73225,0</coordinates></Point></Placemark>
<Placemark><name>Rome, IT</name><styleUrl>#city</styleUrl><description>near miss: Jupiter passes 95.2′ from the limb (UTC)</description><Point><coordinates>12.51133,41.89193,0</coordinates></Point></Placemark>
<Placemark><name>Queens, US</name><styleUrl>#city</styleUrl><description>near miss: Jupiter passes 61.2′ from the limb (UTC)</description><Point><coordinates>-73.83652,40.68149,0</coordinates></Point></Placemark>
<Placemark><name>Houston, US</name><styleUrl>#city</styleUrl><description>near miss: Jupiter passes 49.2′ from the limb (UTC)</description><Point><coordinates>-95.36327,29.76328,0</coordinates></Point></Placemark>
<Placemark><name>Gaziantep, TR</name><styleUrl>#city</styleUrl><description>near miss: Jupiter passes 98.8′ from the limb (UTC)</description><Point><coordinates>37.3825,37.05944,0</coordinates></Point></Placemark>
<Placemark><name>Manaus, BR</name><styleUrl>#city</styleUrl><description>near miss: Jupiter passes 24.3′ from the limb (UTC)</description><Point><coordinates>-60.025,-3.10194,0</coordinates></Point></Placemark>
<Placemark><name>Brasília, BR</name><styleUrl>#city</styleUrl><description>near miss: Jupiter passes 22.5′ from the limb (UTC)</description><Point><coordinates>-47.92972,-15.77972,0</coordinates></Point></Placemark>
<Placemark><name>Santo Domingo, DO</name><styleUrl>#city</styleUrl><description>near miss: Jupiter passes 39.7′ from the limb (UTC)</description><Point><coordinates>-69.89232,18.47186,0</coordinates></Point></Placemark>
<Placemark><name>Lomé, TG</name><styleUrl>#city</styleUrl><description>near miss: Jupiter passes 70.3′ from the limb (UTC)</description><Point><coordinates>1.22154,6.12874,0</coordinates></Point></Placemark>
<Placemark><name>Havana, CU</name><styleUrl>#city</styleUrl><description>near miss: Jupiter passes 42.4′ from the limb (UTC)</description><Point><coordinates>-82.38304,23.13302,0</coordinates></Point></Placemark>
<Placemark><name>Paris, FR</name><styleUrl>#city</styleUrl><description>near miss: Jupiter passes 94.2′ from the limb (UTC)</description><Point><coordinates>2.3488,48.85341,0</coordinates></Point></Placemark>
<Placemark><name>Port Harcourt, NG</name><styleUrl>#city</styleUrl><description>near miss: Jupiter passes 71.7′ from the limb (UTC)</description><Point><coordinates>7.0134,4.77742,0</coordinates></Point></Placemark>
<Placemark><name>Córdoba, AR</name><styleUrl>#city</styleUrl><description>near miss: Jupiter passes 4.1′ from the limb (UTC)</description><Point><coordinates>-64.18853,-31.40648,0</coordinates></Point></Placemark>
<Placemark><name>Aleppo, SY</name><styleUrl>#city</styleUrl><description>near miss: Jupiter passes 98.5′ from the limb (UTC)</description><Point><coordinates>37.16117,36.20124,0</coordinates></Point></Placemark>
<Placemark><name>La Paz, BO</name><styleUrl>#city</styleUrl><description>near miss: Jupiter passes 11.0′ from the limb (UTC)</description><Point><coordinates>-68.15,-16.5,0</coordinates></Point></Placemark>
<Placemark><name>Medellín, CO</name><styleUrl>#city</styleUrl><description>near miss: Jupiter passes 26.8′ from the limb (UTC)</description><Point><coordinates>-75.57151,6.245,0</coordinates></Point></Placemark>
<Placemark><name>Brazzaville, CG</name><styleUrl>#city</styleUrl><description>near miss: Jupiter passes 66.7′ from the limb (UTC)</description><Point><coordinates>15.28318,-4.26613,0</coordinates></Point></Placemark>
<Placemark><name>Hamburg, DE</name><styleUrl>#city</styleUrl><description>near miss: Jupiter passes 98.0′ from the limb (UTC)</description><Point><coordinates>9.99302,53.55073,0</coordinates></Point></Placemark>
<Placemark><name>Accra, GH</name><styleUrl>#city</styleUrl><description>near miss: Jupiter passes 69.2′ from the limb (UTC)</description><Point><coordinates>-0.1969,5.55602,0</coordinates></Point></Placemark>
<Placemark><name>Curitiba, BR</name><styleUrl>#city</styleUrl><description>near miss: Jupiter passes 15.4′ from the limb (UTC)</description><Point><coordinates>-49.27306,-25.42778,0</coordinates></Point></Placemark>
<Placemark><name>Conakry, GN</name><styleUrl>#city</styleUrl><description>near miss: Jupiter passes 64.7′ from the limb (UTC)</description><Point><coordinates>-13.67729,9.53795,0</coordinates></Point></Placemark>
<Placemark><name>Tijuana, MX</name><styleUrl>#city</styleUrl><description>near miss: Jupiter passes 54.8′ from the limb (UTC)</description><Point><coordinates>-117.00371,32.5027,0</coordinates></Point></Placemark>
<Placemark><name>Beirut, LB</name><styleUrl>#city</styleUrl><description>near miss: Jupiter passes 97.2′ from the limb (UTC)</description><Point><coordinates>35.50157,33.89332,0</coordinates></Point></Placemark>
<Placemark><name>Bucharest, RO</name><styleUrl>#city</styleUrl><description>near miss: Jupiter passes 99.6′ from the limb (UTC)</description><Point><coordinates>26.10626,44.43225,0</coordinates></Point></Placemark>
<Placemark><name>Camayenne, GN</name><styleUrl>#city</styleUrl><description>near miss: Jupiter passes 64.7′ from the limb (UTC)</description><Point><coordinates>-13.68778,9.535,0</coordinates></Point></Placemark>
<Placemark><name>Kaduna, NG</name><styleUrl>#city</styleUrl><description>near miss: Jupiter passes 76.2′ from the limb (UTC)</description><Point><coordinates>7.43879,10.52641,0</coordinates></Point></Placemark>
<Placemark><name>Iztapalapa, MX</name><styleUrl>#city</styleUrl><description>near miss: Jupiter passes 38.8′ from the limb (UTC)</description><Point><coordinates>-99.06224,19.35529,0</coordinates></Point></Placemark>
<Placemark><name>Diyarbakır, TR</name><styleUrl>#city</styleUrl><description>near miss: Jupiter passes 99.5′ from the limb (UTC)</description><Point><coordinates>40.21721,37.91363,0</coordinates></Point></Placemark>
<Placemark><name>Santa Cruz de la Sierra, BO</name><styleUrl>#city</styleUrl><description>near miss: Jupiter passes 12.3′ from the limb (UTC)</description><Point><coordinates>-63.18117,-17.78629,0</coordinates></Point></Placemark>
<Placemark><name>Adana, TR</name><styleUrl>#city</styleUrl><description>near miss: Jupiter passes 98.5′ from the limb (UTC)</description><Point><coordinates>35.32531,36.98615,0</coordinates></Point></Placemark>
<Placemark><name>Benin City, NG</name><styleUrl>#city</styleUrl><description>near miss: Jupiter passes 72.3′ from the limb (UTC)</description><Point><coordinates>5.62575,6.33815,0</coordinates></Point></Placemark>
<Placemark><name>Montréal, CA</name><styleUrl>#city</styleUrl><description>near miss: Jupiter passes 66.0′ from the limb (UTC)</description><Point><coordinates>-73.58781,45.50884,0</coordinates></Point></Placemark>
<Placemark><name>Maracaibo, VE</name><styleUrl>#city</styleUrl><description>near miss: Jupiter passes 31.8′ from the limb (UTC)</description><Point><coordinates>-71.61089,10.64232,0</coordinates></Point></Placemark>
<Placemark><name>Minsk, BY</name><styleUrl>#city</styleUrl><description>near miss: Jupiter passes 102.0′ from the limb (UTC)</description><Point><coordinates>27.56653,53.90019,0</coordinates></Point></Placemark>
<Placemark><name>Budapest, HU</name><styleUrl>#city</styleUrl><description>near miss: Jupiter passes 98.8′ from the limb (UTC)</description><Point><coordinates>19.04045,47.49835,0</coordinates></Point></Placemark>
<Placemark><name>Warsaw, PL</name><styleUrl>#city</styleUrl><description>near miss: Jupiter passes 100.4′ from the limb (UTC)</description><Point><coordinates>21.01178,52.22977,0</coordinates></Point></Placemark>
<Placemark><name>Puebla, MX</name><styleUrl>#city</styleUrl><description>near miss: Jupiter passes 38.4′ from the limb (UTC)</description><Point><coordinates>-98.20723,19.04778,0</coordinates></Point></Placemark>
<Placemark><name>Vienna, AT</name><styleUrl>#city</styleUrl><description>near miss: Jupiter passes 98.3′ from the limb (UTC)</description><Point><coordinates>16.37208,48.20849,0</coordinates></Point></Placemark>
<Placemark><name>Barcelona, ES</name><styleUrl>#city</styleUrl><description>near miss: Jupiter passes 91.4′ from the limb (UTC)</description><Point><coordinates>2.15899,41.38879,0</coordinates></Point></Placemark>
<Placemark><name>Rabat, MA</name><styleUrl>#city</styleUrl><description>near miss: Jupiter passes 83.9′ from the limb (UTC)</description><Point><coordinates>-6.83255,34.01325,0</coordinates></Point></Placemark>
<Placemark><name>Recife, BR</name><styleUrl>#city</styleUrl><description>near miss: Jupiter passes 37.0′ from the limb (UTC)</description><Point><coordinates>-34.88111,-8.05389,0</coordinates></Point></Placemark>
<Placemark><name>Phoenix, US</name><styleUrl>#city</styleUrl><description>near miss: Jupiter passes 54.8′ from the limb (UTC)</description><Point><coordinates>-112.07404,33.44838,0</coordinates></Point></Placemark>
<Placemark><name>Ecatepec de Morelos, MX</name><styleUrl>#city</styleUrl><description>near miss: Jupiter passes 39.1′ from the limb (UTC)</description><Point><coordinates>-99.06064,19.60492,0</coordinates></Point></Placemark>
<Placemark><name>Valencia, VE</name><styleUrl>#city</styleUrl><description>near miss: Jupiter passes 32.3′ from the limb (UTC)</description><Point><coordinates>-68.00044,10.16153,0</coordinates></Point></Placemark>
<Placemark><name>Santiago de Querétaro, MX</name><styleUrl>#city</styleUrl><description>near miss: Jupiter passes 40.2′ from the limb (UTC)</description><Point><coordinates>-100.38806,20.58806,0</coordinates></Point></Placemark>
<Placemark><name>León de los Aldama, MX</name><styleUrl>#city</styleUrl><description>near miss: Jupiter passes 40.9′ from the limb (UTC)</description><Point><coordinates>-101.68253,21.12183,0</coordinates></Point></Placemark>
<Placemark><name>Philadelphia, US</name><styleUrl>#city</styleUrl><description>near miss: Jupiter passes 60.3′ from the limb (UTC)</description><Point><coordinates>-75.16362,39.95238,0</coordinates></Point></Placemark>
<Placemark><name>Damascus, SY</name><styleUrl>#city</styleUrl><description>near miss: Jupiter passes 97.2′ from the limb (UTC)</description><Point><coordinates>36.29128,33.5102,0</coordinates></Point></Placemark>
<Placemark><name>Onitsha, NG</name><styleUrl>#city</styleUrl><description>near miss: Jupiter passes 72.6′ from the limb (UTC)</description><Point><coordinates>6.78569,6.14978,0</coordinates></Point></Placemark>
<Placemark><name>Monrovia, LR</name><styleUrl>#city</styleUrl><description>near miss: Jupiter passes 64.2′ from the limb (UTC)</description><Point><coordinates>-10.7969,6.30054,0</coordinates></Point></Placemark>
<Placemark><name>Goiânia, BR</name><styleUrl>#city</styleUrl><description>near miss: Jupiter passes 21.0′ from the limb (UTC)</description><Point><coordinates>-49.25389,-16.67861,0</coordinates></Point></Placemark>
<Placemark><name>San Antonio, US</name><styleUrl>#city</styleUrl><description>near miss: Jupiter passes 49.0′ from the limb (UTC)</description><Point><coordinates>-98.49363,29.42412,0</coordinates></Point></Placemark>
<Placemark><name>Stockholm, SE</name><styleUrl>#city</styleUrl><description>near miss: Jupiter passes 100.9′ from the limb (UTC)</description><Point><coordinates>18.06871,59.32938,0</coordinates></Point></Placemark>
<Placemark><name>Ciudad Juárez, MX</name><styleUrl>#city</styleUrl><description>near miss: Jupiter passes 52.2′ from the limb (UTC)</description><Point><coordinates>-106.46084,31.72024,0</coordinates></Point></Placemark>
<Placemark><name>Munich, DE</name><styleUrl>#city</styleUrl><description>near miss: Jupiter passes 97.0′ from the limb (UTC)</description><Point><coordinates>11.57549,48.13743,0</coordinates></Point></Placemark>
<Placemark><name>Belém, BR</name><styleUrl>#city</styleUrl><description>near miss: Jupiter passes 32.3′ from the limb (UTC)</description><Point><coordinates>-48.50444,-1.45583,0</coordinates></Point></Placemark>
<Placemark><name>Porto Alegre, BR</name><styleUrl>#city</styleUrl><description>near miss: Jupiter passes 11.5′ from the limb (UTC)</description><Point><coordinates>-51.23019,-30.03283,0</coordinates></Point></Placemark>
<Placemark><name>Manhattan, US</name><styleUrl>#city</styleUrl><description>near miss: Jupiter passes 61.3′ from the limb (UTC)</description><Point><coordinates>-73.96625,40.78343,0</coordinates></Point></Placemark>
<Placemark><name>Asunción, PY</name><styleUrl>#city</styleUrl><description>near miss: Jupiter passes 10.6′ from the limb (UTC)</description><Point><coordinates>-57.647,-25.28646,0</coordinates></Point></Placemark>
<Placemark><name>Zapopan, MX</name><styleUrl>#city</styleUrl><description>near miss: Jupiter passes 40.7′ from the limb (UTC)</description><Point><coordinates>-103.38742,20.72111,0</coordinates></Point></Placemark>
<Placemark><name>Kayseri, TR</name><styleUrl>#city</styleUrl><description>near miss: Jupiter passes 99.2′ from the limb (UTC)</description><Point><coordinates>35.48528,38.73222,0</coordinates></Point></Placemark>
<Placemark><name>Konya, TR</name><styleUrl>#city</styleUrl><description>near miss: Jupiter passes 98.5′ from the limb (UTC)</description><Point><coordinates>32.48464,37.87135,0</coordinates></Point></Placemark>
<Placemark><name>Kharkiv, UA</name><styleUrl>#city</styleUrl><description>near miss: Jupiter passes 102.7′ from the limb (UTC)</description><Point><coordinates>36.25475,49.98177,0</coordinates></Point></Placemark>
<Placemark><name>San Diego, US</name><styleUrl>#city</styleUrl><description>near miss: Jupiter passes 55.0′ from the limb (UTC)</description><Point><coordinates>-117.16472,32.71571,0</coordinates></Point></Placemark>
<Placemark><name>Guadalajara, MX</name><styleUrl>#city</styleUrl><description>near miss: Jupiter passes 40.7′ from the limb (UTC)</description><Point><coordinates>-103.34749,20.67738,0</coordinates></Point></Placemark>
<Placemark><name>The Bronx, US</name><styleUrl>#city</styleUrl><description>near miss: Jupiter passes 61.4′ from the limb (UTC)</description><Point><coordinates>-73.86641,40.84985,0</coordinates></Point></Placemark>
<Placemark><name>Milan, IT</name><styleUrl>#city</styleUrl><description>near miss: Jupiter passes 95.4′ from the limb (UTC)</description><Point><coordinates>9.18951,45.46427,0</coordinates></Point></Placemark>
<Placemark><name>N&#x27;Djamena, TD</name><styleUrl>#city</styleUrl><description>near miss: Jupiter passes 79.9′ from the limb (UTC)</description><Point><coordinates>15.0444,12.10672,0</coordinates></Point></Placemark>
<Placemark><name>Abobo, CI</name><styleUrl>#city</styleUrl><description>near miss: Jupiter passes 67.3′ from the limb (UTC)</description><Point><coordinates>-4.0159,5.41613,0</coordinates></Point></Placemark>
<Placemark><name>Douala, CM</name><styleUrl>#city</styleUrl><description>near miss: Jupiter passes 72.0′ from the limb (UTC)</description><Point><coordinates>9.70428,4.04827,0</coordinates></Point></Placemark>
<Placemark><name>Antalya, TR</name><styleUrl>#city</styleUrl><description>near miss: Jupiter passes 97.8′ from the limb (UTC)</description><Point><coordinates>30.69556,36.90812,0</coordinates></Point></Placemark>
<Placemark><name>Dallas, US</name><styleUrl>#city</styleUrl><description>near miss: Jupiter passes 52.3′ from the limb (UTC)</description><Point><coordinates>-96.80667,32.78306,0</coordinates></Point></Placemark>
<Placemark><name>Niamey, NE</name><styleUrl>#city</styleUrl><description>near miss: Jupiter passes 76.1′ from the limb (UTC)</description><Point><coordinates>2.1098,13.51366,0</coordinates></Point></Placemark>
<Placemark><name>Calgary, CA</name><styleUrl>#city</styleUrl><description>near miss: Jupiter passes 71.7′ from the limb (UTC)</description><Point><coordinates>-114.08529,51.05011,0</coordinates></Point></Placemark>
<Placemark><name>Tripoli, LY</name><styleUrl>#city</styleUrl><description>near miss: Jupiter passes 91.7′ from the limb (UTC)</description><Point><coordinates>13.18733,32.88743,0</coordinates></Point></Placemark>
<Placemark><name>Yaoundé, CM</name><styleUrl>#city</styleUrl><description>near miss: Jupiter passes 72.5′ from the limb (UTC)</description><Point><coordinates>11.51667,3.86667,0</coordinates></Point></Placemark>
</Folder></Document></kml>
