<?xml version="1.0" encoding="UTF-8"?>
<gpx version="1.1" creator="https://occult.alokm.com" xmlns="http://www.topografix.com/GPX/1/1">
<metadata><name>The Moon occults Jupiter — 2027-04-15 — graze limits</name></metadata>
<trk><name>north graze limit</name><trkseg><trkpt lat="-16.8275" lon="17.0"/><trkpt lat="-16.5403" lon="18.0"/><trkpt lat="-16.2611" lon="19.0"/><trkpt lat="-16.0041" lon="19.94"/><trkpt lat="-15.9875" lon="20.0"/><trkpt lat="-15.7203" lon="21.0"/><trkpt lat="-15.4694" lon="22.0"/><trkpt lat="-15.2232" lon="23.0"/><trkpt lat="-15.0004" lon="23.93"/><trkpt lat="-14.9841" lon="24.0"/><trkpt lat="-14.7507" lon="25.0"/><trkpt lat="-14.5347" lon="26.0"/><trkpt lat="-14.3255" lon="27.0"/><trkpt lat="-14.1304" lon="28.0"/><trkpt lat="-13.9933" lon="28.74"/><trkpt lat="-13.946" lon="29.0"/><trkpt lat="-13.7747" lon="30.0"/><trkpt lat="-13.6178" lon="31.0"/><trkpt lat="-13.4684" lon="32.0"/><trkpt lat="-13.3337" lon="33.0"/><trkpt lat="-13.2095" lon="34.0"/><trkpt lat="-13.0998" lon="35.0"/><trkpt lat="-13.0034" lon="36.0"/><trkpt lat="-12.9902" lon="36.16"/><trkpt lat="-12.9257" lon="37.0"/><trkpt lat="-12.8642" lon="38.0"/><trkpt lat="-12.8199" lon="39.0"/><trkpt lat="-12.7838" lon="40.0"/><trkpt lat="-12.7913" lon="41.0"/><trkpt lat="-12.7911" lon="42.0"/><trkpt lat="-12.8248" lon="43.0"/><trkpt lat="-12.8695" lon="44.0"/><trkpt lat="-12.9454" lon="45.0"/><trkpt lat="-12.997" lon="45.55"/><trkpt lat="-13.0447" lon="46.0"/><trkpt lat="-13.1576" lon="47.0"/><trkpt lat="-13.2897" lon="48.0"/><trkpt lat="-13.4489" lon="49.0"/><trkpt lat="-13.6393" lon="50.0"/><trkpt lat="-13.8553" lon="51.0"/><trkpt lat="-13.9929" lon="51.59"/><trkpt lat="-14.0946" lon="52.0"/><trkpt lat="-14.3661" lon="53.0"/><trkpt lat="-14.6596" lon="54.0"/><trkpt lat="-14.9863" lon="55.0"/><trkpt lat="-14.9932" lon="55.02"/><trkpt lat="-15.343" lon="56.0"/><trkpt lat="-15.7309" lon="57.0"/><trkpt lat="-15.9869" lon="57.61"/><trkpt lat="-16.1524" lon="58.0"/><trkpt lat="-16.6095" lon="59.0"/><trkpt lat="-16.9898" lon="59.78"/><trkpt lat="-17.1017" lon="60.0"/><trkpt lat="-17.6247" lon="61.0"/><trkpt lat="-17.9921" lon="61.67"/><trkpt lat="-18.1787" lon="62.0"/><trkpt lat="-18.7705" lon="63.0"/><trkpt lat="-18.992" lon="63.36"/><trkpt lat="-19.3865" lon="64.0"/><trkpt lat="-19.9782" lon="64.91"/><trkpt lat="-20.0394" lon="65.0"/><trkpt lat="-20.7269" lon="66.0"/><trkpt lat="-20.9847" lon="66.36"/><trkpt lat="-21.4492" lon="67.0"/><trkpt lat="-21.9922" lon="67.72"/><trkpt lat="-22.2036" lon="68.0"/><trkpt lat="-22.9884" lon="69.0"/><trkpt lat="-22.9963" lon="69.01"/><trkpt lat="-23.7969" lon="70.0"/><trkpt lat="-24.0004" lon="70.25"/><trkpt lat="-24.6245" lon="71.0"/><trkpt lat="-25.0041" lon="71.45"/><trkpt lat="-25.4709" lon="72.0"/><trkpt lat="-25.999" lon="72.61"/><trkpt lat="-26.339" lon="73.0"/><trkpt lat="-26.997" lon="73.75"/><trkpt lat="-27.219" lon="74.0"/><trkpt lat="-28.0059" lon="74.88"/><trkpt lat="-28.1136" lon="75.0"/><trkpt lat="-29.0071" lon="75.99"/><trkpt lat="-29.0162" lon="76.0"/><trkpt lat="-29.9258" lon="77.0"/><trkpt lat="-30.0073" lon="77.09"/><trkpt lat="-30.837" lon="78.0"/><trkpt lat="-31.0013" lon="78.18"/><trkpt lat="-31.7494" lon="79.0"/><trkpt lat="-32.005" lon="79.28"/><trkpt lat="-32.661" lon="80.0"/><trkpt lat="-33.006" lon="80.38"/><trkpt lat="-33.5672" lon="81.0"/><trkpt lat="-34.0003" lon="81.48"/><trkpt lat="-34.4673" lon="82.0"/><trkpt lat="-35.002" lon="82.6"/><trkpt lat="-35.3566" lon="83.0"/><trkpt lat="-36.0033" lon="83.73"/><trkpt lat="-36.2404" lon="84.0"/><trkpt lat="-37.0052" lon="84.88"/><trkpt lat="-37.1087" lon="85.0"/><trkpt lat="-37.9683" lon="86.0"/><trkpt lat="-38.0023" lon="86.04"/><trkpt lat="-38.8095" lon="87.0"/><trkpt lat="-39.0012" lon="87.23"/><trkpt lat="-39.6393" lon="88.0"/><trkpt lat="-39.9984" lon="88.44"/><trkpt lat="-40.4498" lon="89.0"/><trkpt lat="-40.997" lon="89.69"/><trkpt lat="-41.2429" lon="90.0"/><trkpt lat="-41.99" lon="90.96"/><trkpt lat="-42.0213" lon="91.0"/><trkpt lat="-42.7848" lon="92.0"/><trkpt lat="-42.9864" lon="92.27"/><trkpt lat="-43.531" lon="93.0"/><trkpt lat="-43.9921" lon="93.62"/><trkpt lat="-44.2658" lon="94.0"/><trkpt lat="-44.9808" lon="95.0"/><trkpt lat="-44.9808" lon="95.0"/><trkpt lat="-45.6833" lon="96.0"/><trkpt lat="-45.9862" lon="96.44"/><trkpt lat="-46.3685" lon="97.0"/><trkpt lat="-46.9875" lon="97.92"/><trkpt lat="-47.0396" lon="98.0"/><trkpt lat="-47.6998" lon="99.0"/><trkpt lat="-48.0018" lon="99.47"/><trkpt lat="-48.3377" lon="100.0"/><trkpt lat="-48.9569" lon="101.0"/><trkpt lat="-48.9993" lon="101.07"/><trkpt lat="-49.5655" lon="102.0"/><trkpt lat="-49.9935" lon="102.73"/><trkpt lat="-50.1528" lon="103.0"/><trkpt lat="-50.7283" lon="104.0"/><trkpt lat="-50.9944" lon="104.47"/><trkpt lat="-51.2902" lon="105.0"/><trkpt lat="-51.8384" lon="106.0"/><trkpt lat="-51.9943" lon="106.29"/><trkpt lat="-52.3741" lon="107.0"/><trkpt lat="-52.8911" lon="108.0"/><trkpt lat="-52.9943" lon="108.2"/><trkpt lat="-53.4015" lon="109.0"/><trkpt lat="-53.8914" lon="110.0"/><trkpt lat="-53.9932" lon="110.21"/><trkpt lat="-54.3719" lon="111.0"/><trkpt lat="-54.8409" lon="112.0"/><trkpt lat="-54.9923" lon="112.33"/><trkpt lat="-55.2989" lon="113.0"/><trkpt lat="-55.7477" lon="114.0"/><trkpt lat="-55.9902" lon="114.56"/><trkpt lat="-56.1783" lon="115.0"/><trkpt lat="-56.6026" lon="116.0"/><trkpt lat="-56.9909" lon="116.94"/><trkpt lat="-57.0149" lon="117.0"/><trkpt lat="-57.4165" lon="118.0"/></trkseg></trk>
</gpx>
