<?xml version="1.0" encoding="UTF-8"?>
<gpx version="1.1" creator="https://occult.alokm.com" xmlns="http://www.topografix.com/GPX/1/1">
<metadata><name>The Moon occults Jupiter — 2026-10-06 — graze limits</name></metadata>
<trk><name>south graze limit</name><trkseg><trkpt lat="-28.3807" lon="24.0"/><trkpt lat="-28.0679" lon="23.0"/><trkpt lat="-28.0288" lon="22.88"/><trkpt lat="-27.741" lon="22.0"/><trkpt lat="-27.4076" lon="21.0"/><trkpt lat="-27.0605" lon="20.0"/><trkpt lat="-27.0093" lon="19.85"/><trkpt lat="-26.7102" lon="19.0"/><trkpt lat="-26.3496" lon="18.0"/><trkpt lat="-26.0046" lon="17.07"/><trkpt lat="-25.9782" lon="17.0"/><trkpt lat="-25.597" lon="16.0"/><trkpt lat="-25.2124" lon="15.0"/><trkpt lat="-25.014" lon="14.5"/><trkpt lat="-24.8115" lon="14.0"/><trkpt lat="-24.3948" lon="13.0"/><trkpt lat="-24.0073" lon="12.11"/><trkpt lat="-23.9605" lon="12.0"/><trkpt lat="-23.5141" lon="11.0"/><trkpt lat="-23.0548" lon="10.0"/><trkpt lat="-22.9992" lon="9.88"/><trkpt lat="-22.5869" lon="9.0"/><trkpt lat="-22.1078" lon="8.0"/><trkpt lat="-22.0087" lon="7.79"/><trkpt lat="-21.6304" lon="7.0"/><trkpt lat="-21.1222" lon="6.0"/><trkpt lat="-21.0226" lon="5.81"/><trkpt lat="-20.5895" lon="5.0"/><trkpt lat="-20.0471" lon="4.0"/><trkpt lat="-20.0127" lon="3.94"/><trkpt lat="-19.4894" lon="3.0"/><trkpt lat="-19.022" lon="2.17"/><trkpt lat="-18.9241" lon="2.0"/><trkpt lat="-18.3368" lon="1.0"/><trkpt lat="-18.026" lon="0.48"/><trkpt lat="-17.734" lon="0.0"/><trkpt lat="-17.1094" lon="-1.0"/><trkpt lat="-17.0214" lon="-1.14"/><trkpt lat="-16.471" lon="-2.0"/><trkpt lat="-16.0269" lon="-2.68"/><trkpt lat="-15.8075" lon="-3.0"/><trkpt lat="-15.1327" lon="-4.0"/><trkpt lat="-15.0209" lon="-4.16"/><trkpt lat="-14.4389" lon="-5.0"/><trkpt lat="-14.0347" lon="-5.57"/><trkpt lat="-13.7204" lon="-6.0"/><trkpt lat="-13.025" lon="-6.94"/><trkpt lat="-12.9797" lon="-7.0"/><trkpt lat="-12.2191" lon="-8.0"/><trkpt lat="-12.0189" lon="-8.26"/><trkpt lat="-11.4454" lon="-9.0"/><trkpt lat="-11.0167" lon="-9.54"/><trkpt lat="-10.6463" lon="-10.0"/><trkpt lat="-10.0166" lon="-10.77"/><trkpt lat="-9.8258" lon="-11.0"/><trkpt lat="-9.0137" lon="-11.97"/><trkpt lat="-8.9879" lon="-12.0"/><trkpt lat="-8.1299" lon="-13.0"/><trkpt lat="-8.0086" lon="-13.14"/><trkpt lat="-7.2531" lon="-14.0"/><trkpt lat="-7.0057" lon="-14.28"/><trkpt lat="-6.3602" lon="-15.0"/><trkpt lat="-6.0076" lon="-15.39"/><trkpt lat="-5.4535" lon="-16.0"/><trkpt lat="-5.0122" lon="-16.48"/><trkpt lat="-4.5282" lon="-17.0"/><trkpt lat="-4.0133" lon="-17.55"/><trkpt lat="-3.5893" lon="-18.0"/><trkpt lat="-3.0059" lon="-18.61"/><trkpt lat="-2.6311" lon="-19.0"/><trkpt lat="-2.0039" lon="-19.65"/><trkpt lat="-1.667" lon="-20.0"/><trkpt lat="-0.9991" lon="-20.69"/><trkpt lat="-0.6979" lon="-21.0"/><trkpt lat="-0.0062" lon="-21.71"/><trkpt lat="0.2769" lon="-22.0"/><trkpt lat="0.9997" lon="-22.74"/><trkpt lat="1.2536" lon="-23.0"/><trkpt lat="1.9947" lon="-23.76"/><trkpt lat="2.2288" lon="-24.0"/><trkpt lat="2.9966" lon="-24.79"/><trkpt lat="3.2003" lon="-25.0"/><trkpt lat="3.9953" lon="-25.83"/><trkpt lat="4.1573" lon="-26.0"/><trkpt lat="4.9914" lon="-26.88"/><trkpt lat="5.1051" lon="-27.0"/><trkpt lat="5.9917" lon="-27.95"/><trkpt lat="6.0385" lon="-28.0"/><trkpt lat="6.9559" lon="-29.0"/><trkpt lat="6.9921" lon="-29.04"/><trkpt lat="7.8485" lon="-30.0"/><trkpt lat="7.9897" lon="-30.16"/><trkpt lat="8.7158" lon="-31.0"/><trkpt lat="8.9868" lon="-31.32"/><trkpt lat="9.5534" lon="-32.0"/><trkpt lat="9.985" lon="-32.53"/><trkpt lat="10.3633" lon="-33.0"/><trkpt lat="10.9786" lon="-33.78"/><trkpt lat="11.1462" lon="-34.0"/><trkpt lat="11.8894" lon="-35.0"/><trkpt lat="11.9684" lon="-35.11"/><trkpt lat="12.613" lon="-36.0"/><trkpt lat="12.981" lon="-36.53"/><trkpt lat="13.2955" lon="-37.0"/><trkpt lat="13.9534" lon="-38.0"/><trkpt lat="13.9785" lon="-38.04"/><trkpt lat="14.5737" lon="-39.0"/><trkpt lat="14.9895" lon="-39.69"/><trkpt lat="15.1739" lon="-40.0"/><trkpt lat="15.722" lon="-41.0"/><trkpt lat="15.9786" lon="-41.5"/><trkpt lat="16.2503" lon="-42.0"/><trkpt lat="16.7504" lon="-43.0"/><trkpt lat="16.9906" lon="-43.53"/><trkpt lat="17.2018" lon="-44.0"/><trkpt lat="17.6303" lon="-45.0"/><trkpt lat="17.9946" lon="-45.87"/><trkpt lat="18.0435" lon="-46.0"/><trkpt lat="18.4182" lon="-47.0"/><trkpt lat="18.7532" lon="-48.0"/><trkpt lat="18.9653" lon="-48.68"/><trkpt lat="19.0633" lon="-49.0"/><trkpt lat="19.3555" lon="-50.0"/><trkpt lat="19.6334" lon="-51.0"/><trkpt lat="19.8998" lon="-52.0"/><trkpt lat="19.9733" lon="-52.29"/><trkpt lat="20.137" lon="-53.0"/><trkpt lat="20.341" lon="-54.0"/><trkpt lat="20.5275" lon="-55.0"/><trkpt lat="20.7091" lon="-56.0"/><trkpt lat="20.8654" lon="-57.0"/><trkpt lat="20.9782" lon="-57.89"/><trkpt lat="20.9921" lon="-58.0"/><trkpt lat="21.1217" lon="-59.0"/><trkpt lat="21.2287" lon="-60.0"/><trkpt lat="21.3128" lon="-61.0"/><trkpt lat="21.3782" lon="-62.0"/><trkpt lat="21.4206" lon="-63.0"/><trkpt lat="21.4426" lon="-64.0"/><trkpt lat="21.4558" lon="-65.0"/><trkpt lat="21.4793" lon="-66.0"/><trkpt lat="21.4778" lon="-67.0"/><trkpt lat="21.455" lon="-68.0"/><trkpt lat="21.42" lon="-69.0"/><trkpt lat="21.3731" lon="-70.0"/><trkpt lat="21.3156" lon="-71.0"/><trkpt lat="21.2407" lon="-72.0"/><trkpt lat="21.1567" lon="-73.0"/><trkpt lat="21.0628" lon="-74.0"/><trkpt lat="21.0023" lon="-74.55"/><trkpt lat="20.9514" lon="-75.0"/><trkpt lat="20.8359" lon="-76.0"/><trkpt lat="20.7102" lon="-77.0"/><trkpt lat="20.5757" lon="-78.0"/><trkpt lat="20.4332" lon="-79.0"/><trkpt lat="20.2788" lon="-80.0"/><trkpt lat="20.1143" lon="-81.0"/><trkpt lat="19.9967" lon="-81.69"/><trkpt lat="19.945" lon="-82.0"/><trkpt lat="19.7661" lon="-83.0"/><trkpt lat="19.5751" lon="-84.0"/><trkpt lat="19.3762" lon="-85.0"/><trkpt lat="19.1721" lon="-86.0"/><trkpt lat="18.9926" lon="-86.84"/><trkpt lat="18.9584" lon="-87.0"/><trkpt lat="18.732" lon="-88.0"/><trkpt lat="18.508" lon="-89.0"/><trkpt lat="18.2773" lon="-90.0"/><trkpt lat="18.0361" lon="-91.0"/><trkpt lat="17.9916" lon="-91.19"/><trkpt lat="17.7915" lon="-92.0"/><trkpt lat="17.5368" lon="-93.0"/></trkseg></trk>
<trk><name>north graze limit</name><trkseg><trkpt lat="48.6534" lon="-109.0"/><trkpt lat="48.916" lon="-108.0"/><trkpt lat="48.9997" lon="-107.68"/><trkpt lat="49.1767" lon="-107.0"/><trkpt lat="49.4305" lon="-106.0"/><trkpt lat="49.6676" lon="-105.0"/><trkpt lat="49.9045" lon="-104.0"/><trkpt lat="50.0014" lon="-103.59"/><trkpt lat="50.138" lon="-103.0"/><trkpt lat="50.3626" lon="-102.0"/><trkpt lat="50.583" lon="-101.0"/><trkpt lat="50.802" lon="-100.0"/><trkpt lat="51.0086" lon="-99.02"/><trkpt lat="51.0126" lon="-99.0"/><trkpt lat="51.2117" lon="-98.0"/><trkpt lat="51.4104" lon="-97.0"/><trkpt lat="51.5993" lon="-96.0"/><trkpt lat="51.782" lon="-95.0"/><trkpt lat="51.9577" lon="-94.0"/><trkpt lat="52.0087" lon="-93.71"/><trkpt lat="52.1272" lon="-93.0"/><trkpt lat="52.2921" lon="-92.0"/><trkpt lat="52.449" lon="-91.0"/><trkpt lat="52.5994" lon="-90.0"/><trkpt lat="52.7431" lon="-89.0"/><trkpt lat="52.8795" lon="-88.0"/><trkpt lat="53.0016" lon="-87.07"/><trkpt lat="53.0109" lon="-87.0"/><trkpt lat="53.1375" lon="-86.0"/><trkpt lat="53.2565" lon="-85.0"/><trkpt lat="53.3696" lon="-84.0"/><trkpt lat="53.4766" lon="-83.0"/><trkpt lat="53.5753" lon="-82.0"/><trkpt lat="53.6685" lon="-81.0"/><trkpt lat="53.7578" lon="-80.0"/><trkpt lat="53.8384" lon="-79.0"/><trkpt lat="53.9135" lon="-78.0"/><trkpt lat="53.9818" lon="-77.0"/><trkpt lat="54.0125" lon="-76.48"/><trkpt lat="54.0392" lon="-76.0"/><trkpt lat="54.0932" lon="-75.0"/><trkpt lat="54.1361" lon="-74.0"/><trkpt lat="54.1755" lon="-73.0"/><trkpt lat="54.2096" lon="-72.0"/><trkpt lat="54.238" lon="-71.0"/><trkpt lat="54.2599" lon="-70.0"/><trkpt lat="54.2576" lon="-69.0"/><trkpt lat="54.2602" lon="-68.0"/><trkpt lat="54.2629" lon="-67.0"/><trkpt lat="54.256" lon="-66.0"/><trkpt lat="54.2347" lon="-65.0"/><trkpt lat="54.2071" lon="-64.0"/><trkpt lat="54.178" lon="-63.0"/><trkpt lat="54.1392" lon="-62.0"/><trkpt lat="54.0898" lon="-61.0"/><trkpt lat="54.0337" lon="-60.0"/><trkpt lat="54.0078" lon="-59.63"/><trkpt lat="53.9653" lon="-59.0"/><trkpt lat="53.8905" lon="-58.0"/><trkpt lat="53.8073" lon="-57.0"/><trkpt lat="53.7168" lon="-56.0"/><trkpt lat="53.6243" lon="-55.0"/><trkpt lat="53.525" lon="-54.0"/><trkpt lat="53.4088" lon="-53.0"/><trkpt lat="53.286" lon="-52.0"/><trkpt lat="53.156" lon="-51.0"/><trkpt lat="53.0153" lon="-50.0"/><trkpt lat="53.0095" lon="-49.96"/><trkpt lat="52.8622" lon="-49.0"/><trkpt lat="52.7027" lon="-48.0"/><trkpt lat="52.5289" lon="-47.0"/><trkpt lat="52.3459" lon="-46.0"/><trkpt lat="52.1554" lon="-45.0"/><trkpt lat="52.0068" lon="-44.26"/><trkpt lat="51.9524" lon="-44.0"/><trkpt lat="51.7397" lon="-43.0"/><trkpt lat="51.5144" lon="-42.0"/><trkpt lat="51.2799" lon="-41.0"/><trkpt lat="51.0336" lon="-40.0"/><trkpt lat="51.0107" lon="-39.91"/><trkpt lat="50.7718" lon="-39.0"/><trkpt lat="50.4976" lon="-38.0"/><trkpt lat="50.2126" lon="-37.0"/><trkpt lat="50.0124" lon="-36.32"/><trkpt lat="49.9137" lon="-36.0"/><trkpt lat="49.6005" lon="-35.0"/><trkpt lat="49.2726" lon="-34.0"/><trkpt lat="49.0136" lon="-33.24"/><trkpt lat="48.931" lon="-33.0"/><trkpt lat="48.572" lon="-32.0"/><trkpt lat="48.195" lon="-31.0"/><trkpt lat="48.0108" lon="-30.53"/><trkpt lat="47.8013" lon="-30.0"/><trkpt lat="47.3924" lon="-29.0"/><trkpt lat="47.0113" lon="-28.1"/><trkpt lat="46.9686" lon="-28.0"/><trkpt lat="46.5256" lon="-27.0"/><trkpt lat="46.0641" lon="-26.0"/><trkpt lat="46.0161" lon="-25.9"/><trkpt lat="45.5824" lon="-25.0"/><trkpt lat="45.0774" lon="-24.0"/><trkpt lat="45.0095" lon="-23.87"/><trkpt lat="44.5613" lon="-23.0"/><trkpt lat="44.021" lon="-22.0"/><trkpt lat="44.021" lon="-22.0"/><trkpt lat="43.4545" lon="-21.0"/><trkpt lat="43.019" lon="-20.26"/><trkpt lat="42.8611" lon="-20.0"/><trkpt lat="42.2477" lon="-19.0"/><trkpt lat="42.009" lon="-18.62"/><trkpt lat="41.6085" lon="-18.0"/><trkpt lat="41.0028" lon="-17.08"/><trkpt lat="40.9492" lon="-17.0"/><trkpt lat="40.2686" lon="-16.0"/><trkpt lat="40.0052" lon="-15.62"/><trkpt lat="39.5691" lon="-15.0"/><trkpt lat="39.0052" lon="-14.23"/><trkpt lat="38.8355" lon="-14.0"/><trkpt lat="38.0827" lon="-13.0"/><trkpt lat="38.006" lon="-12.9"/><trkpt lat="37.3062" lon="-12.0"/><trkpt lat="37.0002" lon="-11.62"/><trkpt lat="36.5011" lon="-11.0"/><trkpt lat="35.993" lon="-10.38"/><trkpt lat="35.6775" lon="-10.0"/><trkpt lat="34.9958" lon="-9.19"/><trkpt lat="34.8344" lon="-9.0"/><trkpt lat="33.9937" lon="-8.03"/><trkpt lat="33.9675" lon="-8.0"/><trkpt lat="33.0842" lon="-7.0"/><trkpt lat="32.9944" lon="-6.9"/><trkpt lat="32.1901" lon="-6.0"/><trkpt lat="31.9991" lon="-5.79"/><trkpt lat="31.2771" lon="-5.0"/><trkpt lat="31.002" lon="-4.7"/><trkpt lat="30.3546" lon="-4.0"/><trkpt lat="30.01" lon="-3.63"/><trkpt lat="29.4201" lon="-3.0"/><trkpt lat="29.006" lon="-2.56"/><trkpt lat="28.4776" lon="-2.0"/><trkpt lat="28.005" lon="-1.5"/><trkpt lat="27.5319" lon="-1.0"/><trkpt lat="27.0105" lon="-0.45"/><trkpt lat="26.5846" lon="0.0"/><trkpt lat="26.0074" lon="0.61"/><trkpt lat="25.6395" lon="1.0"/><trkpt lat="25.0079" lon="1.67"/><trkpt lat="24.6979" lon="2.0"/><trkpt lat="24.0043" lon="2.74"/><trkpt lat="23.7622" lon="3.0"/><trkpt lat="22.9966" lon="3.83"/><trkpt lat="22.8402" lon="4.0"/><trkpt lat="21.9975" lon="4.92"/><trkpt lat="21.9249" lon="5.0"/><trkpt lat="21.0305" lon="6.0"/><trkpt lat="20.9951" lon="6.04"/><trkpt lat="20.1568" lon="7.0"/><trkpt lat="19.9934" lon="7.19"/><trkpt lat="19.2982" lon="8.0"/><trkpt lat="18.9926" lon="8.36"/><trkpt lat="18.4612" lon="9.0"/><trkpt lat="17.9991" lon="9.56"/><trkpt lat="17.6464" lon="10.0"/><trkpt lat="16.9969" lon="10.81"/><trkpt lat="16.8476" lon="11.0"/><trkpt lat="16.0711" lon="12.0"/><trkpt lat="16.0025" lon="12.09"/><trkpt lat="15.3204" lon="13.0"/><trkpt lat="15.0039" lon="13.43"/><trkpt lat="14.5871" lon="14.0"/><trkpt lat="14.0033" lon="14.82"/><trkpt lat="13.8784" lon="15.0"/><trkpt lat="13.1945" lon="16.0"/><trkpt lat="13.0077" lon="16.28"/><trkpt lat="12.5334" lon="17.0"/><trkpt lat="12.0154" lon="17.81"/><trkpt lat="11.8959" lon="18.0"/><trkpt lat="11.2759" lon="19.0"/><trkpt lat="11.0154" lon="19.43"/><trkpt lat="10.6745" lon="20.0"/><trkpt lat="10.0921" lon="21.0"/><trkpt lat="10.017" lon="21.13"/><trkpt lat="9.529" lon="22.0"/><trkpt lat="9.0071" lon="22.95"/><trkpt lat="8.9803" lon="23.0"/><trkpt lat="8.4603" lon="24.0"/><trkpt lat="8.0082" lon="24.89"/><trkpt lat="7.9547" lon="25.0"/><trkpt lat="7.4677" lon="26.0"/><trkpt lat="7.0106" lon="26.97"/><trkpt lat="6.9974" lon="27.0"/><trkpt lat="6.5443" lon="28.0"/><trkpt lat="6.1102" lon="29.0"/><trkpt lat="6.0114" lon="29.23"/><trkpt lat="5.6884" lon="30.0"/><trkpt lat="5.288" lon="31.0"/><trkpt lat="5.0148" lon="31.7"/><trkpt lat="4.8994" lon="32.0"/><trkpt lat="4.5229" lon="33.0"/><trkpt lat="4.1629" lon="34.0"/><trkpt lat="4.0115" lon="34.43"/><trkpt lat="3.8147" lon="35.0"/><trkpt lat="3.4812" lon="36.0"/><trkpt lat="3.1586" lon="37.0"/><trkpt lat="3.0069" lon="37.48"/></trkseg></trk>
</gpx>
