<?xml version="1.0" encoding="UTF-8"?>
<gpx version="1.1" creator="https://occult.alokm.com" xmlns="http://www.topografix.com/GPX/1/1">
<metadata><name>The Moon occults Jupiter — 2026-11-30 — graze limits</name></metadata>
<trk><name>north graze limit</name><trkseg><trkpt lat="-26.6722" lon="-112.0"/><trkpt lat="-26.4616" lon="-111.0"/><trkpt lat="-26.2624" lon="-110.0"/><trkpt lat="-26.0769" lon="-109.0"/><trkpt lat="-25.9943" lon="-108.54"/><trkpt lat="-25.8992" lon="-108.0"/><trkpt lat="-25.7316" lon="-107.0"/><trkpt lat="-25.5765" lon="-106.0"/><trkpt lat="-25.4388" lon="-105.0"/><trkpt lat="-25.3074" lon="-104.0"/><trkpt lat="-25.192" lon="-103.0"/><trkpt lat="-25.0888" lon="-102.0"/><trkpt lat="-25.0071" lon="-101.0"/><trkpt lat="-24.9801" lon="-100.64"/><trkpt lat="-24.9436" lon="-100.0"/><trkpt lat="-24.889" lon="-99.0"/><trkpt lat="-24.8475" lon="-98.0"/><trkpt lat="-24.8473" lon="-97.0"/><trkpt lat="-24.8429" lon="-96.0"/><trkpt lat="-24.8614" lon="-95.0"/><trkpt lat="-24.9092" lon="-94.0"/><trkpt lat="-24.9714" lon="-93.0"/><trkpt lat="-24.9841" lon="-92.83"/><trkpt lat="-25.0585" lon="-92.0"/><trkpt lat="-25.1733" lon="-91.0"/><trkpt lat="-25.3052" lon="-90.0"/><trkpt lat="-25.4548" lon="-89.0"/><trkpt lat="-25.6355" lon="-88.0"/><trkpt lat="-25.8378" lon="-87.0"/><trkpt lat="-25.9802" lon="-86.38"/><trkpt lat="-26.0757" lon="-86.0"/><trkpt lat="-26.3411" lon="-85.0"/><trkpt lat="-26.6405" lon="-84.0"/><trkpt lat="-26.9676" lon="-83.0"/><trkpt lat="-26.9892" lon="-82.94"/><trkpt lat="-27.329" lon="-82.0"/><trkpt lat="-27.7155" lon="-81.0"/><trkpt lat="-27.9855" lon="-80.36"/><trkpt lat="-28.1414" lon="-80.0"/><trkpt lat="-28.6051" lon="-79.0"/><trkpt lat="-28.9778" lon="-78.24"/><trkpt lat="-29.0978" lon="-78.0"/><trkpt lat="-29.6326" lon="-77.0"/><trkpt lat="-29.9682" lon="-76.4"/><trkpt lat="-30.2024" lon="-76.0"/><trkpt lat="-30.8097" lon="-75.0"/><trkpt lat="-30.9633" lon="-74.76"/><trkpt lat="-31.4656" lon="-74.0"/><trkpt lat="-31.972" lon="-73.27"/><trkpt lat="-32.162" lon="-73.0"/><trkpt lat="-32.8883" lon="-72.0"/><trkpt lat="-32.9713" lon="-71.89"/><trkpt lat="-33.6511" lon="-71.0"/><trkpt lat="-33.9663" lon="-70.6"/><trkpt lat="-34.4506" lon="-70.0"/><trkpt lat="-34.9637" lon="-69.38"/><trkpt lat="-35.284" lon="-69.0"/><trkpt lat="-35.9607" lon="-68.22"/><trkpt lat="-36.1585" lon="-68.0"/><trkpt lat="-36.9577" lon="-67.1"/><trkpt lat="-37.0488" lon="-67.0"/><trkpt lat="-37.9604" lon="-66.02"/><trkpt lat="-37.9798" lon="-66.0"/><trkpt lat="-38.933" lon="-65.0"/><trkpt lat="-38.9715" lon="-64.96"/><trkpt lat="-39.9048" lon="-64.0"/><trkpt lat="-39.9635" lon="-63.94"/><trkpt lat="-40.8961" lon="-63.0"/><trkpt lat="-40.9757" lon="-62.92"/><trkpt lat="-41.8918" lon="-62.0"/><trkpt lat="-41.9719" lon="-61.92"/><trkpt lat="-42.9027" lon="-61.0"/><trkpt lat="-42.9737" lon="-60.93"/><trkpt lat="-43.9216" lon="-60.0"/><trkpt lat="-43.9724" lon="-59.95"/><trkpt lat="-44.9306" lon="-59.0"/><trkpt lat="-44.9611" lon="-58.97"/><trkpt lat="-45.9471" lon="-58.0"/><trkpt lat="-45.9674" lon="-57.98"/><trkpt lat="-46.9542" lon="-57.0"/><trkpt lat="-46.9643" lon="-56.99"/><trkpt lat="-47.9529" lon="-56.0"/><trkpt lat="-47.9629" lon="-55.99"/><trkpt lat="-48.954" lon="-55.0"/><trkpt lat="-48.9638" lon="-54.99"/><trkpt lat="-49.9281" lon="-54.0"/><trkpt lat="-49.9571" lon="-53.97"/><trkpt lat="-50.8948" lon="-53.0"/><trkpt lat="-50.9621" lon="-52.93"/><trkpt lat="-51.8456" lon="-52.0"/><trkpt lat="-51.9594" lon="-51.88"/><trkpt lat="-52.7857" lon="-51.0"/><trkpt lat="-52.959" lon="-50.81"/><trkpt lat="-53.6998" lon="-50.0"/><trkpt lat="-53.9621" lon="-49.71"/><trkpt lat="-54.6005" lon="-49.0"/><trkpt lat="-54.9719" lon="-48.58"/><trkpt lat="-55.4733" lon="-48.0"/><trkpt lat="-55.9697" lon="-47.43"/><trkpt lat="-56.3346" lon="-47.0"/><trkpt lat="-56.9657" lon="-46.24"/><trkpt lat="-57.1635" lon="-46.0"/><trkpt lat="-57.9579" lon="-45.02"/><trkpt lat="-57.974" lon="-45.0"/><trkpt lat="-58.7665" lon="-44.0"/><trkpt lat="-58.9604" lon="-43.75"/><trkpt lat="-59.5422" lon="-43.0"/><trkpt lat="-59.9674" lon="-42.44"/><trkpt lat="-60.2946" lon="-42.0"/><trkpt lat="-60.9697" lon="-41.08"/><trkpt lat="-61.0274" lon="-41.0"/><trkpt lat="-61.7374" lon="-40.0"/><trkpt lat="-61.97" lon="-39.67"/><trkpt lat="-62.4303" lon="-39.0"/><trkpt lat="-62.9756" lon="-38.19"/><trkpt lat="-63.1031" lon="-38.0"/><trkpt lat="-63.7556" lon="-37.0"/><trkpt lat="-63.9844" lon="-36.64"/><trkpt lat="-64.3868" lon="-36.0"/><trkpt lat="-64.9827" lon="-35.02"/><trkpt lat="-64.9949" lon="-35.0"/><trkpt lat="-65.5839" lon="-34.0"/><trkpt lat="-65.9823" lon="-33.31"/><trkpt lat="-66.1603" lon="-33.0"/><trkpt lat="-66.7147" lon="-32.0"/><trkpt lat="-66.9854" lon="-31.5"/><trkpt lat="-67.2538" lon="-31.0"/><trkpt lat="-67.7743" lon="-30.0"/><trkpt lat="-67.9909" lon="-29.58"/><trkpt lat="-68.2797" lon="-29.0"/><trkpt lat="-68.7647" lon="-28.0"/><trkpt lat="-68.9834" lon="-27.54"/><trkpt lat="-69.2355" lon="-27.0"/><trkpt lat="-69.6904" lon="-26.0"/><trkpt lat="-69.9858" lon="-25.34"/><trkpt lat="-70.1328" lon="-25.0"/></trkseg></trk>
</gpx>
