<?xml version="1.0" encoding="UTF-8"?>
<gpx version="1.1" creator="https://occult.alokm.com" xmlns="http://www.topografix.com/GPX/1/1">
<metadata><name>The Moon occults Jupiter — 2027-02-20 — graze limits</name></metadata>
<trk><name>north graze limit</name><trkseg><trkpt lat="-27.4833" lon="-146.0"/><trkpt lat="-27.2264" lon="-145.0"/><trkpt lat="-26.9918" lon="-144.05"/><trkpt lat="-26.9798" lon="-144.0"/><trkpt lat="-26.743" lon="-143.0"/><trkpt lat="-26.5198" lon="-142.0"/><trkpt lat="-26.3102" lon="-141.0"/><trkpt lat="-26.1068" lon="-140.0"/><trkpt lat="-25.9936" lon="-139.42"/><trkpt lat="-25.9161" lon="-139.0"/><trkpt lat="-25.7364" lon="-138.0"/><trkpt lat="-25.5754" lon="-137.0"/><trkpt lat="-25.423" lon="-136.0"/><trkpt lat="-25.2828" lon="-135.0"/><trkpt lat="-25.159" lon="-134.0"/><trkpt lat="-25.0553" lon="-133.0"/><trkpt lat="-24.9827" lon="-132.23"/><trkpt lat="-24.9652" lon="-132.0"/><trkpt lat="-24.8954" lon="-131.0"/><trkpt lat="-24.832" lon="-130.0"/><trkpt lat="-24.8086" lon="-129.0"/><trkpt lat="-24.7911" lon="-128.0"/><trkpt lat="-24.7823" lon="-127.0"/><trkpt lat="-24.8156" lon="-126.0"/><trkpt lat="-24.848" lon="-125.0"/><trkpt lat="-24.9128" lon="-124.0"/><trkpt lat="-24.991" lon="-123.18"/><trkpt lat="-25.0083" lon="-123.0"/><trkpt lat="-25.1287" lon="-122.0"/><trkpt lat="-25.2669" lon="-121.0"/><trkpt lat="-25.4135" lon="-120.0"/><trkpt lat="-25.6046" lon="-119.0"/><trkpt lat="-25.8159" lon="-118.0"/><trkpt lat="-25.9857" lon="-117.29"/><trkpt lat="-26.0622" lon="-117.0"/><trkpt lat="-26.3361" lon="-116.0"/><trkpt lat="-26.6392" lon="-115.0"/><trkpt lat="-26.9735" lon="-114.0"/><trkpt lat="-26.991" lon="-113.95"/><trkpt lat="-27.3421" lon="-113.0"/><trkpt lat="-27.7358" lon="-112.0"/><trkpt lat="-27.9834" lon="-111.41"/><trkpt lat="-28.1643" lon="-111.0"/><trkpt lat="-28.6354" lon="-110.0"/><trkpt lat="-28.9808" lon="-109.3"/><trkpt lat="-29.1318" lon="-109.0"/><trkpt lat="-29.6703" lon="-108.0"/><trkpt lat="-29.9747" lon="-107.46"/><trkpt lat="-30.2453" lon="-107.0"/><trkpt lat="-30.8494" lon="-106.0"/><trkpt lat="-30.9741" lon="-105.8"/><trkpt lat="-31.4946" lon="-105.0"/><trkpt lat="-31.9775" lon="-104.29"/><trkpt lat="-32.1806" lon="-104.0"/><trkpt lat="-32.8928" lon="-103.0"/><trkpt lat="-32.982" lon="-102.88"/><trkpt lat="-33.6385" lon="-102.0"/><trkpt lat="-33.9854" lon="-101.55"/><trkpt lat="-34.4168" lon="-101.0"/><trkpt lat="-34.9865" lon="-100.29"/><trkpt lat="-35.2209" lon="-100.0"/><trkpt lat="-35.9809" lon="-99.09"/><trkpt lat="-36.0571" lon="-99.0"/><trkpt lat="-36.9182" lon="-98.0"/><trkpt lat="-36.9796" lon="-97.93"/><trkpt lat="-37.8069" lon="-97.0"/><trkpt lat="-37.9847" lon="-96.8"/><trkpt lat="-38.7029" lon="-96.0"/><trkpt lat="-38.9773" lon="-95.7"/><trkpt lat="-39.6259" lon="-95.0"/><trkpt lat="-39.9806" lon="-94.62"/><trkpt lat="-40.5629" lon="-94.0"/><trkpt lat="-40.9873" lon="-93.55"/><trkpt lat="-41.5089" lon="-93.0"/><trkpt lat="-41.9852" lon="-92.5"/><trkpt lat="-42.4632" lon="-92.0"/><trkpt lat="-42.9805" lon="-91.46"/><trkpt lat="-43.4219" lon="-91.0"/><trkpt lat="-43.9798" lon="-90.42"/><trkpt lat="-44.3833" lon="-90.0"/><trkpt lat="-44.9781" lon="-89.38"/><trkpt lat="-45.3429" lon="-89.0"/><trkpt lat="-45.9894" lon="-88.33"/><trkpt lat="-46.3085" lon="-88.0"/><trkpt lat="-46.989" lon="-87.29"/><trkpt lat="-47.2613" lon="-87.0"/><trkpt lat="-47.985" lon="-86.23"/><trkpt lat="-48.203" lon="-86.0"/><trkpt lat="-48.9821" lon="-85.17"/><trkpt lat="-49.141" lon="-85.0"/><trkpt lat="-49.9841" lon="-84.09"/><trkpt lat="-50.0668" lon="-84.0"/><trkpt lat="-50.9808" lon="-83.0"/><trkpt lat="-50.9808" lon="-83.0"/><trkpt lat="-51.8836" lon="-82.0"/><trkpt lat="-51.9903" lon="-81.88"/><trkpt lat="-52.7698" lon="-81.0"/><trkpt lat="-52.9896" lon="-80.75"/><trkpt lat="-53.6396" lon="-80.0"/><trkpt lat="-53.9789" lon="-79.6"/><trkpt lat="-54.4922" lon="-79.0"/><trkpt lat="-54.9897" lon="-78.41"/><trkpt lat="-55.3282" lon="-78.0"/><trkpt lat="-55.9802" lon="-77.2"/><trkpt lat="-56.1419" lon="-77.0"/><trkpt lat="-56.9408" lon="-76.0"/><trkpt lat="-56.9803" lon="-75.95"/><trkpt lat="-57.7225" lon="-75.0"/><trkpt lat="-57.9805" lon="-74.67"/><trkpt lat="-58.4922" lon="-74.0"/><trkpt lat="-58.9833" lon="-73.35"/><trkpt lat="-59.2404" lon="-73.0"/><trkpt lat="-59.9652" lon="-72.0"/><trkpt lat="-59.9798" lon="-71.98"/><trkpt lat="-60.679" lon="-71.0"/><trkpt lat="-60.9779" lon="-70.57"/><trkpt lat="-61.3714" lon="-70.0"/><trkpt lat="-61.9779" lon="-69.1"/><trkpt lat="-62.0458" lon="-69.0"/><trkpt lat="-62.7083" lon="-68.0"/><trkpt lat="-62.9847" lon="-67.57"/><trkpt lat="-63.3454" lon="-67.0"/><trkpt lat="-63.9638" lon="-66.0"/><trkpt lat="-63.9822" lon="-65.97"/><trkpt lat="-64.5634" lon="-65.0"/><trkpt lat="-64.9828" lon="-64.29"/><trkpt lat="-65.1505" lon="-64.0"/><trkpt lat="-65.7249" lon="-63.0"/><trkpt lat="-65.9868" lon="-62.53"/><trkpt lat="-66.2815" lon="-62.0"/><trkpt lat="-66.8229" lon="-61.0"/><trkpt lat="-66.9969" lon="-60.67"/><trkpt lat="-67.3439" lon="-60.0"/></trkseg></trk>
</gpx>
