<?xml version="1.0" encoding="UTF-8"?>
<kml xmlns="http://www.opengis.net/kml/2.2"><Document><name>The Moon occults Jupiter — 2026-10-06</name>
<description>Graze limits from https://occult.alokm.com/jupiter-2026-10-06, traced against the real lunar limb (LRO LOLA).</description>
<Style id="graze"><LineStyle><color>ff06b6d9</color><width>4</width></LineStyle></Style>
<Placemark><name>south graze limit</name><styleUrl>#graze</styleUrl><LineString><tessellate>1</tessellate><coordinates>24.0,-28.3807,0 23.0,-28.0679,0 22.88,-28.0288,0 22.0,-27.741,0 21.0,-27.4076,0 20.0,-27.0605,0 19.85,-27.0093,0 19.0,-26.7102,0 18.0,-26.3496,0 17.07,-26.0046,0 17.0,-25.9782,0 16.0,-25.597,0 15.0,-25.2124,0 14.5,-25.014,0 14.0,-24.8115,0 13.0,-24.3948,0 12.11,-24.0073,0 12.0,-23.9605,0 11.0,-23.5141,0 10.0,-23.0548,0 9.88,-22.9992,0 9.0,-22.5869,0 8.0,-22.1078,0 7.79,-22.0087,0 7.0,-21.6304,0 6.0,-21.1222,0 5.81,-21.0226,0 5.0,-20.5895,0 4.0,-20.0471,0 3.94,-20.0127,0 3.0,-19.4894,0 2.17,-19.022,0 2.0,-18.9241,0 1.0,-18.3368,0 0.48,-18.026,0 0.0,-17.734,0 -1.0,-17.1094,0 -1.14,-17.0214,0 -2.0,-16.471,0 -2.68,-16.0269,0 -3.0,-15.8075,0 -4.0,-15.1327,0 -4.16,-15.0209,0 -5.0,-14.4389,0 -5.57,-14.0347,0 -6.0,-13.7204,0 -6.94,-13.025,0 -7.0,-12.9797,0 -8.0,-12.2191,0 -8.26,-12.0189,0 -9.0,-11.4454,0 -9.54,-11.0167,0 -10.0,-10.6463,0 -10.77,-10.0166,0 -11.0,-9.8258,0 -11.97,-9.0137,0 -12.0,-8.9879,0 -13.0,-8.1299,0 -13.14,-8.0086,0 -14.0,-7.2531,0 -14.28,-7.0057,0 -15.0,-6.3602,0 -15.39,-6.0076,0 -16.0,-5.4535,0 -16.48,-5.0122,0 -17.0,-4.5282,0 -17.55,-4.0133,0 -18.0,-3.5893,0 -18.61,-3.0059,0 -19.0,-2.6311,0 -19.65,-2.0039,0 -20.0,-1.667,0 -20.69,-0.9991,0 -21.0,-0.6979,0 -21.71,-0.0062,0 -22.0,0.2769,0 -22.74,0.9997,0 -23.0,1.2536,0 -23.76,1.9947,0 -24.0,2.2288,0 -24.79,2.9966,0 -25.0,3.2003,0 -25.83,3.9953,0 -26.0,4.1573,0 -26.88,4.9914,0 -27.0,5.1051,0 -27.95,5.9917,0 -28.0,6.0385,0 -29.0,6.9559,0 -29.04,6.9921,0 -30.0,7.8485,0 -30.16,7.9897,0 -31.0,8.7158,0 -31.32,8.9868,0 -32.0,9.5534,0 -32.53,9.985,0 -33.0,10.3633,0 -33.78,10.9786,0 -34.0,11.1462,0 -35.0,11.8894,0 -35.11,11.9684,0 -36.0,12.613,0 -36.53,12.981,0 -37.0,13.2955,0 -38.0,13.9534,0 -38.04,13.9785,0 -39.0,14.5737,0 -39.69,14.9895,0 -40.0,15.1739,0 -41.0,15.722,0 -41.5,15.9786,0 -42.0,16.2503,0 -43.0,16.7504,0 -43.53,16.9906,0 -44.0,17.2018,0 -45.0,17.6303,0 -45.87,17.9946,0 -46.0,18.0435,0 -47.0,18.4182,0 -48.0,18.7532,0 -48.68,18.9653,0 -49.0,19.0633,0 -50.0,19.3555,0 -51.0,19.6334,0 -52.0,19.8998,0 -52.29,19.9733,0 -53.0,20.137,0 -54.0,20.341,0 -55.0,20.5275,0 -56.0,20.7091,0 -57.0,20.8654,0 -57.89,20.9782,0 -58.0,20.9921,0 -59.0,21.1217,0 -60.0,21.2287,0 -61.0,21.3128,0 -62.0,21.3782,0 -63.0,21.4206,0 -64.0,21.4426,0 -65.0,21.4558,0 -66.0,21.4793,0 -67.0,21.4778,0 -68.0,21.455,0 -69.0,21.42,0 -70.0,21.3731,0 -71.0,21.3156,0 -72.0,21.2407,0 -73.0,21.1567,0 -74.0,21.0628,0 -74.55,21.0023,0 -75.0,20.9514,0 -76.0,20.8359,0 -77.0,20.7102,0 -78.0,20.5757,0 -79.0,20.4332,0 -80.0,20.2788,0 -81.0,20.1143,0 -81.69,19.9967,0 -82.0,19.945,0 -83.0,19.7661,0 -84.0,19.5751,0 -85.0,19.3762,0 -86.0,19.1721,0 -86.84,18.9926,0 -87.0,18.9584,0 -88.0,18.732,0 -89.0,18.508,0 -90.0,18.2773,0 -91.0,18.0361,0 -91.19,17.9916,0 -92.0,17.7915,0 -93.0,17.5368,0</coordinates></LineString></Placemark>
<Placemark><name>north graze limit</name><styleUrl>#graze</styleUrl><LineString><tessellate>1</tessellate><coordinates>-109.0,48.6534,0 -108.0,48.916,0 -107.68,48.9997,0 -107.0,49.1767,0 -106.0,49.4305,0 -105.0,49.6676,0 -104.0,49.9045,0 -103.59,50.0014,0 -103.0,50.138,0 -102.0,50.3626,0 -101.0,50.583,0 -100.0,50.802,0 -99.02,51.0086,0 -99.0,51.0126,0 -98.0,51.2117,0 -97.0,51.4104,0 -96.0,51.5993,0 -95.0,51.782,0 -94.0,51.9577,0 -93.71,52.0087,0 -93.0,52.1272,0 -92.0,52.2921,0 -91.0,52.449,0 -90.0,52.5994,0 -89.0,52.7431,0 -88.0,52.8795,0 -87.07,53.0016,0 -87.0,53.0109,0 -86.0,53.1375,0 -85.0,53.2565,0 -84.0,53.3696,0 -83.0,53.4766,0 -82.0,53.5753,0 -81.0,53.6685,0 -80.0,53.7578,0 -79.0,53.8384,0 -78.0,53.9135,0 -77.0,53.9818,0 -76.48,54.0125,0 -76.0,54.0392,0 -75.0,54.0932,0 -74.0,54.1361,0 -73.0,54.1755,0 -72.0,54.2096,0 -71.0,54.238,0 -70.0,54.2599,0 -69.0,54.2576,0 -68.0,54.2602,0 -67.0,54.2629,0 -66.0,54.256,0 -65.0,54.2347,0 -64.0,54.2071,0 -63.0,54.178,0 -62.0,54.1392,0 -61.0,54.0898,0 -60.0,54.0337,0 -59.63,54.0078,0 -59.0,53.9653,0 -58.0,53.8905,0 -57.0,53.8073,0 -56.0,53.7168,0 -55.0,53.6243,0 -54.0,53.525,0 -53.0,53.4088,0 -52.0,53.286,0 -51.0,53.156,0 -50.0,53.0153,0 -49.96,53.0095,0 -49.0,52.8622,0 -48.0,52.7027,0 -47.0,52.5289,0 -46.0,52.3459,0 -45.0,52.1554,0 -44.26,52.0068,0 -44.0,51.9524,0 -43.0,51.7397,0 -42.0,51.5144,0 -41.0,51.2799,0 -40.0,51.0336,0 -39.91,51.0107,0 -39.0,50.7718,0 -38.0,50.4976,0 -37.0,50.2126,0 -36.32,50.0124,0 -36.0,49.9137,0 -35.0,49.6005,0 -34.0,49.2726,0 -33.24,49.0136,0 -33.0,48.931,0 -32.0,48.572,0 -31.0,48.195,0 -30.53,48.0108,0 -30.0,47.8013,0 -29.0,47.3924,0 -28.1,47.0113,0 -28.0,46.9686,0 -27.0,46.5256,0 -26.0,46.0641,0 -25.9,46.0161,0 -25.0,45.5824,0 -24.0,45.0774,0 -23.87,45.0095,0 -23.0,44.5613,0 -22.0,44.021,0 -22.0,44.021,0 -21.0,43.4545,0 -20.26,43.019,0 -20.0,42.8611,0 -19.0,42.2477,0 -18.62,42.009,0 -18.0,41.6085,0 -17.08,41.0028,0 -17.0,40.9492,0 -16.0,40.2686,0 -15.62,40.0052,0 -15.0,39.5691,0 -14.23,39.0052,0 -14.0,38.8355,0 -13.0,38.0827,0 -12.9,38.006,0 -12.0,37.3062,0 -11.62,37.0002,0 -11.0,36.5011,0 -10.38,35.993,0 -10.0,35.6775,0 -9.19,34.9958,0 -9.0,34.8344,0 -8.03,33.9937,0 -8.0,33.9675,0 -7.0,33.0842,0 -6.9,32.9944,0 -6.0,32.1901,0 -5.79,31.9991,0 -5.0,31.2771,0 -4.7,31.002,0 -4.0,30.3546,0 -3.63,30.01,0 -3.0,29.4201,0 -2.56,29.006,0 -2.0,28.4776,0 -1.5,28.005,0 -1.0,27.5319,0 -0.45,27.0105,0 0.0,26.5846,0 0.61,26.0074,0 1.0,25.6395,0 1.67,25.0079,0 2.0,24.6979,0 2.74,24.0043,0 3.0,23.7622,0 3.83,22.9966,0 4.0,22.8402,0 4.92,21.9975,0 5.0,21.9249,0 6.0,21.0305,0 6.04,20.9951,0 7.0,20.1568,0 7.19,19.9934,0 8.0,19.2982,0 8.36,18.9926,0 9.0,18.4612,0 9.56,17.9991,0 10.0,17.6464,0 10.81,16.9969,0 11.0,16.8476,0 12.0,16.0711,0 12.09,16.0025,0 13.0,15.3204,0 13.43,15.0039,0 14.0,14.5871,0 14.82,14.0033,0 15.0,13.8784,0 16.0,13.1945,0 16.28,13.0077,0 17.0,12.5334,0 17.81,12.0154,0 18.0,11.8959,0 19.0,11.2759,0 19.43,11.0154,0 20.0,10.6745,0 21.0,10.0921,0 21.13,10.017,0 22.0,9.529,0 22.95,9.0071,0 23.0,8.9803,0 24.0,8.4603,0 24.89,8.0082,0 25.0,7.9547,0 26.0,7.4677,0 26.97,7.0106,0 27.0,6.9974,0 28.0,6.5443,0 29.0,6.1102,0 29.23,6.0114,0 30.0,5.6884,0 31.0,5.288,0 31.7,5.0148,0 32.0,4.8994,0 33.0,4.5229,0 34.0,4.1629,0 34.43,4.0115,0 35.0,3.8147,0 36.0,3.4812,0 37.0,3.1586,0 37.48,3.0069,0</coordinates></LineString></Placemark>
</Document></kml>
