<?xml version="1.0" encoding="UTF-8"?>
<gpx version="1.1" creator="https://occult.alokm.com" xmlns="http://www.topografix.com/GPX/1/1">
<metadata><name>The Moon occults Jupiter — 2027-03-19 — graze limits</name></metadata>
<trk><name>north graze limit</name><trkseg><trkpt lat="-12.1928" lon="118.0"/><trkpt lat="-12.0026" lon="118.68"/><trkpt lat="-11.9163" lon="119.0"/><trkpt lat="-11.6445" lon="120.0"/><trkpt lat="-11.3819" lon="121.0"/><trkpt lat="-11.1245" lon="122.0"/><trkpt lat="-11.0021" lon="122.51"/><trkpt lat="-10.8821" lon="123.0"/><trkpt lat="-10.6445" lon="124.0"/><trkpt lat="-10.4121" lon="125.0"/><trkpt lat="-10.1944" lon="126.0"/><trkpt lat="-9.9943" lon="126.95"/><trkpt lat="-9.9838" lon="127.0"/><trkpt lat="-9.7855" lon="128.0"/><trkpt lat="-9.5985" lon="129.0"/><trkpt lat="-9.4224" lon="130.0"/><trkpt lat="-9.2594" lon="131.0"/><trkpt lat="-9.108" lon="132.0"/><trkpt lat="-8.9977" lon="132.76"/><trkpt lat="-8.9648" lon="133.0"/><trkpt lat="-8.8348" lon="134.0"/><trkpt lat="-8.7219" lon="135.0"/><trkpt lat="-8.6159" lon="136.0"/><trkpt lat="-8.5237" lon="137.0"/><trkpt lat="-8.4504" lon="138.0"/><trkpt lat="-8.3934" lon="139.0"/><trkpt lat="-8.3473" lon="140.0"/><trkpt lat="-8.3277" lon="141.0"/><trkpt lat="-8.3178" lon="142.0"/><trkpt lat="-8.3269" lon="143.0"/><trkpt lat="-8.3517" lon="144.0"/><trkpt lat="-8.3965" lon="145.0"/><trkpt lat="-8.4676" lon="146.0"/><trkpt lat="-8.5626" lon="147.0"/><trkpt lat="-8.6648" lon="148.0"/><trkpt lat="-8.7912" lon="149.0"/><trkpt lat="-8.9407" lon="150.0"/><trkpt lat="-8.9907" lon="150.3"/><trkpt lat="-9.1189" lon="151.0"/><trkpt lat="-9.3209" lon="152.0"/><trkpt lat="-9.545" lon="153.0"/><trkpt lat="-9.7989" lon="154.0"/><trkpt lat="-9.9938" lon="154.72"/><trkpt lat="-10.0726" lon="155.0"/><trkpt lat="-10.3776" lon="156.0"/><trkpt lat="-10.7114" lon="157.0"/><trkpt lat="-10.989" lon="157.77"/><trkpt lat="-11.0743" lon="158.0"/><trkpt lat="-11.4687" lon="159.0"/><trkpt lat="-11.8958" lon="160.0"/><trkpt lat="-11.991" lon="160.21"/><trkpt lat="-12.3571" lon="161.0"/><trkpt lat="-12.844" lon="162.0"/><trkpt lat="-12.9921" lon="162.29"/><trkpt lat="-13.3649" lon="163.0"/><trkpt lat="-13.9213" lon="164.0"/><trkpt lat="-13.9965" lon="164.13"/><trkpt lat="-14.4985" lon="165.0"/><trkpt lat="-14.9827" lon="165.79"/><trkpt lat="-15.1145" lon="166.0"/><trkpt lat="-15.7652" lon="167.0"/><trkpt lat="-15.9803" lon="167.32"/><trkpt lat="-16.45" lon="168.0"/><trkpt lat="-16.9923" lon="168.76"/><trkpt lat="-17.1673" lon="169.0"/><trkpt lat="-17.9169" lon="170.0"/><trkpt lat="-17.9995" lon="170.11"/><trkpt lat="-18.6876" lon="171.0"/><trkpt lat="-19.0014" lon="171.4"/><trkpt lat="-19.483" lon="172.0"/><trkpt lat="-20.0034" lon="172.64"/><trkpt lat="-20.3025" lon="173.0"/><trkpt lat="-20.998" lon="173.83"/><trkpt lat="-21.143" lon="174.0"/><trkpt lat="-22.0002" lon="175.0"/><trkpt lat="-22.0002" lon="175.0"/><trkpt lat="-22.8744" lon="176.0"/><trkpt lat="-22.9981" lon="176.14"/><trkpt lat="-23.7612" lon="177.0"/><trkpt lat="-24.0021" lon="177.27"/><trkpt lat="-24.6577" lon="178.0"/><trkpt lat="-25.0004" lon="178.38"/><trkpt lat="-25.5632" lon="179.0"/><trkpt lat="-26.0005" lon="179.48"/><trkpt lat="-26.4744" lon="180.0"/></trkseg></trk>
<trk><name>north graze limit</name><trkseg><trkpt lat="-26.4744" lon="-180.0"/><trkpt lat="-26.9941" lon="-179.43"/><trkpt lat="-27.3862" lon="-179.0"/><trkpt lat="-27.9971" lon="-178.33"/><trkpt lat="-28.2976" lon="-178.0"/><trkpt lat="-28.9958" lon="-177.23"/><trkpt lat="-29.204" lon="-177.0"/><trkpt lat="-29.9994" lon="-176.12"/><trkpt lat="-30.1077" lon="-176.0"/><trkpt lat="-31.0034" lon="-175.0"/><trkpt lat="-31.0034" lon="-175.0"/><trkpt lat="-31.8908" lon="-174.0"/><trkpt lat="-31.9973" lon="-173.88"/><trkpt lat="-32.7666" lon="-173.0"/><trkpt lat="-33.0003" lon="-172.73"/><trkpt lat="-33.6304" lon="-172.0"/><trkpt lat="-34.0058" lon="-171.56"/><trkpt lat="-34.4801" lon="-171.0"/><trkpt lat="-35.0003" lon="-170.38"/><trkpt lat="-35.3162" lon="-170.0"/><trkpt lat="-36.0052" lon="-169.16"/><trkpt lat="-36.1355" lon="-169.0"/><trkpt lat="-36.9401" lon="-168.0"/><trkpt lat="-37.0032" lon="-167.92"/><trkpt lat="-37.7292" lon="-167.0"/><trkpt lat="-38.0016" lon="-166.65"/><trkpt lat="-38.5013" lon="-166.0"/><trkpt lat="-39.0013" lon="-165.34"/><trkpt lat="-39.2555" lon="-165.0"/><trkpt lat="-39.9891" lon="-164.0"/><trkpt lat="-39.9965" lon="-163.99"/><trkpt lat="-40.7108" lon="-163.0"/><trkpt lat="-40.9847" lon="-162.61"/><trkpt lat="-41.4148" lon="-162.0"/><trkpt lat="-41.9857" lon="-161.17"/><trkpt lat="-42.1018" lon="-161.0"/><trkpt lat="-42.778" lon="-160.0"/><trkpt lat="-42.9845" lon="-159.69"/><trkpt lat="-43.435" lon="-159.0"/><trkpt lat="-43.9892" lon="-158.14"/><trkpt lat="-44.079" lon="-158.0"/><trkpt lat="-44.7078" lon="-157.0"/><trkpt lat="-44.9935" lon="-156.54"/><trkpt lat="-45.3218" lon="-156.0"/><trkpt lat="-45.9266" lon="-155.0"/><trkpt lat="-45.9983" lon="-154.88"/><trkpt lat="-46.5099" lon="-154.0"/><trkpt lat="-46.9972" lon="-153.14"/><trkpt lat="-47.0754" lon="-153.0"/><trkpt lat="-47.6319" lon="-152.0"/><trkpt lat="-47.9956" lon="-151.32"/><trkpt lat="-48.1674" lon="-151.0"/><trkpt lat="-48.6931" lon="-150.0"/><trkpt lat="-48.9978" lon="-149.41"/><trkpt lat="-49.2059" lon="-149.0"/><trkpt lat="-49.7049" lon="-148.0"/><trkpt lat="-49.9999" lon="-147.4"/><trkpt lat="-50.1937" lon="-147.0"/><trkpt lat="-50.665" lon="-146.0"/><trkpt lat="-50.9978" lon="-145.29"/><trkpt lat="-51.1298" lon="-145.0"/><trkpt lat="-51.5768" lon="-144.0"/><trkpt lat="-51.9925" lon="-143.05"/><trkpt lat="-52.0145" lon="-143.0"/><trkpt lat="-52.4417" lon="-142.0"/><trkpt lat="-52.8594" lon="-141.0"/><trkpt lat="-52.9945" lon="-140.67"/><trkpt lat="-53.2679" lon="-140.0"/><trkpt lat="-53.6598" lon="-139.0"/><trkpt lat="-53.9928" lon="-138.14"/><trkpt lat="-54.0458" lon="-138.0"/><trkpt lat="-54.4211" lon="-137.0"/></trkseg></trk>
</gpx>
