<?xml version="1.0" encoding="UTF-8"?>
<kml xmlns="http://www.opengis.net/kml/2.2"><Document><name>The Moon occults Jupiter — 2026-11-02</name>
<description>Graze limits and visibility from https://occult.alokm.com/jupiter-2026-11-02. Solid limits are traced against the real lunar limb (LRO LOLA); the dotted line is the mean-sphere limit. Times in the city placemarks are IST, real limb.</description>
<Style id="exact"><LineStyle><color>ff06b6d9</color><width>4</width></LineStyle></Style>
<Style id="mean"><LineStyle><color>8006b6d9</color><width>2</width></LineStyle></Style>
<Style id="region"><LineStyle><color>80e6c07d</color><width>1</width></LineStyle><PolyStyle><color>3fe6c07d</color></PolyStyle></Style>
<Style id="night"><LineStyle><width>0</width></LineStyle><PolyStyle><color>3fed3ac4</color></PolyStyle></Style>
<Style id="city"><IconStyle><scale>0.8</scale></IconStyle></Style>
<Folder><name>Graze limits (real lunar limb)</name>
<Placemark><name>north limit — real limb</name><styleUrl>#exact</styleUrl><LineString><tessellate>1</tessellate><coordinates>66.0,13.843,0 66.23,13.8825,0 66.38,13.909,0 66.62,13.9479,0 66.88,13.991,0 67.0,14.011,0 67.25,14.053,0 67.5,14.0948,0 67.74,14.1331,0 67.88,14.1552,0 68.12,14.1929,0 68.38,14.2332,0 68.54,14.257,0 68.75,14.289,0 69.0,14.3259,0 69.25,14.3631,0 69.38,14.3816,0 69.62,14.4149,0 69.88,14.4527,0 70.12,14.4858,0 70.27,14.5064,0 70.5,14.5374,0 70.75,14.5707,0 71.0,14.6037,0 71.22,14.6315,0 71.38,14.6513,0 71.62,14.6811,0 71.88,14.712,0 72.12,14.7395,0 72.25,14.7546,0 72.5,14.784,0 72.75,14.8128,0 73.0,14.8407,0 73.25,14.8692,0 73.38,14.8832,0 73.62,14.9094,0 73.88,14.9354,0 74.12,14.961,0 74.38,14.9845,0 74.57,15.0058,0 74.75,15.0224,0 75.0,15.0445,0 75.25,15.0672,0 75.5,15.0882,0 75.75,15.1074,0 76.0,15.13,0 76.12,15.1397,0 76.38,15.1615,0 76.62,15.1795,0 76.88,15.1985,0 77.12,15.2165,0 77.38,15.2346,0 77.62,15.2499,0 77.77,15.2603,0 78.0,15.2751,0 78.25,15.2895,0 78.5,15.3011,0 78.75,15.3135,0 79.0,15.3272,0 79.25,15.3383,0 79.5,15.3482,0 79.75,15.3554,0 80.0,15.3659,0 80.25,15.3736,0 80.5,15.3817,0 80.62,15.3856,0 80.88,15.3934,0 81.12,15.4009,0 81.38,15.4075,0 81.63,15.4136,0 81.88,15.4147,0 82.12,15.4084,0 82.38,15.4094,0 82.62,15.4103,0 82.88,15.4094,0 83.12,15.4114,0 83.38,15.4122,0 83.62,15.4117,0 83.88,15.4096,0 84.12,15.4057,0 84.38,15.3969,0 84.62,15.3899,0 84.88,15.3837,0 85.0,15.3808,0 85.25,15.3745,0 85.5,15.3664,0 85.75,15.357,0 86.0,15.3459,0 86.25,15.3346,0 86.5,15.3231,0 86.75,15.3079,0 87.0,15.2916,0 87.25,15.2764,0 87.5,15.2573,0 87.62,15.2486,0 87.88,15.2303,0 88.12,15.2118,0 88.38,15.1916,0 88.62,15.1713,0 88.88,15.1474,0 89.12,15.1269,0 89.25,15.1165,0 89.5,15.0966,0 89.75,15.0736,0 90.0,15.0484,0 90.25,15.0196,0 90.38,15.0058,0 90.62,14.9785,0 90.88,14.9485,0 91.12,14.9215,0 91.38,14.8889,0 91.5,14.8738,0 91.75,14.842,0 92.0,14.8061,0 92.25,14.7712,0 92.38,14.7519,0 92.62,14.7161,0 92.88,14.679,0 93.12,14.6389,0 93.25,14.6183,0 93.5,14.5768,0 93.75,14.5353,0 93.92,14.5048,0 94.12,14.4677,0 94.38,14.4238,0 94.62,14.3807,0 94.75,14.3559,0 95.0,14.3079,0 95.25,14.2594,0 95.38,14.2333,0 95.62,14.1828,0 95.88,14.1311,0 96.0,14.1056,0 96.25,14.0529,0 96.46,14.007,0 96.62,13.971,0 96.88,13.9124,0 97.01,13.8824,0 97.25,13.8265,0 97.5,13.7656,0 97.62,13.7361,0 97.88,13.671,0</coordinates></LineString></Placemark>
</Folder><Folder><name>Mean-sphere limits</name>
<Placemark><name>north limit — mean sphere</name><styleUrl>#mean</styleUrl><LineString><tessellate>1</tessellate><coordinates>66.0,13.84,0 66.12,13.86,0 66.23,13.88,0 66.25,13.88,0 66.38,13.9,0 66.5,13.92,0 66.62,13.94,0 66.75,13.96,0 66.88,13.98,0 66.97,14.0,0 67.0,14.01,0 67.12,14.03,0 67.25,14.05,0 67.38,14.07,0 67.5,14.09,0 67.62,14.11,0 67.74,14.12,0 67.75,14.13,0 67.88,14.15,0 68.0,14.17,0 68.12,14.19,0 68.25,14.21,0 68.38,14.22,0 68.5,14.24,0 68.54,14.25,0 68.62,14.26,0 68.75,14.28,0 68.88,14.3,0 69.0,14.32,0 69.12,14.34,0 69.25,14.36,0 69.38,14.37,0 69.38,14.38,0 69.5,14.39,0 69.62,14.41,0 69.75,14.43,0 69.88,14.45,0 70.0,14.46,0 70.12,14.48,0 70.25,14.5,0 70.27,14.5,0 70.38,14.51,0 70.5,14.53,0 70.62,14.55,0 70.75,14.56,0 70.88,14.58,0 71.0,14.6,0 71.12,14.61,0 71.22,14.62,0 71.25,14.63,0 71.38,14.65,0 71.5,14.66,0 71.62,14.68,0 71.75,14.69,0 71.88,14.71,0 72.0,14.72,0 72.12,14.74,0 72.23,14.75,0 72.25,14.75,0 72.38,14.77,0 72.5,14.78,0 72.62,14.8,0 72.75,14.81,0 72.88,14.82,0 73.0,14.84,0 73.12,14.85,0 73.25,14.87,0 73.34,14.88,0 73.38,14.88,0 73.5,14.89,0 73.62,14.91,0 73.75,14.92,0 73.88,14.93,0 74.0,14.94,0 74.12,14.96,0 74.25,14.97,0 74.38,14.98,0 74.5,14.99,0 74.57,15.0,0 74.62,15.01,0 74.75,15.02,0 74.88,15.03,0 75.0,15.04,0 75.12,15.05,0 75.25,15.06,0 75.38,15.07,0 75.5,15.08,0 75.62,15.09,0 75.75,15.11,0 75.88,15.12,0 76.0,15.12,0 76.0,15.13,0 76.12,15.14,0 76.25,15.14,0 76.38,15.15,0 76.5,15.16,0 76.62,15.17,0 76.75,15.18,0 76.88,15.19,0 77.0,15.2,0 77.12,15.21,0 77.25,15.22,0 77.38,15.23,0 77.5,15.23,0 77.62,15.24,0 77.75,15.25,0 77.77,15.25,0 77.88,15.26,0 78.0,15.26,0 78.12,15.27,0 78.25,15.28,0 78.38,15.28,0 78.5,15.29,0 78.62,15.3,0 78.75,15.3,0 78.88,15.31,0 79.0,15.32,0 79.12,15.32,0 79.25,15.33,0 79.38,15.33,0 79.5,15.34,0 79.62,15.34,0 79.75,15.35,0 79.88,15.35,0 80.0,15.36,0 80.12,15.36,0 80.25,15.36,0 80.38,15.37,0 80.5,15.37,0 80.6,15.38,0 80.62,15.38,0 80.75,15.38,0 80.88,15.38,0 81.0,15.39,0 81.12,15.39,0 81.25,15.39,0 81.38,15.39,0 81.5,15.39,0 81.63,15.4,0 81.75,15.4,0 81.88,15.4,0 82.0,15.4,0 82.12,15.4,0 82.25,15.4,0 82.38,15.4,0 82.5,15.41,0 82.62,15.41,0 82.75,15.41,0 82.88,15.41,0 83.0,15.41,0 83.12,15.4,0 83.25,15.4,0 83.38,15.4,0 83.5,15.4,0 83.62,15.4,0 83.75,15.4,0 83.88,15.4,0 84.0,15.4,0 84.12,15.39,0 84.25,15.39,0 84.38,15.39,0 84.5,15.39,0 84.62,15.38,0 84.75,15.38,0 84.88,15.38,0 84.93,15.38,0 85.0,15.37,0 85.12,15.37,0 85.25,15.36,0 85.38,15.36,0 85.5,15.36,0 85.62,15.35,0 85.75,15.35,0 85.88,15.34,0 86.0,15.34,0 86.12,15.33,0 86.25,15.32,0 86.38,15.32,0 86.5,15.31,0 86.62,15.31,0 86.75,15.3,0 86.88,15.29,0 87.0,15.28,0 87.12,15.28,0 87.25,15.27,0 87.38,15.26,0 87.5,15.25,0 87.56,15.25,0 87.62,15.25,0 87.75,15.24,0 87.88,15.23,0 88.0,15.22,0 88.12,15.21,0 88.25,15.2,0 88.38,15.19,0 88.5,15.18,0 88.62,15.17,0 88.75,15.16,0 88.88,15.15,0 89.0,15.14,0 89.12,15.13,0 89.14,15.12,0 89.25,15.12,0 89.38,15.1,0 89.5,15.09,0 89.62,15.08,0 89.75,15.07,0 89.88,15.05,0 90.0,15.04,0 90.12,15.03,0 90.25,15.01,0 90.38,15.0,0 90.38,15.0,0 90.5,14.99,0 90.62,14.97,0 90.75,14.96,0 90.88,14.94,0 91.0,14.93,0 91.12,14.91,0 91.25,14.9,0 91.38,14.88,0 91.42,14.87,0 91.5,14.87,0 91.62,14.85,0 91.75,14.83,0 91.88,14.82,0 92.0,14.8,0 92.12,14.78,0 92.25,14.76,0 92.34,14.75,0 92.38,14.75,0 92.5,14.73,0 92.62,14.71,0 92.75,14.69,0 92.88,14.67,0 93.0,14.65,0 93.12,14.63,0 93.17,14.62,0 93.25,14.61,0 93.38,14.59,0 93.5,14.57,0 93.62,14.55,0 93.75,14.53,0 93.88,14.51,0 93.92,14.5,0 94.0,14.49,0 94.12,14.46,0 94.25,14.44,0 94.38,14.42,0 94.5,14.4,0 94.62,14.38,0 94.62,14.37,0 94.75,14.35,0 94.88,14.33,0 95.0,14.3,0 95.12,14.28,0 95.25,14.25,0 95.27,14.25,0 95.38,14.23,0 95.5,14.2,0 95.62,14.18,0 95.75,14.15,0 95.88,14.13,0 95.88,14.12,0 96.0,14.1,0 96.12,14.07,0 96.25,14.05,0 96.38,14.02,0 96.46,14.0,0 96.5,13.99,0 96.62,13.96,0 96.75,13.93,0 96.88,13.91,0 97.0,13.88,0 97.01,13.88,0 97.12,13.85,0 97.25,13.82,0 97.38,13.79,0 97.5,13.76,0 97.53,13.75,0 97.62,13.73,0 97.75,13.7,0 97.88,13.67,0 98.0,13.63,0</coordinates></LineString></Placemark>
</Folder><Folder><name>Visibility</name>
<Placemark><name>sees the occultation</name><styleUrl>#region</styleUrl><Polygon><outerBoundaryIs><LinearRing><coordinates>66.0,4.0,0 66.12,4.0,0 66.25,4.0,0 66.38,4.0,0 66.5,4.0,0 66.62,4.0,0 66.75,4.0,0 66.88,4.0,0 67.0,4.0,0 67.12,4.0,0 67.25,4.0,0 67.38,4.0,0 67.5,4.0,0 67.62,4.0,0 67.75,4.0,0 67.88,4.0,0 68.0,4.0,0 68.12,4.0,0 68.25,4.0,0 68.38,4.0,0 68.5,4.0,0 68.62,4.0,0 68.75,4.0,0 68.88,4.0,0 69.0,4.0,0 69.12,4.0,0 69.25,4.0,0 69.38,4.0,0 69.5,4.0,0 69.62,4.0,0 69.75,4.0,0 69.88,4.0,0 70.0,4.0,0 70.12,4.0,0 70.25,4.0,0 70.38,4.0,0 70.5,4.0,0 70.62,4.0,0 70.75,4.0,0 70.88,4.0,0 71.0,4.0,0 71.12,4.0,0 71.25,4.0,0 71.38,4.0,0 71.5,4.0,0 71.62,4.0,0 71.75,4.0,0 71.88,4.0,0 72.0,4.0,0 72.12,4.0,0 72.25,4.0,0 72.38,4.0,0 72.5,4.0,0 72.62,4.0,0 72.75,4.0,0 72.88,4.0,0 73.0,4.0,0 73.12,4.0,0 73.25,4.0,0 73.38,4.0,0 73.5,4.0,0 73.62,4.0,0 73.75,4.0,0 73.88,4.0,0 74.0,4.0,0 74.12,4.0,0 74.25,4.0,0 74.38,4.0,0 74.5,4.0,0 74.62,4.0,0 74.75,4.0,0 74.88,4.0,0 75.0,4.0,0 75.12,4.0,0 75.25,4.0,0 75.38,4.0,0 75.5,4.0,0 75.62,4.0,0 75.75,4.0,0 75.88,4.0,0 76.0,4.0,0 76.12,4.0,0 76.25,4.0,0 76.38,4.0,0 76.5,4.0,0 76.62,4.0,0 76.75,4.0,0 76.88,4.0,0 77.0,4.0,0 77.12,4.0,0 77.25,4.0,0 77.38,4.0,0 77.5,4.0,0 77.62,4.0,0 77.75,4.0,0 77.88,4.0,0 78.0,4.0,0 78.12,4.0,0 78.25,4.0,0 78.38,4.0,0 78.5,4.0,0 78.62,4.0,0 78.75,4.0,0 78.88,4.0,0 79.0,4.0,0 79.12,4.0,0 79.25,4.0,0 79.38,4.0,0 79.5,4.0,0 79.62,4.0,0 79.75,4.0,0 79.88,4.0,0 80.0,4.0,0 80.12,4.0,0 80.25,4.0,0 80.38,4.0,0 80.5,4.0,0 80.62,4.0,0 80.75,4.0,0 80.88,4.0,0 81.0,4.0,0 81.12,4.0,0 81.25,4.0,0 81.38,4.0,0 81.5,4.0,0 81.62,4.0,0 81.75,4.0,0 81.88,4.0,0 82.0,4.0,0 82.12,4.0,0 82.25,4.0,0 82.38,4.0,0 82.5,4.0,0 82.62,4.0,0 82.75,4.0,0 82.88,4.0,0 83.0,4.0,0 83.12,4.0,0 83.25,4.0,0 83.38,4.0,0 83.5,4.0,0 83.62,4.0,0 83.75,4.0,0 83.88,4.0,0 84.0,4.0,0 84.12,4.0,0 84.25,4.0,0 84.38,4.0,0 84.5,4.0,0 84.62,4.0,0 84.75,4.0,0 84.88,4.0,0 85.0,4.0,0 85.12,4.0,0 85.25,4.0,0 85.38,4.0,0 85.5,4.0,0 85.62,4.0,0 85.75,4.0,0 85.88,4.0,0 86.0,4.0,0 86.12,4.0,0 86.25,4.0,0 86.38,4.0,0 86.5,4.0,0 86.62,4.0,0 86.75,4.0,0 86.88,4.0,0 87.0,4.0,0 87.12,4.0,0 87.25,4.0,0 87.38,4.0,0 87.5,4.0,0 87.62,4.0,0 87.75,4.0,0 87.88,4.0,0 88.0,4.0,0 88.12,4.0,0 88.25,4.0,0 88.38,4.0,0 88.5,4.0,0 88.62,4.0,0 88.75,4.0,0 88.88,4.0,0 89.0,4.0,0 89.12,4.0,0 89.25,4.0,0 89.38,4.0,0 89.5,4.0,0 89.62,4.0,0 89.75,4.0,0 89.88,4.0,0 90.0,4.0,0 90.12,4.0,0 90.25,4.0,0 90.38,4.0,0 90.5,4.0,0 90.62,4.0,0 90.75,4.0,0 90.88,4.0,0 91.0,4.0,0 91.12,4.0,0 91.25,4.0,0 91.38,4.0,0 91.5,4.0,0 91.62,4.0,0 91.75,4.0,0 91.88,4.0,0 92.0,4.0,0 92.12,4.0,0 92.25,4.0,0 92.38,4.0,0 92.5,4.0,0 92.62,4.0,0 92.75,4.0,0 92.88,4.0,0 93.0,4.0,0 93.12,4.0,0 93.25,4.0,0 93.38,4.0,0 93.5,4.0,0 93.62,4.0,0 93.75,4.0,0 93.88,4.0,0 94.0,4.0,0 94.12,4.0,0 94.25,4.0,0 94.38,4.0,0 94.5,4.0,0 94.62,4.0,0 94.75,4.0,0 94.88,4.0,0 95.0,4.0,0 95.12,4.0,0 95.25,4.0,0 95.38,4.0,0 95.5,4.0,0 95.62,4.0,0 95.75,4.0,0 95.88,4.0,0 96.0,4.0,0 96.12,4.0,0 96.25,4.0,0 96.38,4.0,0 96.5,4.0,0 96.62,4.0,0 96.75,4.0,0 96.88,4.0,0 97.0,4.0,0 97.12,4.0,0 97.25,4.0,0 97.38,4.0,0 97.5,4.0,0 97.62,4.0,0 97.75,4.0,0 97.88,4.0,0 98.0,4.0,0 98.0,4.12,0 98.0,4.25,0 98.0,4.38,0 98.0,4.5,0 98.0,4.62,0 98.0,4.75,0 98.0,4.88,0 98.0,5.0,0 98.0,5.12,0 98.0,5.25,0 98.0,5.38,0 98.0,5.5,0 98.0,5.62,0 98.0,5.75,0 98.0,5.88,0 98.0,6.0,0 98.0,6.12,0 98.0,6.25,0 98.0,6.38,0 98.0,6.5,0 98.0,6.62,0 98.0,6.75,0 98.0,6.88,0 98.0,7.0,0 98.0,7.12,0 98.0,7.25,0 98.0,7.38,0 98.0,7.5,0 98.0,7.62,0 98.0,7.75,0 98.0,7.88,0 98.0,8.0,0 98.0,8.12,0 98.0,8.25,0 98.0,8.38,0 98.0,8.5,0 98.0,8.62,0 98.0,8.75,0 98.0,8.88,0 98.0,9.0,0 98.0,9.12,0 98.0,9.25,0 98.0,9.38,0 98.0,9.5,0 98.0,9.62,0 98.0,9.75,0 98.0,9.88,0 98.0,10.0,0 98.0,10.12,0 98.0,10.25,0 98.0,10.38,0 98.0,10.5,0 98.0,10.62,0 98.0,10.75,0 98.0,10.88,0 98.0,11.0,0 98.0,11.12,0 98.0,11.25,0 98.0,11.38,0 98.0,11.5,0 98.0,11.62,0 98.0,11.75,0 98.0,11.88,0 98.0,12.0,0 98.0,12.12,0 98.0,12.25,0 98.0,12.38,0 98.0,12.5,0 98.0,12.62,0 98.0,12.75,0 98.0,12.88,0 98.0,13.0,0 98.0,13.12,0 98.0,13.25,0 98.0,13.38,0 98.0,13.5,0 98.0,13.62,0 98.0,13.63,0 97.88,13.67,0 97.75,13.7,0 97.62,13.73,0 97.53,13.75,0 97.5,13.76,0 97.38,13.79,0 97.25,13.82,0 97.13,13.85,0 97.01,13.88,0 97.0,13.88,0 96.88,13.91,0 96.75,13.93,0 96.62,13.96,0 96.5,13.99,0 96.46,14.0,0 96.38,14.02,0 96.25,14.05,0 96.12,14.07,0 96.0,14.1,0 95.88,14.12,0 95.88,14.13,0 95.75,14.15,0 95.62,14.18,0 95.5,14.2,0 95.37,14.23,0 95.27,14.25,0 95.25,14.25,0 95.12,14.28,0 95.0,14.3,0 94.88,14.33,0 94.75,14.35,0 94.62,14.37,0 94.62,14.38,0 94.5,14.4,0 94.38,14.42,0 94.25,14.44,0 94.12,14.46,0 94.0,14.49,0 93.92,14.5,0 93.88,14.51,0 93.75,14.53,0 93.62,14.55,0 93.5,14.57,0 93.38,14.59,0 93.25,14.61,0 93.17,14.62,0 93.12,14.63,0 93.0,14.65,0 92.88,14.67,0 92.75,14.69,0 92.62,14.71,0 92.5,14.73,0 92.37,14.75,0 92.34,14.75,0 92.25,14.76,0 92.12,14.78,0 92.0,14.8,0 91.87,14.82,0 91.75,14.83,0 91.62,14.85,0 91.5,14.87,0 91.42,14.88,0 91.38,14.88,0 91.25,14.9,0 91.12,14.91,0 91.0,14.93,0 90.88,14.94,0 90.75,14.96,0 90.62,14.97,0 90.5,14.99,0 90.38,15.0,0 90.38,15.0,0 90.25,15.01,0 90.12,15.03,0 90.0,15.04,0 89.88,15.05,0 89.75,15.07,0 89.62,15.08,0 89.5,15.09,0 89.38,15.1,0 89.25,15.12,0 89.14,15.12,0 89.12,15.13,0 89.0,15.14,0 88.88,15.15,0 88.75,15.16,0 88.62,15.17,0 88.5,15.18,0 88.38,15.19,0 88.25,15.2,0 88.12,15.21,0 88.0,15.22,0 87.88,15.23,0 87.75,15.24,0 87.62,15.25,0 87.56,15.25,0 87.5,15.25,0 87.38,15.26,0 87.25,15.27,0 87.12,15.28,0 87.0,15.28,0 86.88,15.29,0 86.75,15.3,0 86.62,15.31,0 86.5,15.31,0 86.38,15.32,0 86.25,15.32,0 86.12,15.33,0 86.0,15.34,0 85.88,15.34,0 85.75,15.35,0 85.62,15.35,0 85.5,15.36,0 85.38,15.36,0 85.25,15.36,0 85.12,15.37,0 85.0,15.37,0 84.93,15.38,0 84.88,15.38,0 84.75,15.38,0 84.62,15.38,0 84.5,15.39,0 84.38,15.39,0 84.25,15.39,0 84.12,15.39,0 84.0,15.4,0 83.88,15.4,0 83.75,15.4,0 83.62,15.4,0 83.5,15.4,0 83.38,15.4,0 83.25,15.4,0 83.12,15.4,0 83.0,15.41,0 82.88,15.41,0 82.75,15.41,0 82.62,15.41,0 82.5,15.41,0 82.38,15.4,0 82.25,15.4,0 82.12,15.4,0 82.0,15.4,0 81.88,15.4,0 81.75,15.4,0 81.62,15.4,0 81.5,15.39,0 81.38,15.39,0 81.25,15.39,0 81.12,15.39,0 81.0,15.39,0 80.88,15.38,0 80.75,15.38,0 80.62,15.38,0 80.6,15.38,0 80.5,15.37,0 80.38,15.37,0 80.25,15.36,0 80.12,15.36,0 80.0,15.36,0 79.88,15.35,0 79.75,15.35,0 79.62,15.34,0 79.5,15.34,0 79.38,15.33,0 79.25,15.33,0 79.12,15.32,0 79.0,15.32,0 78.88,15.31,0 78.75,15.3,0 78.62,15.3,0 78.5,15.29,0 78.38,15.28,0 78.25,15.28,0 78.12,15.27,0 78.0,15.26,0 77.88,15.26,0 77.77,15.25,0 77.75,15.25,0 77.62,15.24,0 77.5,15.23,0 77.38,15.23,0 77.25,15.22,0 77.12,15.21,0 77.0,15.2,0 76.88,15.19,0 76.75,15.18,0 76.62,15.17,0 76.5,15.16,0 76.38,15.15,0 76.25,15.14,0 76.12,15.14,0 76.0,15.13,0 76.0,15.12,0 75.88,15.12,0 75.75,15.11,0 75.62,15.09,0 75.5,15.08,0 75.38,15.07,0 75.25,15.06,0 75.12,15.05,0 75.0,15.04,0 74.88,15.03,0 74.75,15.02,0 74.62,15.01,0 74.57,15.0,0 74.5,14.99,0 74.38,14.98,0 74.25,14.97,0 74.13,14.96,0 74.0,14.94,0 73.88,14.93,0 73.75,14.92,0 73.62,14.91,0 73.5,14.89,0 73.38,14.88,0 73.34,14.88,0 73.25,14.87,0 73.12,14.85,0 73.0,14.84,0 72.88,14.82,0 72.75,14.81,0 72.62,14.8,0 72.5,14.78,0 72.38,14.77,0 72.25,14.75,0 72.23,14.75,0 72.12,14.74,0 72.0,14.72,0 71.88,14.71,0 71.75,14.69,0 71.62,14.68,0 71.5,14.66,0 71.38,14.65,0 71.25,14.63,0 71.22,14.62,0 71.12,14.61,0 71.0,14.6,0 70.88,14.58,0 70.75,14.56,0 70.62,14.55,0 70.5,14.53,0 70.38,14.51,0 70.27,14.5,0 70.25,14.5,0 70.12,14.48,0 70.0,14.46,0 69.88,14.45,0 69.75,14.43,0 69.62,14.41,0 69.5,14.39,0 69.38,14.38,0 69.38,14.37,0 69.25,14.36,0 69.13,14.34,0 69.0,14.32,0 68.88,14.3,0 68.75,14.28,0 68.62,14.26,0 68.54,14.25,0 68.5,14.24,0 68.38,14.22,0 68.25,14.21,0 68.12,14.19,0 68.0,14.17,0 67.88,14.15,0 67.75,14.13,0 67.74,14.12,0 67.62,14.11,0 67.5,14.09,0 67.38,14.07,0 67.25,14.05,0 67.12,14.03,0 67.0,14.01,0 66.97,14.0,0 66.88,13.98,0 66.75,13.96,0 66.62,13.94,0 66.5,13.92,0 66.38,13.9,0 66.25,13.88,0 66.23,13.88,0 66.12,13.86,0 66.0,13.84,0 66.0,13.75,0 66.0,13.62,0 66.0,13.5,0 66.0,13.38,0 66.0,13.25,0 66.0,13.12,0 66.0,13.0,0 66.0,12.88,0 66.0,12.75,0 66.0,12.62,0 66.0,12.5,0 66.0,12.38,0 66.0,12.25,0 66.0,12.12,0 66.0,12.0,0 66.0,11.88,0 66.0,11.75,0 66.0,11.62,0 66.0,11.5,0 66.0,11.38,0 66.0,11.25,0 66.0,11.12,0 66.0,11.0,0 66.0,10.88,0 66.0,10.75,0 66.0,10.62,0 66.0,10.5,0 66.0,10.38,0 66.0,10.25,0 66.0,10.12,0 66.0,10.0,0 66.0,9.88,0 66.0,9.75,0 66.0,9.62,0 66.0,9.5,0 66.0,9.38,0 66.0,9.25,0 66.0,9.12,0 66.0,9.0,0 66.0,8.88,0 66.0,8.75,0 66.0,8.62,0 66.0,8.5,0 66.0,8.38,0 66.0,8.25,0 66.0,8.12,0 66.0,8.0,0 66.0,7.88,0 66.0,7.75,0 66.0,7.62,0 66.0,7.5,0 66.0,7.38,0 66.0,7.25,0 66.0,7.12,0 66.0,7.0,0 66.0,6.88,0 66.0,6.75,0 66.0,6.62,0 66.0,6.5,0 66.0,6.38,0 66.0,6.25,0 66.0,6.12,0 66.0,6.0,0 66.0,5.88,0 66.0,5.75,0 66.0,5.62,0 66.0,5.5,0 66.0,5.38,0 66.0,5.25,0 66.0,5.12,0 66.0,5.0,0 66.0,4.88,0 66.0,4.75,0 66.0,4.62,0 66.0,4.5,0 66.0,4.38,0 66.0,4.25,0 66.0,4.12,0 66.0,4.0,0</coordinates></LinearRing></outerBoundaryIs></Polygon></Placemark>
<Placemark><name>after sunset</name><styleUrl>#night</styleUrl><Polygon><outerBoundaryIs><LinearRing><coordinates>66.0,4.0,0 66.12,4.0,0 66.25,4.0,0 66.38,4.0,0 66.5,4.0,0 66.62,4.0,0 66.75,4.0,0 66.88,4.0,0 67.0,4.0,0 67.12,4.0,0 67.25,4.0,0 67.38,4.0,0 67.5,4.0,0 67.62,4.0,0 67.75,4.0,0 67.88,4.0,0 68.0,4.0,0 68.12,4.0,0 68.25,4.0,0 68.38,4.0,0 68.5,4.0,0 68.62,4.0,0 68.75,4.0,0 68.88,4.0,0 69.0,4.0,0 69.12,4.0,0 69.25,4.0,0 69.38,4.0,0 69.5,4.0,0 69.62,4.0,0 69.75,4.0,0 69.88,4.0,0 70.0,4.0,0 70.12,4.0,0 70.25,4.0,0 70.38,4.0,0 70.5,4.0,0 70.62,4.0,0 70.75,4.0,0 70.88,4.0,0 71.0,4.0,0 71.12,4.0,0 71.25,4.0,0 71.38,4.0,0 71.5,4.0,0 71.62,4.0,0 71.75,4.0,0 71.88,4.0,0 72.0,4.0,0 72.12,4.0,0 72.25,4.0,0 72.38,4.0,0 72.5,4.0,0 72.62,4.0,0 72.75,4.0,0 72.88,4.0,0 73.0,4.0,0 73.12,4.0,0 73.25,4.0,0 73.38,4.0,0 73.5,4.0,0 73.62,4.0,0 73.75,4.0,0 73.88,4.0,0 74.0,4.0,0 74.12,4.0,0 74.25,4.0,0 74.38,4.0,0 74.5,4.0,0 74.62,4.0,0 74.75,4.0,0 74.88,4.0,0 75.0,4.0,0 75.12,4.0,0 75.25,4.0,0 75.38,4.0,0 75.5,4.0,0 75.62,4.0,0 75.75,4.0,0 75.88,4.0,0 76.0,4.0,0 76.12,4.0,0 76.25,4.0,0 76.38,4.0,0 76.5,4.0,0 76.62,4.0,0 76.75,4.0,0 76.88,4.0,0 77.0,4.0,0 77.12,4.0,0 77.25,4.0,0 77.38,4.0,0 77.5,4.0,0 77.62,4.0,0 77.75,4.0,0 77.88,4.0,0 78.0,4.0,0 78.12,4.0,0 78.25,4.0,0 78.38,4.0,0 78.5,4.0,0 78.62,4.0,0 78.75,4.0,0 78.88,4.0,0 79.0,4.0,0 79.12,4.0,0 79.25,4.0,0 79.38,4.0,0 79.5,4.0,0 79.62,4.0,0 79.75,4.0,0 79.88,4.0,0 80.0,4.0,0 80.12,4.0,0 80.25,4.0,0 80.38,4.0,0 80.5,4.0,0 80.62,4.0,0 80.75,4.0,0 80.88,4.0,0 81.0,4.0,0 81.12,4.0,0 81.25,4.0,0 81.38,4.0,0 81.5,4.0,0 81.62,4.0,0 81.75,4.0,0 81.88,4.0,0 82.0,4.0,0 82.12,4.0,0 82.25,4.0,0 82.38,4.0,0 82.5,4.0,0 82.62,4.0,0 82.75,4.0,0 82.88,4.0,0 83.0,4.0,0 83.12,4.0,0 83.25,4.0,0 83.38,4.0,0 83.5,4.0,0 83.62,4.0,0 83.75,4.0,0 83.88,4.0,0 84.0,4.0,0 84.12,4.0,0 84.25,4.0,0 84.38,4.0,0 84.5,4.0,0 84.62,4.0,0 84.75,4.0,0 84.88,4.0,0 85.0,4.0,0 85.12,4.0,0 85.25,4.0,0 85.38,4.0,0 85.5,4.0,0 85.62,4.0,0 85.75,4.0,0 85.88,4.0,0 86.0,4.0,0 86.12,4.0,0 86.25,4.0,0 86.38,4.0,0 86.5,4.0,0 86.62,4.0,0 86.75,4.0,0 86.88,4.0,0 87.0,4.0,0 87.12,4.0,0 87.25,4.0,0 87.38,4.0,0 87.5,4.0,0 87.62,4.0,0 87.75,4.0,0 87.88,4.0,0 88.0,4.0,0 88.12,4.0,0 88.25,4.0,0 88.38,4.0,0 88.5,4.0,0 88.62,4.0,0 88.75,4.0,0 88.88,4.0,0 89.0,4.0,0 89.12,4.0,0 89.25,4.0,0 89.38,4.0,0 89.5,4.0,0 89.62,4.0,0 89.75,4.0,0 89.88,4.0,0 90.0,4.0,0 90.12,4.0,0 90.25,4.0,0 90.38,4.0,0 90.5,4.0,0 90.62,4.0,0 90.75,4.0,0 90.88,4.0,0 91.0,4.0,0 91.12,4.0,0 91.25,4.0,0 91.38,4.0,0 91.5,4.0,0 91.62,4.0,0 91.75,4.0,0 91.88,4.0,0 92.0,4.0,0 92.12,4.0,0 92.25,4.0,0 92.38,4.0,0 92.5,4.0,0 92.62,4.0,0 92.75,4.0,0 92.88,4.0,0 93.0,4.0,0 93.12,4.0,0 93.25,4.0,0 93.38,4.0,0 93.5,4.0,0 93.62,4.0,0 93.75,4.0,0 93.88,4.0,0 94.0,4.0,0 94.12,4.0,0 94.25,4.0,0 94.38,4.0,0 94.5,4.0,0 94.62,4.0,0 94.75,4.0,0 94.88,4.0,0 95.0,4.0,0 95.12,4.0,0 95.25,4.0,0 95.38,4.0,0 95.5,4.0,0 95.62,4.0,0 95.75,4.0,0 95.88,4.0,0 96.0,4.0,0 96.12,4.0,0 96.25,4.0,0 96.38,4.0,0 96.5,4.0,0 96.62,4.0,0 96.75,4.0,0 96.88,4.0,0 97.0,4.0,0 97.12,4.0,0 97.25,4.0,0 97.38,4.0,0 97.5,4.0,0 97.62,4.0,0 97.75,4.0,0 97.88,4.0,0 98.0,4.0,0 98.0,4.12,0 98.0,4.25,0 98.0,4.38,0 98.0,4.5,0 98.0,4.62,0 98.0,4.75,0 98.0,4.88,0 98.0,5.0,0 98.0,5.12,0 98.0,5.25,0 98.0,5.38,0 98.0,5.5,0 98.0,5.62,0 98.0,5.75,0 98.0,5.88,0 98.0,6.0,0 98.0,6.12,0 98.0,6.25,0 98.0,6.38,0 98.0,6.5,0 98.0,6.62,0 98.0,6.75,0 98.0,6.88,0 98.0,7.0,0 98.0,7.12,0 98.0,7.25,0 98.0,7.38,0 98.0,7.5,0 98.0,7.62,0 98.0,7.75,0 98.0,7.88,0 98.0,8.0,0 98.0,8.12,0 98.0,8.25,0 98.0,8.38,0 98.0,8.5,0 98.0,8.62,0 98.0,8.75,0 98.0,8.88,0 98.0,9.0,0 98.0,9.12,0 98.0,9.25,0 98.0,9.38,0 98.0,9.5,0 98.0,9.62,0 98.0,9.75,0 98.0,9.88,0 98.0,10.0,0 98.0,10.12,0 98.0,10.25,0 98.0,10.38,0 98.0,10.5,0 98.0,10.62,0 98.0,10.75,0 98.0,10.88,0 98.0,11.0,0 98.0,11.12,0 98.0,11.25,0 98.0,11.38,0 98.0,11.5,0 98.0,11.62,0 98.0,11.75,0 98.0,11.88,0 98.0,12.0,0 98.0,12.12,0 98.0,12.25,0 98.0,12.38,0 98.0,12.5,0 98.0,12.62,0 98.0,12.75,0 98.0,12.88,0 98.0,13.0,0 98.0,13.12,0 98.0,13.25,0 98.0,13.38,0 98.0,13.5,0 98.0,13.62,0 98.0,13.63,0 97.88,13.67,0 97.75,13.7,0 97.62,13.73,0 97.53,13.75,0 97.5,13.76,0 97.38,13.79,0 97.25,13.82,0 97.13,13.85,0 97.01,13.88,0 97.0,13.88,0 96.88,13.91,0 96.75,13.93,0 96.62,13.96,0 96.5,13.99,0 96.46,14.0,0 96.38,14.02,0 96.25,14.05,0 96.12,14.07,0 96.0,14.1,0 95.88,14.12,0 95.88,14.13,0 95.75,14.15,0 95.62,14.18,0 95.5,14.2,0 95.37,14.23,0 95.27,14.25,0 95.25,14.25,0 95.12,14.28,0 95.0,14.3,0 94.88,14.33,0 94.75,14.35,0 94.62,14.37,0 94.62,14.38,0 94.5,14.4,0 94.38,14.42,0 94.25,14.44,0 94.12,14.46,0 94.0,14.49,0 93.92,14.5,0 93.88,14.51,0 93.75,14.53,0 93.62,14.55,0 93.5,14.57,0 93.38,14.59,0 93.25,14.61,0 93.17,14.62,0 93.12,14.63,0 93.0,14.65,0 92.88,14.67,0 92.75,14.69,0 92.62,14.71,0 92.5,14.73,0 92.37,14.75,0 92.34,14.75,0 92.25,14.76,0 92.12,14.78,0 92.0,14.8,0 91.87,14.82,0 91.75,14.83,0 91.62,14.85,0 91.5,14.87,0 91.42,14.88,0 91.38,14.88,0 91.25,14.9,0 91.12,14.91,0 91.0,14.93,0 90.88,14.94,0 90.75,14.96,0 90.62,14.97,0 90.5,14.99,0 90.38,15.0,0 90.38,15.0,0 90.25,15.01,0 90.12,15.03,0 90.0,15.04,0 89.88,15.05,0 89.75,15.07,0 89.62,15.08,0 89.5,15.09,0 89.38,15.1,0 89.25,15.12,0 89.14,15.12,0 89.12,15.13,0 89.0,15.14,0 88.88,15.15,0 88.75,15.16,0 88.62,15.17,0 88.5,15.18,0 88.38,15.19,0 88.25,15.2,0 88.12,15.21,0 88.0,15.22,0 87.88,15.23,0 87.75,15.24,0 87.62,15.25,0 87.56,15.25,0 87.5,15.25,0 87.38,15.26,0 87.25,15.27,0 87.12,15.28,0 87.0,15.28,0 86.88,15.29,0 86.75,15.3,0 86.62,15.31,0 86.5,15.31,0 86.38,15.32,0 86.25,15.32,0 86.12,15.33,0 86.0,15.34,0 85.88,15.34,0 85.75,15.35,0 85.62,15.35,0 85.5,15.36,0 85.38,15.36,0 85.25,15.36,0 85.12,15.37,0 85.0,15.37,0 84.93,15.38,0 84.88,15.38,0 84.75,15.38,0 84.62,15.38,0 84.5,15.39,0 84.38,15.39,0 84.25,15.39,0 84.12,15.39,0 84.0,15.4,0 83.88,15.4,0 83.75,15.4,0 83.62,15.4,0 83.5,15.4,0 83.38,15.4,0 83.25,15.4,0 83.12,15.4,0 83.0,15.41,0 82.88,15.41,0 82.75,15.41,0 82.62,15.41,0 82.5,15.41,0 82.38,15.4,0 82.25,15.4,0 82.12,15.4,0 82.0,15.4,0 81.88,15.4,0 81.75,15.4,0 81.62,15.4,0 81.5,15.39,0 81.38,15.39,0 81.25,15.39,0 81.12,15.39,0 81.0,15.39,0 80.88,15.38,0 80.75,15.38,0 80.62,15.38,0 80.6,15.38,0 80.5,15.37,0 80.38,15.37,0 80.25,15.36,0 80.12,15.36,0 80.0,15.36,0 79.88,15.35,0 79.75,15.35,0 79.62,15.34,0 79.5,15.34,0 79.38,15.33,0 79.25,15.33,0 79.12,15.32,0 79.0,15.32,0 78.88,15.31,0 78.75,15.3,0 78.62,15.3,0 78.5,15.29,0 78.38,15.28,0 78.25,15.28,0 78.12,15.27,0 78.0,15.26,0 77.88,15.26,0 77.77,15.25,0 77.75,15.25,0 77.62,15.24,0 77.5,15.23,0 77.38,15.23,0 77.25,15.22,0 77.12,15.21,0 77.0,15.2,0 76.88,15.19,0 76.75,15.18,0 76.62,15.17,0 76.5,15.16,0 76.38,15.15,0 76.25,15.14,0 76.12,15.14,0 76.0,15.13,0 76.0,15.12,0 75.88,15.12,0 75.75,15.11,0 75.62,15.09,0 75.5,15.08,0 75.38,15.07,0 75.25,15.06,0 75.12,15.05,0 75.0,15.04,0 74.88,15.03,0 74.75,15.02,0 74.62,15.01,0 74.57,15.0,0 74.5,14.99,0 74.38,14.98,0 74.25,14.97,0 74.13,14.96,0 74.0,14.94,0 73.88,14.93,0 73.75,14.92,0 73.62,14.91,0 73.5,14.89,0 73.38,14.88,0 73.34,14.88,0 73.25,14.87,0 73.12,14.85,0 73.0,14.84,0 72.88,14.82,0 72.75,14.81,0 72.62,14.8,0 72.5,14.78,0 72.38,14.77,0 72.25,14.75,0 72.23,14.75,0 72.12,14.74,0 72.0,14.72,0 71.88,14.71,0 71.75,14.69,0 71.62,14.68,0 71.5,14.66,0 71.38,14.65,0 71.25,14.63,0 71.22,14.62,0 71.12,14.61,0 71.0,14.6,0 70.88,14.58,0 70.75,14.56,0 70.62,14.55,0 70.5,14.53,0 70.38,14.51,0 70.27,14.5,0 70.25,14.5,0 70.12,14.48,0 70.0,14.46,0 69.88,14.45,0 69.75,14.43,0 69.62,14.41,0 69.5,14.39,0 69.38,14.38,0 69.38,14.37,0 69.25,14.36,0 69.13,14.34,0 69.0,14.32,0 68.88,14.3,0 68.75,14.28,0 68.62,14.26,0 68.54,14.25,0 68.5,14.24,0 68.38,14.22,0 68.25,14.21,0 68.12,14.19,0 68.0,14.17,0 67.88,14.15,0 67.75,14.13,0 67.74,14.12,0 67.62,14.11,0 67.5,14.09,0 67.38,14.07,0 67.25,14.05,0 67.12,14.03,0 67.0,14.01,0 66.97,14.0,0 66.88,13.98,0 66.75,13.96,0 66.62,13.94,0 66.5,13.92,0 66.38,13.9,0 66.25,13.88,0 66.23,13.88,0 66.12,13.86,0 66.0,13.84,0 66.0,13.75,0 66.0,13.62,0 66.0,13.5,0 66.0,13.38,0 66.0,13.25,0 66.0,13.12,0 66.0,13.0,0 66.0,12.88,0 66.0,12.75,0 66.0,12.62,0 66.0,12.5,0 66.0,12.38,0 66.0,12.25,0 66.0,12.12,0 66.0,12.0,0 66.0,11.88,0 66.0,11.75,0 66.0,11.62,0 66.0,11.5,0 66.0,11.38,0 66.0,11.25,0 66.0,11.12,0 66.0,11.0,0 66.0,10.88,0 66.0,10.75,0 66.0,10.62,0 66.0,10.5,0 66.0,10.38,0 66.0,10.25,0 66.0,10.12,0 66.0,10.0,0 66.0,9.88,0 66.0,9.75,0 66.0,9.62,0 66.0,9.5,0 66.0,9.38,0 66.0,9.25,0 66.0,9.12,0 66.0,9.0,0 66.0,8.88,0 66.0,8.75,0 66.0,8.62,0 66.0,8.5,0 66.0,8.38,0 66.0,8.25,0 66.0,8.12,0 66.0,8.0,0 66.0,7.88,0 66.0,7.75,0 66.0,7.62,0 66.0,7.5,0 66.0,7.38,0 66.0,7.25,0 66.0,7.12,0 66.0,7.0,0 66.0,6.88,0 66.0,6.75,0 66.0,6.62,0 66.0,6.5,0 66.0,6.38,0 66.0,6.25,0 66.0,6.12,0 66.0,6.0,0 66.0,5.88,0 66.0,5.75,0 66.0,5.62,0 66.0,5.5,0 66.0,5.38,0 66.0,5.25,0 66.0,5.12,0 66.0,5.0,0 66.0,4.88,0 66.0,4.75,0 66.0,4.62,0 66.0,4.5,0 66.0,4.38,0 66.0,4.25,0 66.0,4.12,0 66.0,4.0,0</coordinates></LinearRing></outerBoundaryIs></Polygon></Placemark>
</Folder><Folder><name>Cities</name>
<Placemark><name>Agartala</name><styleUrl>#city</styleUrl><description>near miss: Jupiter passes 9.2′ from the limb (IST)</description><Point><coordinates>91.2868,23.8315,0</coordinates></Point></Placemark>
<Placemark><name>Agra</name><styleUrl>#city</styleUrl><description>near miss: Jupiter passes 12.3′ from the limb (IST)</description><Point><coordinates>78.0081,27.1767,0</coordinates></Point></Placemark>
<Placemark><name>Ahmedabad</name><styleUrl>#city</styleUrl><description>near miss: Jupiter passes 8.6′ from the limb (IST)</description><Point><coordinates>72.5714,23.0225,0</coordinates></Point></Placemark>
<Placemark><name>Aizawl</name><styleUrl>#city</styleUrl><description>near miss: Jupiter passes 9.3′ from the limb (IST)</description><Point><coordinates>92.7176,23.7271,0</coordinates></Point></Placemark>
<Placemark><name>Ajmer</name><styleUrl>#city</styleUrl><description>near miss: Jupiter passes 11.8′ from the limb (IST)</description><Point><coordinates>74.6399,26.4499,0</coordinates></Point></Placemark>
<Placemark><name>Akola</name><styleUrl>#city</styleUrl><description>near miss: Jupiter passes 5.8′ from the limb (IST)</description><Point><coordinates>77.0082,20.7002,0</coordinates></Point></Placemark>
<Placemark><name>Allahabad</name><styleUrl>#city</styleUrl><description>near miss: Jupiter passes 10.4′ from the limb (IST)</description><Point><coordinates>81.8463,25.4358,0</coordinates></Point></Placemark>
<Placemark><name>Almora</name><styleUrl>#city</styleUrl><description>near miss: Jupiter passes 14.7′ from the limb (IST)</description><Point><coordinates>79.6591,29.5971,0</coordinates></Point></Placemark>
<Placemark><name>Ambala</name><styleUrl>#city</styleUrl><description>near miss: Jupiter passes 15.7′ from the limb (IST)</description><Point><coordinates>76.7767,30.3782,0</coordinates></Point></Placemark>
<Placemark><name>Amritsar</name><styleUrl>#city</styleUrl><description>near miss: Jupiter passes 17.1′ from the limb (IST)</description><Point><coordinates>74.8723,31.634,0</coordinates></Point></Placemark>
<Placemark><name>Anand</name><styleUrl>#city</styleUrl><description>near miss: Jupiter passes 8.1′ from the limb (IST)</description><Point><coordinates>72.9289,22.5645,0</coordinates></Point></Placemark>
<Placemark><name>Asansol</name><styleUrl>#city</styleUrl><description>near miss: Jupiter passes 8.7′ from the limb (IST)</description><Point><coordinates>86.9661,23.6889,0</coordinates></Point></Placemark>
<Placemark><name>Aurangabad</name><styleUrl>#city</styleUrl><description>near miss: Jupiter passes 5.1′ from the limb (IST)</description><Point><coordinates>75.3433,19.8762,0</coordinates></Point></Placemark>
<Placemark><name>Ayodhya</name><styleUrl>#city</styleUrl><description>near miss: Jupiter passes 11.8′ from the limb (IST)</description><Point><coordinates>82.1998,26.7922,0</coordinates></Point></Placemark>
<Placemark><name>Balasore</name><styleUrl>#city</styleUrl><description>near miss: Jupiter passes 6.5′ from the limb (IST)</description><Point><coordinates>86.9135,21.4934,0</coordinates></Point></Placemark>
<Placemark><name>Bangalore</name><styleUrl>#city</styleUrl><description>D1 02:28:58 · D2 02:31:32 · R1 03:01:29 · R2 03:04:10 (IST)</description><Point><coordinates>77.5946,12.9716,0</coordinates></Point></Placemark>
<Placemark><name>Bankura</name><styleUrl>#city</styleUrl><description>near miss: Jupiter passes 8.3′ from the limb (IST)</description><Point><coordinates>87.0649,23.2324,0</coordinates></Point></Placemark>
<Placemark><name>Bareilly</name><styleUrl>#city</styleUrl><description>near miss: Jupiter passes 13.5′ from the limb (IST)</description><Point><coordinates>79.4304,28.367,0</coordinates></Point></Placemark>
<Placemark><name>Bauxar</name><styleUrl>#city</styleUrl><description>near miss: Jupiter passes 10.6′ from the limb (IST)</description><Point><coordinates>83.9777,25.5647,0</coordinates></Point></Placemark>
<Placemark><name>Belgaon</name><styleUrl>#city</styleUrl><description>near miss: Jupiter passes 1.1′ from the limb (IST)</description><Point><coordinates>74.4977,15.8497,0</coordinates></Point></Placemark>
<Placemark><name>Berhampur</name><styleUrl>#city</styleUrl><description>near miss: Jupiter passes 4.2′ from the limb (IST)</description><Point><coordinates>84.7941,19.315,0</coordinates></Point></Placemark>
<Placemark><name>Bhagalpur</name><styleUrl>#city</styleUrl><description>near miss: Jupiter passes 10.3′ from the limb (IST)</description><Point><coordinates>86.9842,25.2425,0</coordinates></Point></Placemark>
<Placemark><name>Bharatpur</name><styleUrl>#city</styleUrl><description>near miss: Jupiter passes 12.4′ from the limb (IST)</description><Point><coordinates>77.503,27.2152,0</coordinates></Point></Placemark>
<Placemark><name>Bhavnagar</name><styleUrl>#city</styleUrl><description>near miss: Jupiter passes 7.3′ from the limb (IST)</description><Point><coordinates>72.1519,21.7645,0</coordinates></Point></Placemark>
<Placemark><name>Bhopal</name><styleUrl>#city</styleUrl><description>near miss: Jupiter passes 8.4′ from the limb (IST)</description><Point><coordinates>77.4126,23.2599,0</coordinates></Point></Placemark>
<Placemark><name>Bhubaneswar</name><styleUrl>#city</styleUrl><description>near miss: Jupiter passes 5.2′ from the limb (IST)</description><Point><coordinates>85.8245,20.2961,0</coordinates></Point></Placemark>
<Placemark><name>Bhuj</name><styleUrl>#city</styleUrl><description>near miss: Jupiter passes 9.1′ from the limb (IST)</description><Point><coordinates>69.6669,23.242,0</coordinates></Point></Placemark>
<Placemark><name>Bijapur</name><styleUrl>#city</styleUrl><description>near miss: Jupiter passes 2.0′ from the limb (IST)</description><Point><coordinates>75.71,16.8302,0</coordinates></Point></Placemark>
<Placemark><name>Bikaner</name><styleUrl>#city</styleUrl><description>near miss: Jupiter passes 13.5′ from the limb (IST)</description><Point><coordinates>73.3119,28.0229,0</coordinates></Point></Placemark>
<Placemark><name>Bilaspur</name><styleUrl>#city</styleUrl><description>near miss: Jupiter passes 7.0′ from the limb (IST)</description><Point><coordinates>82.1409,22.0797,0</coordinates></Point></Placemark>
<Placemark><name>Bokaro</name><styleUrl>#city</styleUrl><description>near miss: Jupiter passes 8.7′ from the limb (IST)</description><Point><coordinates>86.1511,23.6693,0</coordinates></Point></Placemark>
<Placemark><name>Cannanore</name><styleUrl>#city</styleUrl><description>D1 02:25:14 · D2 02:27:19 · R1 03:03:24 · R2 03:05:40 (IST)</description><Point><coordinates>75.3704,11.8745,0</coordinates></Point></Placemark>
<Placemark><name>Champa</name><styleUrl>#city</styleUrl><description>near miss: Jupiter passes 7.0′ from the limb (IST)</description><Point><coordinates>82.6576,22.0354,0</coordinates></Point></Placemark>
<Placemark><name>Chandigarh</name><styleUrl>#city</styleUrl><description>near miss: Jupiter passes 16.0′ from the limb (IST)</description><Point><coordinates>76.7794,30.7333,0</coordinates></Point></Placemark>
<Placemark><name>Chennai</name><styleUrl>#city</styleUrl><description>D1 02:30:39 · D2 02:33:20 · R1 03:04:03 · R2 03:06:48 (IST)</description><Point><coordinates>80.2707,13.0827,0</coordinates></Point></Placemark>
<Placemark><name>Chittoor (A.P.)</name><styleUrl>#city</styleUrl><description>D1 02:30:27 · D2 02:33:07 · R1 03:02:04 · R2 03:04:52 (IST)</description><Point><coordinates>79.1003,13.2172,0</coordinates></Point></Placemark>
<Placemark><name>Chittorgarh</name><styleUrl>#city</styleUrl><description>near miss: Jupiter passes 10.2′ from the limb (IST)</description><Point><coordinates>74.6269,24.8887,0</coordinates></Point></Placemark>
<Placemark><name>Cochin</name><styleUrl>#city</styleUrl><description>D1 02:22:01 · D2 02:23:41 · R1 03:10:39 · R2 03:12:29 (IST)</description><Point><coordinates>76.2673,9.9312,0</coordinates></Point></Placemark>
<Placemark><name>Coimbatore</name><styleUrl>#city</styleUrl><description>D1 02:24:05 · D2 02:25:56 · R1 03:08:11 · R2 03:10:12 (IST)</description><Point><coordinates>76.9558,11.0168,0</coordinates></Point></Placemark>
<Placemark><name>Cooch Bihar</name><styleUrl>#city</styleUrl><description>near miss: Jupiter passes 11.6′ from the limb (IST)</description><Point><coordinates>89.4482,26.3452,0</coordinates></Point></Placemark>
<Placemark><name>Cuddalore</name><styleUrl>#city</styleUrl><description>D1 02:26:58 · D2 02:28:58 · R1 03:08:58 · R2 03:11:11 (IST)</description><Point><coordinates>79.7714,11.748,0</coordinates></Point></Placemark>
<Placemark><name>Cuttack</name><styleUrl>#city</styleUrl><description>near miss: Jupiter passes 5.4′ from the limb (IST)</description><Point><coordinates>85.883,20.4625,0</coordinates></Point></Placemark>
<Placemark><name>Darjeeling</name><styleUrl>#city</styleUrl><description>near miss: Jupiter passes 12.2′ from the limb (IST)</description><Point><coordinates>88.2663,27.041,0</coordinates></Point></Placemark>
<Placemark><name>Dehradun</name><styleUrl>#city</styleUrl><description>near miss: Jupiter passes 15.5′ from the limb (IST)</description><Point><coordinates>78.0322,30.3165,0</coordinates></Point></Placemark>
<Placemark><name>Delhi</name><styleUrl>#city</styleUrl><description>near miss: Jupiter passes 13.8′ from the limb (IST)</description><Point><coordinates>77.209,28.6139,0</coordinates></Point></Placemark>
<Placemark><name>Dhanbad</name><styleUrl>#city</styleUrl><description>near miss: Jupiter passes 8.8′ from the limb (IST)</description><Point><coordinates>86.4304,23.7957,0</coordinates></Point></Placemark>
<Placemark><name>Diamond Harbour</name><styleUrl>#city</styleUrl><description>near miss: Jupiter passes 7.3′ from the limb (IST)</description><Point><coordinates>88.1868,22.191,0</coordinates></Point></Placemark>
<Placemark><name>Dibrugarh</name><styleUrl>#city</styleUrl><description>near miss: Jupiter passes 13.4′ from the limb (IST)</description><Point><coordinates>94.912,27.4728,0</coordinates></Point></Placemark>
<Placemark><name>Dimapur</name><styleUrl>#city</styleUrl><description>near miss: Jupiter passes 11.6′ from the limb (IST)</description><Point><coordinates>93.7272,25.9065,0</coordinates></Point></Placemark>
<Placemark><name>Diu</name><styleUrl>#city</styleUrl><description>near miss: Jupiter passes 6.4′ from the limb (IST)</description><Point><coordinates>70.9874,20.7144,0</coordinates></Point></Placemark>
<Placemark><name>Durg</name><styleUrl>#city</styleUrl><description>near miss: Jupiter passes 6.1′ from the limb (IST)</description><Point><coordinates>81.2849,21.1904,0</coordinates></Point></Placemark>
<Placemark><name>Dwarka</name><styleUrl>#city</styleUrl><description>near miss: Jupiter passes 8.2′ from the limb (IST)</description><Point><coordinates>68.9678,22.2394,0</coordinates></Point></Placemark>
<Placemark><name>Etawah</name><styleUrl>#city</styleUrl><description>near miss: Jupiter passes 11.9′ from the limb (IST)</description><Point><coordinates>79.0152,26.7856,0</coordinates></Point></Placemark>
<Placemark><name>Faizabad</name><styleUrl>#city</styleUrl><description>near miss: Jupiter passes 11.8′ from the limb (IST)</description><Point><coordinates>82.1446,26.7735,0</coordinates></Point></Placemark>
<Placemark><name>Ferozpur</name><styleUrl>#city</styleUrl><description>near miss: Jupiter passes 16.4′ from the limb (IST)</description><Point><coordinates>74.6136,30.9332,0</coordinates></Point></Placemark>
<Placemark><name>Gandhinagar</name><styleUrl>#city</styleUrl><description>near miss: Jupiter passes 8.7′ from the limb (IST)</description><Point><coordinates>72.6369,23.2156,0</coordinates></Point></Placemark>
<Placemark><name>Gangtok</name><styleUrl>#city</styleUrl><description>near miss: Jupiter passes 12.6′ from the limb (IST)</description><Point><coordinates>88.6065,27.3389,0</coordinates></Point></Placemark>
<Placemark><name>Gaya</name><styleUrl>#city</styleUrl><description>near miss: Jupiter passes 9.8′ from the limb (IST)</description><Point><coordinates>84.9994,24.7955,0</coordinates></Point></Placemark>
<Placemark><name>Gopalpur</name><styleUrl>#city</styleUrl><description>near miss: Jupiter passes 4.2′ from the limb (IST)</description><Point><coordinates>84.9052,19.2594,0</coordinates></Point></Placemark>
<Placemark><name>Gorakhpur</name><styleUrl>#city</styleUrl><description>near miss: Jupiter passes 11.8′ from the limb (IST)</description><Point><coordinates>83.3732,26.7606,0</coordinates></Point></Placemark>
<Placemark><name>Gulmarg</name><styleUrl>#city</styleUrl><description>near miss: Jupiter passes 19.5′ from the limb (IST)</description><Point><coordinates>74.3805,34.0484,0</coordinates></Point></Placemark>
<Placemark><name>Gurgaon</name><styleUrl>#city</styleUrl><description>near miss: Jupiter passes 13.7′ from the limb (IST)</description><Point><coordinates>77.0266,28.4595,0</coordinates></Point></Placemark>
<Placemark><name>Guwahati</name><styleUrl>#city</styleUrl><description>near miss: Jupiter passes 11.6′ from the limb (IST)</description><Point><coordinates>91.7362,26.1445,0</coordinates></Point></Placemark>
<Placemark><name>Gwalior</name><styleUrl>#city</styleUrl><description>near miss: Jupiter passes 11.4′ from the limb (IST)</description><Point><coordinates>78.1828,26.2183,0</coordinates></Point></Placemark>
<Placemark><name>Haridwar</name><styleUrl>#city</styleUrl><description>near miss: Jupiter passes 15.1′ from the limb (IST)</description><Point><coordinates>78.1642,29.9457,0</coordinates></Point></Placemark>
<Placemark><name>Hassan</name><styleUrl>#city</styleUrl><description>D1 02:28:33 · D2 02:31:10 · R1 02:59:32 · R2 03:02:17 (IST)</description><Point><coordinates>76.1004,13.0072,0</coordinates></Point></Placemark>
<Placemark><name>Hubli</name><styleUrl>#city</styleUrl><description>near miss: Jupiter passes 0.6′ from the limb (IST)</description><Point><coordinates>75.124,15.3647,0</coordinates></Point></Placemark>
<Placemark><name>Hyderabad</name><styleUrl>#city</styleUrl><description>near miss: Jupiter passes 2.4′ from the limb (IST)</description><Point><coordinates>78.4867,17.385,0</coordinates></Point></Placemark>
<Placemark><name>Imphal</name><styleUrl>#city</styleUrl><description>near miss: Jupiter passes 10.5′ from the limb (IST)</description><Point><coordinates>93.9368,24.817,0</coordinates></Point></Placemark>
<Placemark><name>Indore</name><styleUrl>#city</styleUrl><description>near miss: Jupiter passes 7.9′ from the limb (IST)</description><Point><coordinates>75.8577,22.7196,0</coordinates></Point></Placemark>
<Placemark><name>Itanagar</name><styleUrl>#city</styleUrl><description>near miss: Jupiter passes 12.8′ from the limb (IST)</description><Point><coordinates>93.6053,27.0844,0</coordinates></Point></Placemark>
<Placemark><name>Jabalpur</name><styleUrl>#city</styleUrl><description>near miss: Jupiter passes 8.2′ from the limb (IST)</description><Point><coordinates>79.9864,23.1815,0</coordinates></Point></Placemark>
<Placemark><name>Jaipur</name><styleUrl>#city</styleUrl><description>near miss: Jupiter passes 12.2′ from the limb (IST)</description><Point><coordinates>75.7873,26.9124,0</coordinates></Point></Placemark>
<Placemark><name>Jaisalmer</name><styleUrl>#city</styleUrl><description>near miss: Jupiter passes 12.7′ from the limb (IST)</description><Point><coordinates>70.9083,26.9157,0</coordinates></Point></Placemark>
<Placemark><name>Jalandhar</name><styleUrl>#city</styleUrl><description>near miss: Jupiter passes 16.7′ from the limb (IST)</description><Point><coordinates>75.5762,31.326,0</coordinates></Point></Placemark>
<Placemark><name>Jalpaiguri</name><styleUrl>#city</styleUrl><description>near miss: Jupiter passes 11.7′ from the limb (IST)</description><Point><coordinates>88.7333,26.5167,0</coordinates></Point></Placemark>
<Placemark><name>Jammu</name><styleUrl>#city</styleUrl><description>near miss: Jupiter passes 18.2′ from the limb (IST)</description><Point><coordinates>74.857,32.7266,0</coordinates></Point></Placemark>
<Placemark><name>Jamshedpur</name><styleUrl>#city</styleUrl><description>near miss: Jupiter passes 7.8′ from the limb (IST)</description><Point><coordinates>86.2029,22.8046,0</coordinates></Point></Placemark>
<Placemark><name>Jhansi</name><styleUrl>#city</styleUrl><description>near miss: Jupiter passes 10.6′ from the limb (IST)</description><Point><coordinates>78.5685,25.4484,0</coordinates></Point></Placemark>
<Placemark><name>Jodhpur</name><styleUrl>#city</styleUrl><description>near miss: Jupiter passes 11.8′ from the limb (IST)</description><Point><coordinates>73.0243,26.2389,0</coordinates></Point></Placemark>
<Placemark><name>Jorhat</name><styleUrl>#city</styleUrl><description>near miss: Jupiter passes 12.5′ from the limb (IST)</description><Point><coordinates>94.2037,26.7509,0</coordinates></Point></Placemark>
<Placemark><name>Kanpur</name><styleUrl>#city</styleUrl><description>near miss: Jupiter passes 11.5′ from the limb (IST)</description><Point><coordinates>80.3319,26.4499,0</coordinates></Point></Placemark>
<Placemark><name>Kanyakumari</name><styleUrl>#city</styleUrl><description>D1 02:20:32 · D2 02:22:00 · R1 03:16:42 · R2 03:18:20 (IST)</description><Point><coordinates>77.5385,8.0883,0</coordinates></Point></Placemark>
<Placemark><name>Kavalur</name><styleUrl>#city</styleUrl><description>D1 02:28:24 · D2 02:30:43 · R1 03:04:41 · R2 03:07:08 (IST)</description><Point><coordinates>78.8308,12.5766,0</coordinates></Point></Placemark>
<Placemark><name>Kharagpur</name><styleUrl>#city</styleUrl><description>near miss: Jupiter passes 7.4′ from the limb (IST)</description><Point><coordinates>87.232,22.346,0</coordinates></Point></Placemark>
<Placemark><name>Kohima</name><styleUrl>#city</styleUrl><description>near miss: Jupiter passes 11.4′ from the limb (IST)</description><Point><coordinates>94.1086,25.6751,0</coordinates></Point></Placemark>
<Placemark><name>Kolhapur</name><styleUrl>#city</styleUrl><description>near miss: Jupiter passes 2.0′ from the limb (IST)</description><Point><coordinates>74.2433,16.705,0</coordinates></Point></Placemark>
<Placemark><name>Kolkata</name><styleUrl>#city</styleUrl><description>near miss: Jupiter passes 7.7′ from the limb (IST)</description><Point><coordinates>88.3639,22.5726,0</coordinates></Point></Placemark>
<Placemark><name>Koraput</name><styleUrl>#city</styleUrl><description>near miss: Jupiter passes 3.7′ from the limb (IST)</description><Point><coordinates>82.7123,18.8135,0</coordinates></Point></Placemark>
<Placemark><name>Kota</name><styleUrl>#city</styleUrl><description>near miss: Jupiter passes 10.5′ from the limb (IST)</description><Point><coordinates>75.8648,25.2138,0</coordinates></Point></Placemark>
<Placemark><name>Kozhikode</name><styleUrl>#city</styleUrl><description>D1 02:24:05 · D2 02:25:58 · R1 03:06:02 · R2 03:08:05 (IST)</description><Point><coordinates>75.7804,11.2588,0</coordinates></Point></Placemark>
<Placemark><name>Kurnool</name><styleUrl>#city</styleUrl><description>near miss: Jupiter passes 0.9′ from the limb (IST)</description><Point><coordinates>78.0373,15.8281,0</coordinates></Point></Placemark>
<Placemark><name>Lucknow</name><styleUrl>#city</styleUrl><description>near miss: Jupiter passes 11.9′ from the limb (IST)</description><Point><coordinates>80.9462,26.8467,0</coordinates></Point></Placemark>
<Placemark><name>Ludhiana</name><styleUrl>#city</styleUrl><description>near miss: Jupiter passes 16.2′ from the limb (IST)</description><Point><coordinates>75.8573,30.901,0</coordinates></Point></Placemark>
<Placemark><name>Machilipatnam</name><styleUrl>#city</styleUrl><description>near miss: Jupiter passes 1.1′ from the limb (IST)</description><Point><coordinates>81.1389,16.1875,0</coordinates></Point></Placemark>
<Placemark><name>Madurai</name><styleUrl>#city</styleUrl><description>D1 02:22:53 · D2 02:24:33 · R1 03:12:50 · R2 03:14:42 (IST)</description><Point><coordinates>78.1198,9.9252,0</coordinates></Point></Placemark>
<Placemark><name>Mangalore</name><styleUrl>#city</styleUrl><description>D1 02:27:59 · D2 02:30:33 · R1 02:58:31 · R2 03:01:15 (IST)</description><Point><coordinates>74.856,12.9141,0</coordinates></Point></Placemark>
<Placemark><name>Mathura</name><styleUrl>#city</styleUrl><description>near miss: Jupiter passes 12.7′ from the limb (IST)</description><Point><coordinates>77.6737,27.4924,0</coordinates></Point></Placemark>
<Placemark><name>Meerut</name><styleUrl>#city</styleUrl><description>near miss: Jupiter passes 14.2′ from the limb (IST)</description><Point><coordinates>77.7064,28.9845,0</coordinates></Point></Placemark>
<Placemark><name>Midnapore</name><styleUrl>#city</styleUrl><description>near miss: Jupiter passes 7.5′ from the limb (IST)</description><Point><coordinates>87.3199,22.426,0</coordinates></Point></Placemark>
<Placemark><name>Mount Abu</name><styleUrl>#city</styleUrl><description>near miss: Jupiter passes 10.1′ from the limb (IST)</description><Point><coordinates>72.7156,24.5926,0</coordinates></Point></Placemark>
<Placemark><name>Mumbai</name><styleUrl>#city</styleUrl><description>near miss: Jupiter passes 4.5′ from the limb (IST)</description><Point><coordinates>72.8777,19.076,0</coordinates></Point></Placemark>
<Placemark><name>Murshidabad</name><styleUrl>#city</styleUrl><description>near miss: Jupiter passes 9.3′ from the limb (IST)</description><Point><coordinates>88.27,24.1745,0</coordinates></Point></Placemark>
<Placemark><name>Mussoorie</name><styleUrl>#city</styleUrl><description>near miss: Jupiter passes 15.7′ from the limb (IST)</description><Point><coordinates>78.0644,30.4598,0</coordinates></Point></Placemark>
<Placemark><name>Muzaffarpur</name><styleUrl>#city</styleUrl><description>near miss: Jupiter passes 11.1′ from the limb (IST)</description><Point><coordinates>85.3647,26.1209,0</coordinates></Point></Placemark>
<Placemark><name>Mysore</name><styleUrl>#city</styleUrl><description>D1 02:26:42 · D2 02:28:55 · R1 03:03:17 · R2 03:05:37 (IST)</description><Point><coordinates>76.6394,12.2958,0</coordinates></Point></Placemark>
<Placemark><name>Nagpur</name><styleUrl>#city</styleUrl><description>near miss: Jupiter passes 6.1′ from the limb (IST)</description><Point><coordinates>79.0882,21.1458,0</coordinates></Point></Placemark>
<Placemark><name>Nainital</name><styleUrl>#city</styleUrl><description>near miss: Jupiter passes 14.5′ from the limb (IST)</description><Point><coordinates>79.4542,29.3919,0</coordinates></Point></Placemark>
<Placemark><name>Nalgonda</name><styleUrl>#city</styleUrl><description>near miss: Jupiter passes 2.0′ from the limb (IST)</description><Point><coordinates>79.269,17.0575,0</coordinates></Point></Placemark>
<Placemark><name>Nashik</name><styleUrl>#city</styleUrl><description>near miss: Jupiter passes 5.4′ from the limb (IST)</description><Point><coordinates>73.7898,19.9975,0</coordinates></Point></Placemark>
<Placemark><name>Nellore</name><styleUrl>#city</styleUrl><description>D1 02:36:10 · D2 02:40:41 · R1 02:54:33 · R2 02:59:21 (IST)</description><Point><coordinates>79.9865,14.4426,0</coordinates></Point></Placemark>
<Placemark><name>Nowgong</name><styleUrl>#city</styleUrl><description>near miss: Jupiter passes 11.9′ from the limb (IST)</description><Point><coordinates>92.684,26.349,0</coordinates></Point></Placemark>
<Placemark><name>Panaji</name><styleUrl>#city</styleUrl><description>near miss: Jupiter passes 0.8′ from the limb (IST)</description><Point><coordinates>73.8278,15.4909,0</coordinates></Point></Placemark>
<Placemark><name>Pantnagar</name><styleUrl>#city</styleUrl><description>near miss: Jupiter passes 14.1′ from the limb (IST)</description><Point><coordinates>79.4737,29.021,0</coordinates></Point></Placemark>
<Placemark><name>Paradeep</name><styleUrl>#city</styleUrl><description>near miss: Jupiter passes 5.3′ from the limb (IST)</description><Point><coordinates>86.6114,20.3165,0</coordinates></Point></Placemark>
<Placemark><name>Pathankot</name><styleUrl>#city</styleUrl><description>near miss: Jupiter passes 17.6′ from the limb (IST)</description><Point><coordinates>75.6522,32.2747,0</coordinates></Point></Placemark>
<Placemark><name>Patna</name><styleUrl>#city</styleUrl><description>near miss: Jupiter passes 10.6′ from the limb (IST)</description><Point><coordinates>85.1376,25.6093,0</coordinates></Point></Placemark>
<Placemark><name>Pondicherry</name><styleUrl>#city</styleUrl><description>D1 02:27:25 · D2 02:29:29 · R1 03:08:18 · R2 03:10:35 (IST)</description><Point><coordinates>79.8083,11.9416,0</coordinates></Point></Placemark>
<Placemark><name>Port Blair</name><styleUrl>#city</styleUrl><description>D1 02:41:21 · D2 02:43:48 · R1 03:24:15 · R2 03:26:57 (IST)</description><Point><coordinates>92.7265,11.6234,0</coordinates></Point></Placemark>
<Placemark><name>Pune</name><styleUrl>#city</styleUrl><description>near miss: Jupiter passes 3.9′ from the limb (IST)</description><Point><coordinates>73.8567,18.5204,0</coordinates></Point></Placemark>
<Placemark><name>Puri</name><styleUrl>#city</styleUrl><description>near miss: Jupiter passes 4.8′ from the limb (IST)</description><Point><coordinates>85.8312,19.8135,0</coordinates></Point></Placemark>
<Placemark><name>Raipur</name><styleUrl>#city</styleUrl><description>near miss: Jupiter passes 6.2′ from the limb (IST)</description><Point><coordinates>81.6296,21.2514,0</coordinates></Point></Placemark>
<Placemark><name>Rajkot</name><styleUrl>#city</styleUrl><description>near miss: Jupiter passes 8.0′ from the limb (IST)</description><Point><coordinates>70.8022,22.3039,0</coordinates></Point></Placemark>
<Placemark><name>Rameswaram</name><styleUrl>#city</styleUrl><description>D1 02:22:45 · D2 02:24:22 · R1 03:16:00 · R2 03:17:46 (IST)</description><Point><coordinates>79.3129,9.2876,0</coordinates></Point></Placemark>
<Placemark><name>Ranchi</name><styleUrl>#city</styleUrl><description>near miss: Jupiter passes 8.3′ from the limb (IST)</description><Point><coordinates>85.3096,23.3441,0</coordinates></Point></Placemark>
<Placemark><name>Roorkee</name><styleUrl>#city</styleUrl><description>near miss: Jupiter passes 15.1′ from the limb (IST)</description><Point><coordinates>77.888,29.8543,0</coordinates></Point></Placemark>
<Placemark><name>Rourkela</name><styleUrl>#city</styleUrl><description>near miss: Jupiter passes 7.2′ from the limb (IST)</description><Point><coordinates>84.8536,22.2604,0</coordinates></Point></Placemark>
<Placemark><name>Salem</name><styleUrl>#city</styleUrl><description>D1 02:25:54 · D2 02:27:52 · R1 03:07:23 · R2 03:09:33 (IST)</description><Point><coordinates>78.146,11.6643,0</coordinates></Point></Placemark>
<Placemark><name>Shillong</name><styleUrl>#city</styleUrl><description>near miss: Jupiter passes 11.0′ from the limb (IST)</description><Point><coordinates>91.8933,25.5788,0</coordinates></Point></Placemark>
<Placemark><name>Shimla</name><styleUrl>#city</styleUrl><description>near miss: Jupiter passes 16.4′ from the limb (IST)</description><Point><coordinates>77.1734,31.1048,0</coordinates></Point></Placemark>
<Placemark><name>Silchar</name><styleUrl>#city</styleUrl><description>near miss: Jupiter passes 10.4′ from the limb (IST)</description><Point><coordinates>92.7789,24.8333,0</coordinates></Point></Placemark>
<Placemark><name>Sriharikota</name><styleUrl>#city</styleUrl><description>D1 02:32:55 · D2 02:36:02 · R1 03:00:32 · R2 03:03:51 (IST)</description><Point><coordinates>80.2304,13.7199,0</coordinates></Point></Placemark>
<Placemark><name>Srinagar</name><styleUrl>#city</styleUrl><description>near miss: Jupiter passes 19.5′ from the limb (IST)</description><Point><coordinates>74.7973,34.0837,0</coordinates></Point></Placemark>
<Placemark><name>Surat</name><styleUrl>#city</styleUrl><description>near miss: Jupiter passes 6.7′ from the limb (IST)</description><Point><coordinates>72.8311,21.1702,0</coordinates></Point></Placemark>
<Placemark><name>Thanjavur</name><styleUrl>#city</styleUrl><description>D1 02:24:46 · D2 02:26:34 · R1 03:11:27 · R2 03:13:28 (IST)</description><Point><coordinates>79.1378,10.787,0</coordinates></Point></Placemark>
<Placemark><name>Tezpur</name><styleUrl>#city</styleUrl><description>near miss: Jupiter passes 12.2′ from the limb (IST)</description><Point><coordinates>92.8006,26.6338,0</coordinates></Point></Placemark>
<Placemark><name>Thiruvananthapuram</name><styleUrl>#city</styleUrl><description>D1 02:20:38 · D2 02:22:09 · R1 03:15:01 · R2 03:16:39 (IST)</description><Point><coordinates>76.9366,8.5241,0</coordinates></Point></Placemark>
<Placemark><name>Tiruchirappalli</name><styleUrl>#city</styleUrl><description>D1 02:24:31 · D2 02:26:21 · R1 03:10:56 · R2 03:12:56 (IST)</description><Point><coordinates>78.7047,10.7905,0</coordinates></Point></Placemark>
<Placemark><name>Tirupati</name><styleUrl>#city</styleUrl><description>D1 02:32:07 · D2 02:35:07 · R1 03:00:08 · R2 03:03:19 (IST)</description><Point><coordinates>79.4192,13.6288,0</coordinates></Point></Placemark>
<Placemark><name>Udaipur</name><styleUrl>#city</styleUrl><description>near miss: Jupiter passes 10.0′ from the limb (IST)</description><Point><coordinates>73.7125,24.5854,0</coordinates></Point></Placemark>
<Placemark><name>Ujjain</name><styleUrl>#city</styleUrl><description>near miss: Jupiter passes 8.4′ from the limb (IST)</description><Point><coordinates>75.7885,23.1765,0</coordinates></Point></Placemark>
<Placemark><name>Vadodara</name><styleUrl>#city</styleUrl><description>near miss: Jupiter passes 7.8′ from the limb (IST)</description><Point><coordinates>73.1812,22.3072,0</coordinates></Point></Placemark>
<Placemark><name>Varanasi</name><styleUrl>#city</styleUrl><description>near miss: Jupiter passes 10.3′ from the limb (IST)</description><Point><coordinates>82.9739,25.3176,0</coordinates></Point></Placemark>
<Placemark><name>Vellore</name><styleUrl>#city</styleUrl><description>D1 02:29:30 · D2 02:32:04 · R1 03:03:34 · R2 03:06:10 (IST)</description><Point><coordinates>79.1325,12.9165,0</coordinates></Point></Placemark>
<Placemark><name>Vijayawada</name><styleUrl>#city</styleUrl><description>near miss: Jupiter passes 1.4′ from the limb (IST)</description><Point><coordinates>80.648,16.5062,0</coordinates></Point></Placemark>
<Placemark><name>Visakhapatnam</name><styleUrl>#city</styleUrl><description>near miss: Jupiter passes 2.6′ from the limb (IST)</description><Point><coordinates>83.2185,17.6868,0</coordinates></Point></Placemark>
</Folder></Document></kml>
