<?xml version="1.0" encoding="UTF-8"?>
<gpx version="1.1" creator="https://occult.alokm.com" xmlns="http://www.topografix.com/GPX/1/1">
<metadata><name>The Moon occults Jupiter — 2026-11-02 — graze limits</name></metadata>
<trk><name>north graze limit</name><trkseg><trkpt lat="13.843" lon="66.0"/><trkpt lat="13.8825" lon="66.23"/><trkpt lat="13.909" lon="66.38"/><trkpt lat="13.9479" lon="66.62"/><trkpt lat="13.991" lon="66.88"/><trkpt lat="14.011" lon="67.0"/><trkpt lat="14.053" lon="67.25"/><trkpt lat="14.0948" lon="67.5"/><trkpt lat="14.1331" lon="67.74"/><trkpt lat="14.1552" lon="67.88"/><trkpt lat="14.1929" lon="68.12"/><trkpt lat="14.2332" lon="68.38"/><trkpt lat="14.257" lon="68.54"/><trkpt lat="14.289" lon="68.75"/><trkpt lat="14.3259" lon="69.0"/><trkpt lat="14.3631" lon="69.25"/><trkpt lat="14.3816" lon="69.38"/><trkpt lat="14.4149" lon="69.62"/><trkpt lat="14.4527" lon="69.88"/><trkpt lat="14.4858" lon="70.12"/><trkpt lat="14.5064" lon="70.27"/><trkpt lat="14.5374" lon="70.5"/><trkpt lat="14.5707" lon="70.75"/><trkpt lat="14.6037" lon="71.0"/><trkpt lat="14.6315" lon="71.22"/><trkpt lat="14.6513" lon="71.38"/><trkpt lat="14.6811" lon="71.62"/><trkpt lat="14.712" lon="71.88"/><trkpt lat="14.7395" lon="72.12"/><trkpt lat="14.7546" lon="72.25"/><trkpt lat="14.784" lon="72.5"/><trkpt lat="14.8128" lon="72.75"/><trkpt lat="14.8407" lon="73.0"/><trkpt lat="14.8692" lon="73.25"/><trkpt lat="14.8832" lon="73.38"/><trkpt lat="14.9094" lon="73.62"/><trkpt lat="14.9354" lon="73.88"/><trkpt lat="14.961" lon="74.12"/><trkpt lat="14.9845" lon="74.38"/><trkpt lat="15.0058" lon="74.57"/><trkpt lat="15.0224" lon="74.75"/><trkpt lat="15.0445" lon="75.0"/><trkpt lat="15.0672" lon="75.25"/><trkpt lat="15.0882" lon="75.5"/><trkpt lat="15.1074" lon="75.75"/><trkpt lat="15.13" lon="76.0"/><trkpt lat="15.1397" lon="76.12"/><trkpt lat="15.1615" lon="76.38"/><trkpt lat="15.1795" lon="76.62"/><trkpt lat="15.1985" lon="76.88"/><trkpt lat="15.2165" lon="77.12"/><trkpt lat="15.2346" lon="77.38"/><trkpt lat="15.2499" lon="77.62"/><trkpt lat="15.2603" lon="77.77"/><trkpt lat="15.2751" lon="78.0"/><trkpt lat="15.2895" lon="78.25"/><trkpt lat="15.3011" lon="78.5"/><trkpt lat="15.3135" lon="78.75"/><trkpt lat="15.3272" lon="79.0"/><trkpt lat="15.3383" lon="79.25"/><trkpt lat="15.3482" lon="79.5"/><trkpt lat="15.3554" lon="79.75"/><trkpt lat="15.3659" lon="80.0"/><trkpt lat="15.3736" lon="80.25"/><trkpt lat="15.3817" lon="80.5"/><trkpt lat="15.3856" lon="80.62"/><trkpt lat="15.3934" lon="80.88"/><trkpt lat="15.4009" lon="81.12"/><trkpt lat="15.4075" lon="81.38"/><trkpt lat="15.4136" lon="81.63"/><trkpt lat="15.4147" lon="81.88"/><trkpt lat="15.4084" lon="82.12"/><trkpt lat="15.4094" lon="82.38"/><trkpt lat="15.4103" lon="82.62"/><trkpt lat="15.4094" lon="82.88"/><trkpt lat="15.4114" lon="83.12"/><trkpt lat="15.4122" lon="83.38"/><trkpt lat="15.4117" lon="83.62"/><trkpt lat="15.4096" lon="83.88"/><trkpt lat="15.4057" lon="84.12"/><trkpt lat="15.3969" lon="84.38"/><trkpt lat="15.3899" lon="84.62"/><trkpt lat="15.3837" lon="84.88"/><trkpt lat="15.3808" lon="85.0"/><trkpt lat="15.3745" lon="85.25"/><trkpt lat="15.3664" lon="85.5"/><trkpt lat="15.357" lon="85.75"/><trkpt lat="15.3459" lon="86.0"/><trkpt lat="15.3346" lon="86.25"/><trkpt lat="15.3231" lon="86.5"/><trkpt lat="15.3079" lon="86.75"/><trkpt lat="15.2916" lon="87.0"/><trkpt lat="15.2764" lon="87.25"/><trkpt lat="15.2573" lon="87.5"/><trkpt lat="15.2486" lon="87.62"/><trkpt lat="15.2303" lon="87.88"/><trkpt lat="15.2118" lon="88.12"/><trkpt lat="15.1916" lon="88.38"/><trkpt lat="15.1713" lon="88.62"/><trkpt lat="15.1474" lon="88.88"/><trkpt lat="15.1269" lon="89.12"/><trkpt lat="15.1165" lon="89.25"/><trkpt lat="15.0966" lon="89.5"/><trkpt lat="15.0736" lon="89.75"/><trkpt lat="15.0484" lon="90.0"/><trkpt lat="15.0196" lon="90.25"/><trkpt lat="15.0058" lon="90.38"/><trkpt lat="14.9785" lon="90.62"/><trkpt lat="14.9485" lon="90.88"/><trkpt lat="14.9215" lon="91.12"/><trkpt lat="14.8889" lon="91.38"/><trkpt lat="14.8738" lon="91.5"/><trkpt lat="14.842" lon="91.75"/><trkpt lat="14.8061" lon="92.0"/><trkpt lat="14.7712" lon="92.25"/><trkpt lat="14.7519" lon="92.38"/><trkpt lat="14.7161" lon="92.62"/><trkpt lat="14.679" lon="92.88"/><trkpt lat="14.6389" lon="93.12"/><trkpt lat="14.6183" lon="93.25"/><trkpt lat="14.5768" lon="93.5"/><trkpt lat="14.5353" lon="93.75"/><trkpt lat="14.5048" lon="93.92"/><trkpt lat="14.4677" lon="94.12"/><trkpt lat="14.4238" lon="94.38"/><trkpt lat="14.3807" lon="94.62"/><trkpt lat="14.3559" lon="94.75"/><trkpt lat="14.3079" lon="95.0"/><trkpt lat="14.2594" lon="95.25"/><trkpt lat="14.2333" lon="95.38"/><trkpt lat="14.1828" lon="95.62"/><trkpt lat="14.1311" lon="95.88"/><trkpt lat="14.1056" lon="96.0"/><trkpt lat="14.0529" lon="96.25"/><trkpt lat="14.007" lon="96.46"/><trkpt lat="13.971" lon="96.62"/><trkpt lat="13.9124" lon="96.88"/><trkpt lat="13.8824" lon="97.01"/><trkpt lat="13.8265" lon="97.25"/><trkpt lat="13.7656" lon="97.5"/><trkpt lat="13.7361" lon="97.62"/><trkpt lat="13.671" lon="97.88"/></trkseg></trk>
</gpx>
