<?xml version="1.0" encoding="UTF-8"?>
<kml xmlns="http://www.opengis.net/kml/2.2"><Document><name>The Moon occults Mars — 2026-11-02</name>
<description>Graze limits and visibility from https://occult.alokm.com/mars-2026-11-02. Solid limits are traced against the real lunar limb (LRO LOLA); the dotted line is the mean-sphere limit. Times in the city placemarks are UTC, real limb.</description>
<Style id="exact"><LineStyle><color>ff06b6d9</color><width>4</width></LineStyle></Style>
<Style id="mean"><LineStyle><color>8006b6d9</color><width>2</width></LineStyle></Style>
<Style id="region"><LineStyle><color>80e6c07d</color><width>1</width></LineStyle><PolyStyle><color>3fe6c07d</color></PolyStyle></Style>
<Style id="night"><LineStyle><width>0</width></LineStyle><PolyStyle><color>3fed3ac4</color></PolyStyle></Style>
<Style id="city"><IconStyle><scale>0.8</scale></IconStyle></Style>
<Folder><name>Graze limits (real lunar limb)</name>
<Placemark><name>north limit — real limb</name><styleUrl>#exact</styleUrl><LineString><tessellate>1</tessellate><coordinates>-167.97,-20.998,0 -167.0,-20.7235,0 -166.0,-20.4508,0 -165.0,-20.1872,0 -164.25,-19.9958,0 -164.0,-19.9306,0 -163.0,-19.6804,0 -162.0,-19.4458,0 -161.0,-19.219,0 -160.0,-19.0056,0 -159.91,-18.9866,0 -159.0,-18.8065,0 -158.0,-18.6168,0 -157.0,-18.4431,0 -156.0,-18.2804,0 -155.0,-18.1262,0 -154.02,-17.9931,0 -154.0,-17.9906,0 -153.0,-17.8682,0 -152.0,-17.7587,0 -151.0,-17.6674,0 -150.0,-17.5951,0 -149.0,-17.5359,0 -148.0,-17.4873,0 -147.0,-17.4821,0 -146.0,-17.47,0 -145.0,-17.5021,0 -144.0,-17.5502,0 -143.0,-17.6095,0 -142.0,-17.6946,0 -141.0,-17.8107,0 -140.0,-17.9482,0 -139.76,-17.9836,0 -139.0,-18.1132,0 -138.0,-18.3067,0 -137.0,-18.5365,0 -136.0,-18.7885,0 -135.29,-18.9873,0 -135.0,-19.0724,0 -134.0,-19.3915,0 -133.0,-19.7391,0 -132.35,-19.9799,0 -132.0,-20.1163,0 -131.0,-20.5325,0 -130.04,-20.9714,0 -130.0,-20.9907,0 -129.0,-21.4934,0 -128.1,-21.9694,0 -128.0,-22.024,0 -127.0,-22.595,0 -126.39,-22.9669,0 -126.0,-23.2074,0 -125.0,-23.8709,0 -124.85,-23.9684,0 -124.0,-24.5557,0 -123.43,-24.9712,0 -123.0,-25.295,0 -122.11,-25.9836,0 -122.0,-26.0723,0 -121.0,-26.8792,0 -120.87,-26.9844,0 -120.0,-27.7121,0 -119.68,-27.9905,0 -119.0,-28.5773,0 -118.55,-28.9722,0 -118.0,-29.4643,0 -117.44,-29.9773,0 -117.0,-30.3913,0 -116.37,-30.9853,0 -116.0,-31.3342,0 -115.32,-31.9854,0 -115.0,-32.2958,0 -114.29,-32.9858,0 -114.0,-33.2697,0 -113.27,-33.9858,0 -113.0,-34.2524,0 -112.26,-34.9842,0 -112.0,-35.2414,0 -111.25,-35.9836,0 -111.0,-36.2311,0 -110.23,-36.9923,0 -110.0,-37.22,0 -109.22,-37.988,0 -109.0,-38.2041,0 -108.2,-38.985,0 -108.0,-39.1792,0 -107.17,-39.9855,0 -107.0,-40.1496,0 -106.13,-40.9799,0 -106.0,-41.102,0 -105.07,-41.9758,0 -105.0,-42.0413,0 -104.0,-42.9751,0 -103.99,-42.9843,0 -103.0,-43.8978,0 -102.9,-43.9887,0 -102.0,-44.7918,0 -101.78,-44.9886,0 -101.0,-45.6696,0 -100.63,-45.9912,0 -100.0,-46.5324,0 -99.46,-46.9887,0 -99.0,-47.3702,0 -98.25,-47.9831,0 -98.0,-48.1884,0 -97.01,-48.9745,0 -97.0,-48.9825,0 -96.0,-49.7602,0 -95.73,-49.9702,0 -95.0,-50.5225,0 -94.41,-50.9689,0 -94.0,-51.269,0 -93.04,-51.9744,0 -93.0,-52.0037,0 -92.0,-52.7037,0 -91.62,-52.9667,0 -91.0,-53.3879,0 -90.14,-53.9687,0 -90.0,-54.0603,0 -89.0,-54.7138,0 -88.61,-54.964,0 -88.0,-55.3526,0 -87.0,-55.9733,0 -87.0,-55.9733,0 -86.0,-56.5786,0 -85.33,-56.9737,0 -85.0,-57.1642,0 -84.0,-57.7371,0 -83.57,-57.9766,0 -83.0,-58.2867,0 -82.0,-58.8258,0 -81.73,-58.9683,0 -81.0,-59.3477,0 -80.0,-59.8575,0 -79.78,-59.969,0 -79.0,-60.3594,0 -78.0,-60.841,0 -77.72,-60.9751,0 -77.0,-61.3146,0 -76.0,-61.7717,0 -75.54,-61.9772,0 -75.0,-62.2163,0</coordinates></LineString></Placemark>
</Folder><Folder><name>Mean-sphere limits</name>
<Placemark><name>north limit — mean sphere</name><styleUrl>#mean</styleUrl><LineString><tessellate>1</tessellate><coordinates>-167.97,-21.0,0 -167.0,-20.73,0 -166.0,-20.46,0 -165.0,-20.19,0 -164.25,-20.0,0 -164.0,-19.94,0 -163.0,-19.69,0 -162.0,-19.46,0 -161.0,-19.23,0 -160.0,-19.02,0 -159.91,-19.0,0 -159.0,-18.82,0 -158.0,-18.63,0 -157.0,-18.45,0 -156.0,-18.29,0 -155.0,-18.14,0 -154.02,-18.0,0 -154.0,-18.0,0 -153.0,-17.88,0 -152.0,-17.77,0 -151.0,-17.68,0 -150.0,-17.61,0 -149.0,-17.55,0 -148.0,-17.51,0 -147.0,-17.49,0 -146.0,-17.49,0 -145.0,-17.51,0 -144.0,-17.56,0 -143.0,-17.62,0 -142.0,-17.71,0 -141.0,-17.82,0 -140.0,-17.96,0 -139.76,-18.0,0 -139.0,-18.13,0 -138.0,-18.32,0 -137.0,-18.55,0 -136.0,-18.8,0 -135.29,-19.0,0 -135.0,-19.08,0 -134.0,-19.4,0 -133.0,-19.75,0 -132.35,-20.0,0 -132.0,-20.14,0 -131.0,-20.56,0 -130.04,-21.0,0 -130.0,-21.02,0 -129.0,-21.52,0 -128.1,-22.0,0 -128.0,-22.05,0 -127.0,-22.63,0 -126.39,-23.0,0 -126.0,-23.24,0 -125.0,-23.9,0 -124.85,-24.0,0 -124.0,-24.59,0 -123.43,-25.0,0 -123.0,-25.32,0 -122.11,-26.0,0 -122.0,-26.09,0 -121.0,-26.89,0 -120.87,-27.0,0 -120.0,-27.73,0 -119.68,-28.0,0 -119.0,-28.6,0 -118.55,-29.0,0 -118.0,-29.49,0 -117.44,-30.0,0 -117.0,-30.41,0 -116.37,-31.0,0 -116.0,-31.35,0 -115.32,-32.0,0 -115.0,-32.31,0 -114.29,-33.0,0 -114.0,-33.28,0 -113.27,-34.0,0 -113.0,-34.26,0 -112.26,-35.0,0 -112.0,-35.25,0 -111.25,-36.0,0 -111.0,-36.24,0 -110.23,-37.0,0 -110.0,-37.23,0 -109.22,-38.0,0 -109.0,-38.22,0 -108.2,-39.0,0 -108.0,-39.2,0 -107.17,-40.0,0 -107.0,-40.17,0 -106.13,-41.0,0 -106.0,-41.12,0 -105.07,-42.0,0 -105.0,-42.07,0 -104.0,-43.0,0 -103.99,-43.0,0 -103.0,-43.91,0 -102.9,-44.0,0 -102.0,-44.81,0 -101.78,-45.0,0 -101.0,-45.68,0 -100.63,-46.0,0 -100.0,-46.54,0 -99.46,-47.0,0 -99.0,-47.39,0 -98.25,-48.0,0 -98.0,-48.21,0 -97.01,-49.0,0 -97.0,-49.01,0 -96.0,-49.79,0 -95.73,-50.0,0 -95.0,-50.56,0 -94.41,-51.0,0 -94.0,-51.3,0 -93.04,-52.0,0 -93.0,-52.03,0 -92.0,-52.74,0 -91.62,-53.0,0 -91.0,-53.43,0 -90.14,-54.0,0 -90.0,-54.09,0 -89.0,-54.75,0 -88.61,-55.0,0 -88.0,-55.39,0 -87.0,-56.0,0 -87.0,-56.0,0 -86.0,-56.61,0 -85.33,-57.0,0 -85.0,-57.19,0 -84.0,-57.76,0 -83.57,-58.0,0 -83.0,-58.32,0 -82.0,-58.86,0 -81.73,-59.0,0 -81.0,-59.38,0 -80.0,-59.89,0 -79.78,-60.0,0 -79.0,-60.39,0 -78.0,-60.87,0 -77.72,-61.0,0 -77.0,-61.34,0 -76.0,-61.8,0 -75.54,-62.0,0 -75.0,-62.24,0</coordinates></LineString></Placemark>
</Folder><Folder><name>Visibility</name>
<Placemark><name>sees the occultation</name><styleUrl>#region</styleUrl><Polygon><outerBoundaryIs><LinearRing><coordinates>-135.03,-73.0,0 -135.0,-73.0,0 -134.0,-73.0,0 -133.0,-73.01,0 -132.0,-73.01,0 -131.0,-73.01,0 -130.0,-73.02,0 -129.0,-73.02,0 -128.0,-73.02,0 -127.0,-73.02,0 -126.0,-73.02,0 -125.0,-73.02,0 -124.0,-73.02,0 -123.0,-73.02,0 -122.0,-73.02,0 -121.0,-73.02,0 -120.0,-73.02,0 -119.0,-73.02,0 -118.0,-73.02,0 -117.0,-73.02,0 -116.0,-73.02,0 -115.0,-73.02,0 -114.0,-73.02,0 -113.0,-73.02,0 -112.0,-73.02,0 -111.0,-73.02,0 -110.0,-73.02,0 -109.0,-73.02,0 -108.0,-73.02,0 -107.0,-73.02,0 -106.0,-73.02,0 -105.0,-73.02,0 -104.0,-73.02,0 -103.0,-73.02,0 -102.0,-73.02,0 -101.0,-73.01,0 -100.0,-73.01,0 -99.0,-73.01,0 -98.0,-73.01,0 -97.0,-73.0,0 -96.67,-73.0,0 -96.0,-72.81,0 -95.0,-72.62,0 -94.0,-72.5,0 -93.0,-72.41,0 -92.0,-72.36,0 -91.0,-72.26,0 -90.0,-72.19,0 -89.0,-72.08,0 -88.0,-72.02,0 -87.82,-72.0,0 -87.0,-71.74,0 -86.0,-71.51,0 -85.0,-71.39,0 -84.0,-71.19,0 -83.0,-71.07,0 -82.66,-71.0,0 -82.0,-70.74,0 -81.0,-70.52,0 -80.0,-70.29,0 -79.0,-70.03,0 -78.8,-70.0,0 -78.0,-69.72,0 -77.0,-69.33,0 -76.09,-69.0,0 -76.0,-68.94,0 -75.0,-68.58,0 -74.0,-68.12,0 -73.66,-68.0,0 -73.0,-67.65,0 -72.0,-67.17,0 -71.65,-67.0,0 -71.0,-66.38,0 -70.48,-66.0,0 -70.0,-65.35,0 -69.6,-65.0,0 -70.0,-64.32,0 -70.72,-64.0,0 -71.0,-63.89,0 -72.0,-63.5,0 -73.0,-63.09,0 -73.21,-63.0,0 -74.0,-62.67,0 -75.0,-62.24,0 -75.54,-62.0,0 -76.0,-61.8,0 -77.0,-61.34,0 -77.72,-61.0,0 -78.0,-60.87,0 -79.0,-60.39,0 -79.78,-60.0,0 -80.0,-59.89,0 -81.0,-59.38,0 -81.73,-59.0,0 -82.0,-58.86,0 -83.0,-58.32,0 -83.57,-58.0,0 -84.0,-57.76,0 -85.0,-57.19,0 -85.33,-57.0,0 -86.0,-56.61,0 -87.0,-56.0,0 -87.0,-56.0,0 -88.0,-55.39,0 -88.61,-55.0,0 -89.0,-54.75,0 -90.0,-54.09,0 -90.14,-54.0,0 -91.0,-53.43,0 -91.62,-53.0,0 -92.0,-52.74,0 -93.0,-52.03,0 -93.04,-52.0,0 -94.0,-51.3,0 -94.41,-51.0,0 -95.0,-50.56,0 -95.73,-50.0,0 -96.0,-49.79,0 -97.0,-49.01,0 -97.01,-49.0,0 -98.0,-48.21,0 -98.25,-48.0,0 -99.0,-47.39,0 -99.46,-47.0,0 -100.0,-46.54,0 -100.63,-46.0,0 -101.0,-45.68,0 -101.78,-45.0,0 -102.0,-44.81,0 -102.9,-44.0,0 -103.0,-43.91,0 -103.99,-43.0,0 -104.0,-43.0,0 -105.0,-42.07,0 -105.07,-42.0,0 -106.0,-41.12,0 -106.13,-41.0,0 -107.0,-40.17,0 -107.17,-40.0,0 -108.0,-39.2,0 -108.2,-39.0,0 -109.0,-38.22,0 -109.22,-38.0,0 -110.0,-37.23,0 -110.23,-37.0,0 -111.0,-36.24,0 -111.25,-36.0,0 -112.0,-35.25,0 -112.26,-35.0,0 -113.0,-34.26,0 -113.27,-34.0,0 -114.0,-33.28,0 -114.29,-33.0,0 -115.0,-32.31,0 -115.32,-32.0,0 -116.0,-31.35,0 -116.37,-31.0,0 -117.0,-30.41,0 -117.44,-30.0,0 -118.0,-29.49,0 -118.55,-29.0,0 -119.0,-28.6,0 -119.68,-28.0,0 -120.0,-27.73,0 -120.87,-27.0,0 -121.0,-26.89,0 -122.0,-26.09,0 -122.11,-26.0,0 -123.0,-25.32,0 -123.43,-25.0,0 -124.0,-24.59,0 -124.85,-24.0,0 -125.0,-23.9,0 -126.0,-23.24,0 -126.39,-23.0,0 -127.0,-22.63,0 -128.0,-22.05,0 -128.1,-22.0,0 -129.0,-21.52,0 -130.0,-21.02,0 -130.04,-21.0,0 -131.0,-20.56,0 -132.0,-20.14,0 -132.35,-20.0,0 -133.0,-19.75,0 -134.0,-19.4,0 -135.0,-19.08,0 -135.29,-19.0,0 -136.0,-18.8,0 -137.0,-18.55,0 -138.0,-18.32,0 -139.0,-18.13,0 -139.76,-18.0,0 -140.0,-17.96,0 -141.0,-17.82,0 -142.0,-17.71,0 -143.0,-17.62,0 -144.0,-17.56,0 -145.0,-17.51,0 -146.0,-17.49,0 -147.0,-17.49,0 -148.0,-17.51,0 -149.0,-17.55,0 -150.0,-17.61,0 -151.0,-17.68,0 -152.0,-17.77,0 -153.0,-17.88,0 -154.0,-18.0,0 -154.02,-18.0,0 -155.0,-18.14,0 -156.0,-18.29,0 -157.0,-18.45,0 -158.0,-18.63,0 -159.0,-18.82,0 -159.91,-19.0,0 -160.0,-19.02,0 -161.0,-19.23,0 -162.0,-19.46,0 -163.0,-19.69,0 -164.0,-19.94,0 -164.25,-20.0,0 -165.0,-20.19,0 -166.0,-20.46,0 -167.0,-20.73,0 -167.97,-21.0,0 -168.0,-21.01,0 -169.0,-21.3,0 -170.0,-21.62,0 -170.83,-22.0,0 -171.0,-22.1,0 -171.82,-23.0,0 -172.0,-23.28,0 -172.33,-24.0,0 -172.76,-25.0,0 -173.0,-25.39,0 -173.29,-26.0,0 -173.63,-27.0,0 -173.8,-28.0,0 -174.0,-28.44,0 -174.41,-29.0,0 -174.34,-30.0,0 -174.57,-31.0,0 -174.92,-32.0,0 -174.87,-33.0,0 -175.0,-33.37,0 -175.22,-34.0,0 -175.21,-35.0,0 -175.45,-36.0,0 -175.6,-37.0,0 -175.36,-38.0,0 -175.51,-39.0,0 -175.69,-40.0,0 -175.42,-41.0,0 -175.15,-42.0,0 -175.38,-43.0,0 -175.42,-44.0,0 -175.13,-45.0,0 -175.0,-45.45,0 -174.91,-46.0,0 -174.75,-47.0,0 -174.58,-48.0,0 -174.42,-49.0,0 -174.25,-50.0,0 -174.08,-51.0,0 -174.0,-51.45,0 -173.83,-52.0,0 -173.28,-53.0,0 -173.1,-54.0,0 -173.0,-54.16,0 -172.47,-55.0,0 -172.0,-55.74,0 -171.84,-56.0,0 -171.37,-57.0,0 -171.02,-58.0,0 -171.0,-58.03,0 -170.0,-58.88,0 -169.93,-59.0,0 -169.52,-60.0,0 -169.0,-60.44,0 -168.33,-61.0,0 -168.0,-61.28,0 -167.53,-62.0,0 -167.0,-62.48,0 -166.42,-63.0,0 -166.0,-63.38,0 -165.31,-64.0,0 -165.0,-64.27,0 -164.0,-64.76,0 -163.73,-65.0,0 -163.0,-65.64,0 -162.26,-66.0,0 -162.0,-66.13,0 -161.0,-66.6,0 -160.17,-67.0,0 -160.0,-67.06,0 -159.0,-67.55,0 -158.06,-68.0,0 -158.0,-68.02,0 -157.0,-68.36,0 -156.0,-68.76,0 -155.5,-69.0,0 -155.0,-69.24,0 -154.0,-69.5,0 -153.0,-69.76,0 -152.06,-70.0,0 -152.0,-70.01,0 -151.0,-70.4,0 -150.0,-70.61,0 -149.0,-70.82,0 -148.16,-71.0,0 -148.0,-71.03,0 -147.0,-71.31,0 -146.0,-71.46,0 -145.0,-71.62,0 -144.0,-71.88,0 -143.34,-72.0,0 -143.0,-72.04,0 -142.0,-72.15,0 -141.0,-72.26,0 -140.0,-72.42,0 -139.0,-72.57,0 -138.0,-72.67,0 -137.0,-72.78,0 -136.0,-72.89,0 -135.03,-73.0,0</coordinates></LinearRing></outerBoundaryIs></Polygon></Placemark>
<Placemark><name>after sunset</name><styleUrl>#night</styleUrl><Polygon><outerBoundaryIs><LinearRing><coordinates>-169.52,-60.0,0 -169.0,-60.02,0 -168.0,-60.05,0 -167.0,-60.14,0 -166.0,-60.16,0 -165.0,-60.17,0 -164.0,-60.26,0 -163.0,-60.26,0 -162.0,-60.26,0 -161.0,-60.13,0 -160.66,-60.0,0 -160.0,-59.52,0 -159.0,-59.08,0 -158.8,-59.0,0 -158.0,-58.46,0 -157.12,-58.0,0 -157.0,-57.88,0 -156.0,-57.31,0 -155.52,-57.0,0 -155.0,-56.54,0 -154.1,-56.0,0 -154.0,-55.9,0 -153.0,-55.35,0 -152.56,-55.0,0 -152.0,-54.44,0 -151.0,-54.15,0 -150.83,-54.0,0 -150.0,-53.26,0 -149.52,-53.0,0 -149.0,-52.5,0 -148.45,-52.0,0 -148.0,-51.55,0 -147.43,-51.0,0 -147.0,-50.57,0 -146.45,-50.0,0 -146.0,-49.55,0 -145.5,-49.0,0 -145.0,-48.49,0 -144.57,-48.0,0 -144.0,-47.43,0 -143.64,-47.0,0 -143.0,-46.35,0 -142.27,-46.0,0 -142.0,-45.73,0 -141.51,-45.0,0 -141.0,-44.48,0 -140.66,-44.0,0 -140.0,-43.11,0 -139.92,-43.0,0 -139.45,-42.0,0 -139.0,-41.54,0 -138.68,-41.0,0 -138.0,-40.31,0 -137.79,-40.0,0 -137.0,-39.2,0 -136.85,-39.0,0 -136.15,-38.0,0 -136.0,-37.84,0 -135.69,-37.0,0 -135.0,-36.11,0 -134.94,-36.0,0 -134.69,-35.0,0 -134.0,-34.29,0 -133.84,-34.0,0 -133.0,-33.15,0 -132.9,-33.0,0 -132.58,-32.0,0 -132.0,-31.39,0 -131.86,-31.0,0 -131.71,-30.0,0 -131.0,-29.26,0 -130.9,-29.0,0 -130.0,-28.09,0 -129.95,-28.0,0 -129.79,-27.0,0 -129.0,-26.17,0 -128.94,-26.0,0 -128.92,-25.0,0 -128.0,-24.05,0 -127.98,-24.0,0 -127.0,-23.0,0 -127.0,-23.0,0 -127.0,-22.63,0 -128.0,-22.05,0 -128.1,-22.0,0 -129.0,-21.52,0 -130.0,-21.02,0 -130.04,-21.0,0 -131.0,-20.56,0 -132.0,-20.14,0 -132.35,-20.0,0 -133.0,-19.75,0 -134.0,-19.4,0 -135.0,-19.08,0 -135.29,-19.0,0 -136.0,-18.8,0 -137.0,-18.55,0 -138.0,-18.32,0 -139.0,-18.13,0 -139.76,-18.0,0 -140.0,-17.96,0 -141.0,-17.82,0 -142.0,-17.71,0 -143.0,-17.62,0 -144.0,-17.56,0 -145.0,-17.51,0 -146.0,-17.49,0 -147.0,-17.49,0 -148.0,-17.51,0 -149.0,-17.55,0 -150.0,-17.61,0 -151.0,-17.68,0 -152.0,-17.77,0 -153.0,-17.88,0 -154.0,-18.0,0 -154.02,-18.0,0 -155.0,-18.14,0 -156.0,-18.29,0 -157.0,-18.45,0 -158.0,-18.63,0 -159.0,-18.82,0 -159.91,-19.0,0 -160.0,-19.02,0 -161.0,-19.23,0 -162.0,-19.46,0 -163.0,-19.69,0 -164.0,-19.94,0 -164.25,-20.0,0 -165.0,-20.19,0 -166.0,-20.46,0 -167.0,-20.73,0 -167.97,-21.0,0 -168.0,-21.01,0 -169.0,-21.3,0 -170.0,-21.62,0 -170.83,-22.0,0 -171.0,-22.1,0 -171.82,-23.0,0 -172.0,-23.28,0 -172.33,-24.0,0 -172.76,-25.0,0 -173.0,-25.39,0 -173.29,-26.0,0 -173.63,-27.0,0 -173.8,-28.0,0 -174.0,-28.44,0 -174.41,-29.0,0 -174.34,-30.0,0 -174.57,-31.0,0 -174.92,-32.0,0 -174.87,-33.0,0 -175.0,-33.37,0 -175.22,-34.0,0 -175.21,-35.0,0 -175.45,-36.0,0 -175.6,-37.0,0 -175.36,-38.0,0 -175.51,-39.0,0 -175.69,-40.0,0 -175.42,-41.0,0 -175.15,-42.0,0 -175.38,-43.0,0 -175.42,-44.0,0 -175.13,-45.0,0 -175.0,-45.45,0 -174.91,-46.0,0 -174.75,-47.0,0 -174.58,-48.0,0 -174.42,-49.0,0 -174.25,-50.0,0 -174.08,-51.0,0 -174.0,-51.45,0 -173.83,-52.0,0 -173.28,-53.0,0 -173.1,-54.0,0 -173.0,-54.16,0 -172.47,-55.0,0 -172.0,-55.74,0 -171.84,-56.0,0 -171.37,-57.0,0 -171.02,-58.0,0 -171.0,-58.03,0 -170.0,-58.88,0 -169.93,-59.0,0 -169.52,-60.0,0</coordinates></LinearRing></outerBoundaryIs></Polygon></Placemark>
</Folder><Folder><name>Cities</name>
<Placemark><name>São Paulo, BR</name><styleUrl>#city</styleUrl><description>near miss: Mars passes 41.1′ from the limb (UTC)</description><Point><coordinates>-46.63611,-23.5475,0</coordinates></Point></Placemark>
<Placemark><name>Mexico City, MX</name><styleUrl>#city</styleUrl><description>near miss: Mars passes 45.9′ from the limb (UTC)</description><Point><coordinates>-99.12766,19.42847,0</coordinates></Point></Placemark>
<Placemark><name>New York City, US</name><styleUrl>#city</styleUrl><description>near miss: Mars passes 75.4′ from the limb (UTC)</description><Point><coordinates>-74.00597,40.71427,0</coordinates></Point></Placemark>
<Placemark><name>Lima, PE</name><styleUrl>#city</styleUrl><description>near miss: Mars passes 37.4′ from the limb (UTC)</description><Point><coordinates>-77.02824,-12.04318,0</coordinates></Point></Placemark>
<Placemark><name>Bogotá, CO</name><styleUrl>#city</styleUrl><description>near miss: Mars passes 52.0′ from the limb (UTC)</description><Point><coordinates>-74.08175,4.60971,0</coordinates></Point></Placemark>
<Placemark><name>Santiago, CL</name><styleUrl>#city</styleUrl><description>near miss: Mars passes 23.0′ from the limb (UTC)</description><Point><coordinates>-70.64827,-33.45694,0</coordinates></Point></Placemark>
<Placemark><name>Los Angeles, US</name><styleUrl>#city</styleUrl><description>near miss: Mars passes 50.8′ from the limb (UTC)</description><Point><coordinates>-118.24368,34.05223,0</coordinates></Point></Placemark>
<Placemark><name>Caracas, VE</name><styleUrl>#city</styleUrl><description>near miss: Mars passes 60.7′ from the limb (UTC)</description><Point><coordinates>-66.87919,10.48801,0</coordinates></Point></Placemark>
<Placemark><name>Buenos Aires, AR</name><styleUrl>#city</styleUrl><description>near miss: Mars passes 26.9′ from the limb (UTC)</description><Point><coordinates>-58.37723,-34.61315,0</coordinates></Point></Placemark>
<Placemark><name>Toronto, CA</name><styleUrl>#city</styleUrl><description>near miss: Mars passes 74.6′ from the limb (UTC)</description><Point><coordinates>-79.39864,43.70643,0</coordinates></Point></Placemark>
<Placemark><name>Quito, EC</name><styleUrl>#city</styleUrl><description>near miss: Mars passes 45.4′ from the limb (UTC)</description><Point><coordinates>-78.52495,-0.22985,0</coordinates></Point></Placemark>
<Placemark><name>Brooklyn, US</name><styleUrl>#city</styleUrl><description>near miss: Mars passes 75.4′ from the limb (UTC)</description><Point><coordinates>-73.94958,40.6501,0</coordinates></Point></Placemark>
<Placemark><name>Guayaquil, EC</name><styleUrl>#city</styleUrl><description>near miss: Mars passes 43.0′ from the limb (UTC)</description><Point><coordinates>-79.88621,-2.19616,0</coordinates></Point></Placemark>
<Placemark><name>Belo Horizonte, BR</name><styleUrl>#city</styleUrl><description>near miss: Mars passes 45.4′ from the limb (UTC)</description><Point><coordinates>-43.93778,-19.92083,0</coordinates></Point></Placemark>
<Placemark><name>Chicago, US</name><styleUrl>#city</styleUrl><description>near miss: Mars passes 69.5′ from the limb (UTC)</description><Point><coordinates>-87.65005,41.85003,0</coordinates></Point></Placemark>
<Placemark><name>Fortaleza, BR</name><styleUrl>#city</styleUrl><description>near miss: Mars passes 61.7′ from the limb (UTC)</description><Point><coordinates>-38.54306,-3.71722,0</coordinates></Point></Placemark>
<Placemark><name>Cali, CO</name><styleUrl>#city</styleUrl><description>near miss: Mars passes 49.5′ from the limb (UTC)</description><Point><coordinates>-76.5199,3.43054,0</coordinates></Point></Placemark>
<Placemark><name>Queens, US</name><styleUrl>#city</styleUrl><description>near miss: Mars passes 75.4′ from the limb (UTC)</description><Point><coordinates>-73.83652,40.68149,0</coordinates></Point></Placemark>
<Placemark><name>Houston, US</name><styleUrl>#city</styleUrl><description>near miss: Mars passes 56.4′ from the limb (UTC)</description><Point><coordinates>-95.36327,29.76328,0</coordinates></Point></Placemark>
<Placemark><name>Manaus, BR</name><styleUrl>#city</styleUrl><description>near miss: Mars passes 54.2′ from the limb (UTC)</description><Point><coordinates>-60.025,-3.10194,0</coordinates></Point></Placemark>
<Placemark><name>Brasília, BR</name><styleUrl>#city</styleUrl><description>near miss: Mars passes 48.1′ from the limb (UTC)</description><Point><coordinates>-47.92972,-15.77972,0</coordinates></Point></Placemark>
<Placemark><name>Santo Domingo, DO</name><styleUrl>#city</styleUrl><description>near miss: Mars passes 64.2′ from the limb (UTC)</description><Point><coordinates>-69.89232,18.47186,0</coordinates></Point></Placemark>
<Placemark><name>Havana, CU</name><styleUrl>#city</styleUrl><description>near miss: Mars passes 59.3′ from the limb (UTC)</description><Point><coordinates>-82.38304,23.13302,0</coordinates></Point></Placemark>
<Placemark><name>Córdoba, AR</name><styleUrl>#city</styleUrl><description>near miss: Mars passes 27.6′ from the limb (UTC)</description><Point><coordinates>-64.18853,-31.40648,0</coordinates></Point></Placemark>
<Placemark><name>La Paz, BO</name><styleUrl>#city</styleUrl><description>near miss: Mars passes 38.8′ from the limb (UTC)</description><Point><coordinates>-68.15,-16.5,0</coordinates></Point></Placemark>
<Placemark><name>Medellín, CO</name><styleUrl>#city</styleUrl><description>near miss: Mars passes 52.1′ from the limb (UTC)</description><Point><coordinates>-75.57151,6.245,0</coordinates></Point></Placemark>
<Placemark><name>Curitiba, BR</name><styleUrl>#city</styleUrl><description>near miss: Mars passes 38.5′ from the limb (UTC)</description><Point><coordinates>-49.27306,-25.42778,0</coordinates></Point></Placemark>
<Placemark><name>Tijuana, MX</name><styleUrl>#city</styleUrl><description>near miss: Mars passes 49.7′ from the limb (UTC)</description><Point><coordinates>-117.00371,32.5027,0</coordinates></Point></Placemark>
<Placemark><name>Iztapalapa, MX</name><styleUrl>#city</styleUrl><description>near miss: Mars passes 45.9′ from the limb (UTC)</description><Point><coordinates>-99.06224,19.35529,0</coordinates></Point></Placemark>
<Placemark><name>Santa Cruz de la Sierra, BO</name><styleUrl>#city</styleUrl><description>near miss: Mars passes 40.2′ from the limb (UTC)</description><Point><coordinates>-63.18117,-17.78629,0</coordinates></Point></Placemark>
<Placemark><name>Montréal, CA</name><styleUrl>#city</styleUrl><description>near miss: Mars passes 78.2′ from the limb (UTC)</description><Point><coordinates>-73.58781,45.50884,0</coordinates></Point></Placemark>
<Placemark><name>Maracaibo, VE</name><styleUrl>#city</styleUrl><description>near miss: Mars passes 57.9′ from the limb (UTC)</description><Point><coordinates>-71.61089,10.64232,0</coordinates></Point></Placemark>
<Placemark><name>Puebla, MX</name><styleUrl>#city</styleUrl><description>near miss: Mars passes 46.1′ from the limb (UTC)</description><Point><coordinates>-98.20723,19.04778,0</coordinates></Point></Placemark>
<Placemark><name>Phoenix, US</name><styleUrl>#city</styleUrl><description>near miss: Mars passes 52.1′ from the limb (UTC)</description><Point><coordinates>-112.07404,33.44838,0</coordinates></Point></Placemark>
<Placemark><name>Ecatepec de Morelos, MX</name><styleUrl>#city</styleUrl><description>near miss: Mars passes 46.1′ from the limb (UTC)</description><Point><coordinates>-99.06064,19.60492,0</coordinates></Point></Placemark>
<Placemark><name>Valencia, VE</name><styleUrl>#city</styleUrl><description>near miss: Mars passes 59.8′ from the limb (UTC)</description><Point><coordinates>-68.00044,10.16153,0</coordinates></Point></Placemark>
<Placemark><name>Santiago de Querétaro, MX</name><styleUrl>#city</styleUrl><description>near miss: Mars passes 46.1′ from the limb (UTC)</description><Point><coordinates>-100.38806,20.58806,0</coordinates></Point></Placemark>
<Placemark><name>León de los Aldama, MX</name><styleUrl>#city</styleUrl><description>near miss: Mars passes 45.8′ from the limb (UTC)</description><Point><coordinates>-101.68253,21.12183,0</coordinates></Point></Placemark>
<Placemark><name>Philadelphia, US</name><styleUrl>#city</styleUrl><description>near miss: Mars passes 74.4′ from the limb (UTC)</description><Point><coordinates>-75.16362,39.95238,0</coordinates></Point></Placemark>
<Placemark><name>Goiânia, BR</name><styleUrl>#city</styleUrl><description>near miss: Mars passes 46.8′ from the limb (UTC)</description><Point><coordinates>-49.25389,-16.67861,0</coordinates></Point></Placemark>
<Placemark><name>San Antonio, US</name><styleUrl>#city</styleUrl><description>near miss: Mars passes 54.5′ from the limb (UTC)</description><Point><coordinates>-98.49363,29.42412,0</coordinates></Point></Placemark>
<Placemark><name>Ciudad Juárez, MX</name><styleUrl>#city</styleUrl><description>near miss: Mars passes 52.7′ from the limb (UTC)</description><Point><coordinates>-106.46084,31.72024,0</coordinates></Point></Placemark>
<Placemark><name>Belém, BR</name><styleUrl>#city</styleUrl><description>near miss: Mars passes 60.5′ from the limb (UTC)</description><Point><coordinates>-48.50444,-1.45583,0</coordinates></Point></Placemark>
<Placemark><name>Porto Alegre, BR</name><styleUrl>#city</styleUrl><description>near miss: Mars passes 33.6′ from the limb (UTC)</description><Point><coordinates>-51.23019,-30.03283,0</coordinates></Point></Placemark>
<Placemark><name>Manhattan, US</name><styleUrl>#city</styleUrl><description>near miss: Mars passes 75.4′ from the limb (UTC)</description><Point><coordinates>-73.96625,40.78343,0</coordinates></Point></Placemark>
<Placemark><name>Asunción, PY</name><styleUrl>#city</styleUrl><description>near miss: Mars passes 35.8′ from the limb (UTC)</description><Point><coordinates>-57.647,-25.28646,0</coordinates></Point></Placemark>
<Placemark><name>Zapopan, MX</name><styleUrl>#city</styleUrl><description>near miss: Mars passes 44.5′ from the limb (UTC)</description><Point><coordinates>-103.38742,20.72111,0</coordinates></Point></Placemark>
<Placemark><name>San Diego, US</name><styleUrl>#city</styleUrl><description>near miss: Mars passes 49.8′ from the limb (UTC)</description><Point><coordinates>-117.16472,32.71571,0</coordinates></Point></Placemark>
<Placemark><name>Guadalajara, MX</name><styleUrl>#city</styleUrl><description>near miss: Mars passes 44.5′ from the limb (UTC)</description><Point><coordinates>-103.34749,20.67738,0</coordinates></Point></Placemark>
<Placemark><name>The Bronx, US</name><styleUrl>#city</styleUrl><description>near miss: Mars passes 75.5′ from the limb (UTC)</description><Point><coordinates>-73.86641,40.84985,0</coordinates></Point></Placemark>
<Placemark><name>Dallas, US</name><styleUrl>#city</styleUrl><description>near miss: Mars passes 58.1′ from the limb (UTC)</description><Point><coordinates>-96.80667,32.78306,0</coordinates></Point></Placemark>
<Placemark><name>Calgary, CA</name><styleUrl>#city</styleUrl><description>near miss: Mars passes 67.8′ from the limb (UTC)</description><Point><coordinates>-114.08529,51.05011,0</coordinates></Point></Placemark>
</Folder></Document></kml>
