<?xml version="1.0" encoding="UTF-8"?>
<kml xmlns="http://www.opengis.net/kml/2.2"><Document><name>The Moon occults Mars — 2027-12-29</name>
<description>Graze limits and visibility from https://occult.alokm.com/mars-2027-12-29. Solid limits are traced against the real lunar limb (LRO LOLA); the dotted line is the mean-sphere limit. Times in the city placemarks are UTC, real limb.</description>
<Style id="exact"><LineStyle><color>ff06b6d9</color><width>4</width></LineStyle></Style>
<Style id="mean"><LineStyle><color>8006b6d9</color><width>2</width></LineStyle></Style>
<Style id="region"><LineStyle><color>80e6c07d</color><width>1</width></LineStyle><PolyStyle><color>3fe6c07d</color></PolyStyle></Style>
<Style id="night"><LineStyle><width>0</width></LineStyle><PolyStyle><color>3fed3ac4</color></PolyStyle></Style>
<Style id="city"><IconStyle><scale>0.8</scale></IconStyle></Style>
<Folder><name>Graze limits (real lunar limb)</name>
<Placemark><name>south limit — real limb</name><styleUrl>#exact</styleUrl><LineString><tessellate>1</tessellate><coordinates>-4.0,-10.0632,0 -4.67,-9.997,0 -5.0,-9.9669,0 -6.0,-9.8686,0 -7.0,-9.7177,0 -8.0,-9.5698,0 -9.0,-9.4186,0 -10.0,-9.2407,0 -11.0,-9.0566,0 -11.26,-9.0087,0 -12.0,-8.8626,0 -13.0,-8.6398,0 -14.0,-8.4102,0 -15.0,-8.1827,0 -15.63,-8.023,0 -16.0,-7.9293,0 -17.0,-7.6602,0 -18.0,-7.3708,0 -19.0,-7.0827,0 -19.27,-7.0032,0 -20.0,-6.7892,0 -21.0,-6.4814,0 -22.0,-6.1665,0 -22.52,-6.008,0 -23.0,-5.8612,0 -24.0,-5.542,0 -25.0,-5.2146,0 -25.53,-5.0367,0 -26.0,-4.8765,0 -27.0,-4.5274,0 -28.0,-4.1693,0 -28.37,-4.0397,0 -29.0,-3.8134,0 -30.0,-3.4485,0 -31.0,-3.0745,0 -31.09,-3.0411,0 -32.0,-2.698,0 -33.0,-2.3157,0 -33.72,-2.04,0 -34.0,-1.9318,0 -35.0,-1.5402,0 -36.0,-1.1448,0 -36.28,-1.0333,0 -37.0,-0.7472,0</coordinates></LineString></Placemark>
<Placemark><name>north limit — real limb</name><styleUrl>#exact</styleUrl><LineString><tessellate>1</tessellate><coordinates>-29.8,36.0027,0 -29.0,35.6748,0 -28.0,35.2759,0 -27.28,34.9927,0 -27.0,34.8852,0 -26.0,34.5078,0 -25.0,34.1402,0 -24.61,34.0,0 -24.0,33.7811,0 -23.0,33.4328,0 -22.0,33.1031,0 -21.7,33.0043,0 -21.0,32.7863,0 -20.0,32.4705,0 -19.0,32.1724,0 -18.42,32.0029,0 -18.0,31.883,0 -17.0,31.6127,0 -16.0,31.3649,0 -15.0,31.1314,0 -14.35,30.9853,0 -14.0,30.9121,0 -13.0,30.7247,0 -12.0,30.5703,0 -11.0,30.4358,0 -10.0,30.3177,0 -9.0,30.2278,0 -8.0,30.1709,0 -7.0,30.1506,0 -6.0,30.1444,0 -5.0,30.1833,0 -4.0,30.2494,0 -3.0,30.3719,0 -2.0,30.5273,0 -1.0,30.7169,0 0.0,30.9601,0 0.15,31.0005,0 1.0,31.2278,0 2.0,31.5656,0 3.0,31.9418,0 3.12,31.9913,0 4.0,32.3749,0 5.0,32.8406,0 5.3,32.9926,0 6.0,33.3543,0 7.0,33.9135,0 7.13,33.9855,0 8.0,34.514,0 8.75,34.994,0 9.0,35.1588,0 10.0,35.8433,0 10.22,35.998,0 11.0,36.5563,0 11.6,36.9948,0 12.0,37.2948,0 12.91,37.9964,0 13.0,38.068,0 14.0,38.8648,0 14.17,39.0006,0 15.0,39.6771,0 15.39,40.0035,0 16.0,40.5143,0 16.58,40.999,0 17.0,41.3523,0 17.76,42.0001,0 18.0,42.2068,0 18.92,43.0025,0 19.0,43.0717,0 20.0,43.9394,0 20.07,44.0003,0 21.0,44.807,0 21.22,44.9987,0 22.0,45.6794,0 22.37,46.0045,0 23.0,46.5565,0 23.52,47.008,0 24.0,47.4202,0 24.67,47.9948,0 25.0,48.276,0 25.84,49.0037,0 26.0,49.1408,0 27.0,49.9882,0 27.02,50.0047,0 28.0,50.8277,0 28.2,50.9988,0 29.0,51.6593,0 29.4,51.99,0 30.0,52.4892,0 30.62,52.997,0 31.0,53.3079,0 31.86,54.0023,0 32.0,54.1139,0 33.0,54.9056,0 33.12,54.9994,0 34.0,55.6797,0 34.4,55.9909,0 35.0,56.4555,0 35.7,56.9894,0 36.0,57.2184,0 37.0,57.963,0 37.04,57.9927,0 38.0,58.7064,0 38.4,58.9973,0 39.0,59.4329,0 39.79,59.989,0 40.0,60.1392,0</coordinates></LineString></Placemark>
<Placemark><name>south limit — real limb</name><styleUrl>#exact</styleUrl><LineString><tessellate>1</tessellate><coordinates>69.0,29.7368,0 68.0,29.2791,0 67.35,28.9802,0 67.0,28.8164,0 66.0,28.3365,0 65.27,27.9751,0 65.0,27.8394,0 64.0,27.327,0 63.29,26.9591,0 63.0,26.8074,0 62.0,26.2837,0 61.39,25.9576,0 61.0,25.743,0 60.0,25.1931,0 59.58,24.9586,0 59.0,24.632,0 58.0,24.0518,0 57.84,23.9587,0 57.0,23.455,0 56.16,22.9428,0 56.0,22.8439,0 55.0,22.2354,0 54.55,21.9527,0 54.0,21.6022,0 53.0,20.9488,0 52.99,20.9422,0 52.0,20.2886,0 51.49,19.9447,0 51.0,19.6102,0 50.04,18.9524,0 50.0,18.9239,0 49.0,18.2193,0 48.64,17.9602,0 48.0,17.4945,0 47.27,16.952,0 47.0,16.7516,0 46.0,15.9921,0 45.94,15.9462,0 45.0,15.2254,0 44.65,14.953,0 44.0,14.4365,0 43.39,13.9506,0 43.0,13.6361,0 42.16,12.9496,0 42.0,12.8186,0 41.0,11.9892,0 40.95,11.9473,0 40.0,11.1475,0 39.77,10.9539,0 39.0,10.3001,0 38.6,9.957,0 38.0,9.4371,0 37.45,8.9633,0 37.0,8.5708,0 36.31,7.9658,0 36.0,7.6922,0 35.17,6.9598,0 35.0,6.8083,0 34.04,5.9593,0 34.0,5.924,0 33.0,5.0408,0 32.91,4.9622,0 32.0,4.1595,0 31.77,3.9572,0 31.0,3.2824,0 30.62,2.9528,0 30.0,2.4148,0 29.45,1.9444,0 29.0,1.5638,0 28.26,0.9455,0 28.0,0.7327,0 27.03,-0.0539,0 27.0,-0.0769,0 26.0,-0.8672,0 25.76,-1.0533,0 25.0,-1.6277,0 24.43,-2.0464,0 24.0,-2.3592,0 23.03,-3.0506,0 23.0,-3.0724,0 22.0,-3.7418,0 21.52,-4.0499,0 21.0,-4.3873,0 20.0,-4.9778,0 19.89,-5.0437,0 19.0,-5.5426,0 18.08,-6.0349,0 18.0,-6.0755,0 17.0,-6.564,0 16.02,-7.0179,0 16.0,-7.0269,0 15.0,-7.4498,0 14.0,-7.8271,0 13.55,-8.0031,0 13.0,-8.2014,0 12.0,-8.5428,0 11.0,-8.8632,0 10.35,-9.0258,0 10.0,-9.1278,0 9.0,-9.3459,0 8.0,-9.5469,0 7.0,-9.7165,0 6.0,-9.8726,0 5.0,-9.9919,0 4.94,-9.9987,0 4.0,-10.0856,0 3.0,-10.1572,0 2.0,-10.2075,0 1.0,-10.2468,0 0.0,-10.2605,0 -1.0,-10.239,0 -2.0,-10.2308,0 -3.0,-10.1332,0 -4.0,-10.0632,0</coordinates></LineString></Placemark>
</Folder><Folder><name>Mean-sphere limits</name>
<Placemark><name>south limit — mean sphere</name><styleUrl>#mean</styleUrl><LineString><tessellate>1</tessellate><coordinates>-4.0,-10.06,0 -4.67,-10.0,0 -5.0,-9.97,0 -6.0,-9.86,0 -7.0,-9.73,0 -8.0,-9.58,0 -9.0,-9.42,0 -10.0,-9.24,0 -11.0,-9.05,0 -11.26,-9.0,0 -12.0,-8.85,0 -13.0,-8.63,0 -14.0,-8.4,0 -15.0,-8.16,0 -15.63,-8.0,0 -16.0,-7.9,0 -17.0,-7.64,0 -18.0,-7.36,0 -19.0,-7.08,0 -19.27,-7.0,0 -20.0,-6.78,0 -21.0,-6.48,0 -22.0,-6.17,0 -22.52,-6.0,0 -23.0,-5.85,0 -24.0,-5.52,0 -25.0,-5.18,0 -25.53,-5.0,0 -26.0,-4.84,0 -27.0,-4.49,0 -28.0,-4.13,0 -28.37,-4.0,0 -29.0,-3.77,0 -30.0,-3.41,0 -31.0,-3.03,0 -31.09,-3.0,0 -32.0,-2.66,0 -33.0,-2.28,0 -33.72,-2.0,0 -34.0,-1.89,0 -35.0,-1.5,0 -36.0,-1.11,0 -36.28,-1.0,0 -37.0,-0.71,0</coordinates></LineString></Placemark>
<Placemark><name>north limit — mean sphere</name><styleUrl>#mean</styleUrl><LineString><tessellate>1</tessellate><coordinates>-29.8,36.0,0 -29.0,35.68,0 -28.0,35.28,0 -27.28,35.0,0 -27.0,34.89,0 -26.0,34.51,0 -25.0,34.14,0 -24.61,34.0,0 -24.0,33.78,0 -23.0,33.44,0 -22.0,33.1,0 -21.7,33.0,0 -21.0,32.77,0 -20.0,32.46,0 -19.0,32.17,0 -18.42,32.0,0 -18.0,31.88,0 -17.0,31.62,0 -16.0,31.37,0 -15.0,31.14,0 -14.35,31.0,0 -14.0,30.93,0 -13.0,30.74,0 -12.0,30.58,0 -11.0,30.43,0 -10.0,30.32,0 -9.0,30.23,0 -8.0,30.17,0 -7.0,30.14,0 -6.0,30.14,0 -5.0,30.18,0 -4.0,30.25,0 -3.0,30.37,0 -2.0,30.52,0 -1.0,30.72,0 0.0,30.96,0 0.15,31.0,0 1.0,31.24,0 2.0,31.58,0 3.0,31.95,0 3.12,32.0,0 4.0,32.38,0 5.0,32.85,0 5.3,33.0,0 6.0,33.36,0 7.0,33.92,0 7.13,34.0,0 8.0,34.52,0 8.75,35.0,0 9.0,35.16,0 10.0,35.84,0 10.22,36.0,0 11.0,36.56,0 11.6,37.0,0 12.0,37.3,0 12.91,38.0,0 13.0,38.07,0 14.0,38.86,0 14.17,39.0,0 15.0,39.68,0 15.39,40.0,0 16.0,40.51,0 16.58,41.0,0 17.0,41.35,0 17.76,42.0,0 18.0,42.21,0 18.92,43.0,0 19.0,43.07,0 20.0,43.94,0 20.07,44.0,0 21.0,44.81,0 21.22,45.0,0 22.0,45.68,0 22.37,46.0,0 23.0,46.55,0 23.52,47.0,0 24.0,47.42,0 24.67,48.0,0 25.0,48.28,0 25.84,49.0,0 26.0,49.14,0 27.0,49.99,0 27.02,50.0,0 28.0,50.83,0 28.2,51.0,0 29.0,51.67,0 29.4,52.0,0 30.0,52.49,0 30.62,53.0,0 31.0,53.31,0 31.86,54.0,0 32.0,54.11,0 33.0,54.91,0 33.12,55.0,0 34.0,55.69,0 34.4,56.0,0 35.0,56.47,0 35.7,57.0,0 36.0,57.23,0 37.0,57.97,0 37.04,58.0,0 38.0,58.71,0 38.4,59.0,0 39.0,59.44,0 39.79,60.0,0 40.0,60.15,0</coordinates></LineString></Placemark>
<Placemark><name>south limit — mean sphere</name><styleUrl>#mean</styleUrl><LineString><tessellate>1</tessellate><coordinates>69.0,29.76,0 68.0,29.3,0 67.35,29.0,0 67.0,28.84,0 66.0,28.36,0 65.27,28.0,0 65.0,27.87,0 64.0,27.36,0 63.29,27.0,0 63.0,26.85,0 62.0,26.33,0 61.39,26.0,0 61.0,25.79,0 60.0,25.24,0 59.58,25.0,0 59.0,24.67,0 58.0,24.1,0 57.84,24.0,0 57.0,23.51,0 56.16,23.0,0 56.0,22.9,0 55.0,22.28,0 54.55,22.0,0 54.0,21.65,0 53.0,21.0,0 52.99,21.0,0 52.0,20.34,0 51.49,20.0,0 51.0,19.66,0 50.04,19.0,0 50.0,18.97,0 49.0,18.26,0 48.64,18.0,0 48.0,17.54,0 47.27,17.0,0 47.0,16.8,0 46.0,16.04,0 45.94,16.0,0 45.0,15.27,0 44.65,15.0,0 44.0,14.49,0 43.39,14.0,0 43.0,13.68,0 42.16,13.0,0 42.0,12.87,0 41.0,12.04,0 40.95,12.0,0 40.0,11.2,0 39.77,11.0,0 39.0,10.34,0 38.6,10.0,0 38.0,9.48,0 37.45,9.0,0 37.0,8.61,0 36.31,8.0,0 36.0,7.73,0 35.17,7.0,0 35.0,6.85,0 34.04,6.0,0 34.0,5.96,0 33.0,5.08,0 32.91,5.0,0 32.0,4.2,0 31.77,4.0,0 31.0,3.33,0 30.62,3.0,0 30.0,2.46,0 29.45,2.0,0 29.0,1.62,0 28.26,1.0,0 28.0,0.78,0 27.03,0.0,0 27.0,-0.03,0 26.0,-0.82,0 25.76,-1.0,0 25.0,-1.58,0 24.43,-2.0,0 24.0,-2.31,0 23.03,-3.0,0 23.0,-3.02,0 22.0,-3.69,0 21.52,-4.0,0 21.0,-4.33,0 20.0,-4.93,0 19.89,-5.0,0 19.0,-5.5,0 18.08,-6.0,0 18.0,-6.04,0 17.0,-6.54,0 16.02,-7.0,0 16.0,-7.01,0 15.0,-7.44,0 14.0,-7.83,0 13.55,-8.0,0 13.0,-8.2,0 12.0,-8.53,0 11.0,-8.83,0 10.35,-9.0,0 10.0,-9.09,0 9.0,-9.33,0 8.0,-9.54,0 7.0,-9.72,0 6.0,-9.87,0 5.0,-9.99,0 4.94,-10.0,0 4.0,-10.09,0 3.0,-10.17,0 2.0,-10.22,0 1.0,-10.24,0 0.0,-10.25,0 -1.0,-10.23,0 -2.0,-10.2,0 -3.0,-10.14,0 -4.0,-10.06,0</coordinates></LineString></Placemark>
</Folder><Folder><name>Visibility</name>
<Placemark><name>sees the occultation</name><styleUrl>#region</styleUrl><Polygon><outerBoundaryIs><LinearRing><coordinates>-4.67,-10.0,0 -4.0,-10.06,0 -3.0,-10.14,0 -2.0,-10.2,0 -1.0,-10.23,0 0.0,-10.25,0 1.0,-10.24,0 2.0,-10.22,0 3.0,-10.17,0 4.0,-10.09,0 4.94,-10.0,0 5.0,-9.99,0 6.0,-9.87,0 7.0,-9.72,0 8.0,-9.54,0 9.0,-9.33,0 10.0,-9.09,0 10.35,-9.0,0 11.0,-8.83,0 12.0,-8.53,0 13.0,-8.2,0 13.55,-8.0,0 14.0,-7.83,0 15.0,-7.44,0 16.0,-7.01,0 16.02,-7.0,0 17.0,-6.54,0 18.0,-6.04,0 18.08,-6.0,0 19.0,-5.5,0 19.89,-5.0,0 20.0,-4.93,0 21.0,-4.33,0 21.52,-4.0,0 22.0,-3.69,0 23.0,-3.02,0 23.03,-3.0,0 24.0,-2.31,0 24.43,-2.0,0 25.0,-1.58,0 25.76,-1.0,0 26.0,-0.82,0 27.0,-0.03,0 27.03,0.0,0 28.0,0.78,0 28.26,1.0,0 29.0,1.62,0 29.45,2.0,0 30.0,2.46,0 30.62,3.0,0 31.0,3.33,0 31.77,4.0,0 32.0,4.2,0 32.91,5.0,0 33.0,5.08,0 34.0,5.96,0 34.04,6.0,0 35.0,6.85,0 35.17,7.0,0 36.0,7.73,0 36.31,8.0,0 37.0,8.61,0 37.45,9.0,0 38.0,9.48,0 38.6,10.0,0 39.0,10.34,0 39.77,11.0,0 40.0,11.2,0 40.95,12.0,0 41.0,12.04,0 42.0,12.87,0 42.16,13.0,0 43.0,13.68,0 43.39,14.0,0 44.0,14.49,0 44.65,15.0,0 45.0,15.27,0 45.94,16.0,0 46.0,16.04,0 47.0,16.8,0 47.27,17.0,0 48.0,17.54,0 48.64,18.0,0 49.0,18.26,0 50.0,18.97,0 50.04,19.0,0 51.0,19.66,0 51.49,20.0,0 52.0,20.34,0 52.99,21.0,0 53.0,21.0,0 54.0,21.65,0 54.55,22.0,0 55.0,22.28,0 56.0,22.9,0 56.16,23.0,0 57.0,23.51,0 57.84,24.0,0 58.0,24.1,0 59.0,24.67,0 59.58,25.0,0 60.0,25.24,0 61.0,25.79,0 61.39,26.0,0 62.0,26.33,0 63.0,26.85,0 63.29,27.0,0 64.0,27.36,0 65.0,27.87,0 65.27,28.0,0 66.0,28.36,0 67.0,28.84,0 67.35,29.0,0 68.0,29.3,0 69.0,29.76,0 69.53,30.0,0 70.0,30.21,0 71.0,30.64,0 71.83,31.0,0 72.0,31.08,0 73.0,31.73,0 73.23,32.0,0 73.63,33.0,0 74.0,33.57,0 74.21,34.0,0 74.28,35.0,0 74.48,36.0,0 74.37,37.0,0 74.18,38.0,0 74.0,38.7,0 73.92,39.0,0 73.61,40.0,0 73.25,41.0,0 73.0,41.61,0 72.91,42.0,0 72.67,43.0,0 72.0,43.94,0 71.96,44.0,0 71.69,45.0,0 71.0,45.92,0 70.94,46.0,0 70.32,47.0,0 70.0,47.54,0 69.72,48.0,0 69.1,49.0,0 69.0,49.07,0 68.24,50.0,0 68.0,50.3,0 67.42,51.0,0 67.0,51.5,0 66.2,52.0,0 66.0,52.27,0 65.47,53.0,0 65.0,53.29,0 64.0,53.88,0 63.89,54.0,0 63.01,55.0,0 63.0,55.01,0 62.0,55.58,0 61.25,56.0,0 61.0,56.14,0 60.0,56.8,0 59.7,57.0,0 59.0,57.49,0 58.26,58.0,0 58.0,58.18,0 57.0,58.52,0 56.28,59.0,0 56.0,59.14,0 55.0,59.52,0 54.0,59.84,0 53.75,60.0,0 53.0,60.35,0 52.0,60.78,0 51.27,61.0,0 51.0,61.06,0 50.0,61.34,0 49.0,61.67,0 48.0,61.88,0 47.7,62.0,0 47.0,62.19,0 46.0,62.36,0 45.0,62.44,0 44.0,62.55,0 43.0,62.2,0 42.68,62.0,0 42.0,61.54,0 41.22,61.0,0 41.0,60.85,0 40.0,60.15,0 39.79,60.0,0 39.0,59.44,0 38.4,59.0,0 38.0,58.71,0 37.04,58.0,0 37.0,57.97,0 36.0,57.23,0 35.7,57.0,0 35.0,56.47,0 34.4,56.0,0 34.0,55.69,0 33.12,55.0,0 33.0,54.91,0 32.0,54.11,0 31.86,54.0,0 31.0,53.31,0 30.62,53.0,0 30.0,52.49,0 29.4,52.0,0 29.0,51.67,0 28.2,51.0,0 28.0,50.83,0 27.02,50.0,0 27.0,49.99,0 26.0,49.14,0 25.84,49.0,0 25.0,48.28,0 24.67,48.0,0 24.0,47.42,0 23.52,47.0,0 23.0,46.55,0 22.37,46.0,0 22.0,45.68,0 21.22,45.0,0 21.0,44.81,0 20.07,44.0,0 20.0,43.94,0 19.0,43.07,0 18.92,43.0,0 18.0,42.21,0 17.76,42.0,0 17.0,41.35,0 16.58,41.0,0 16.0,40.51,0 15.39,40.0,0 15.0,39.68,0 14.17,39.0,0 14.0,38.86,0 13.0,38.07,0 12.91,38.0,0 12.0,37.3,0 11.6,37.0,0 11.0,36.56,0 10.22,36.0,0 10.0,35.84,0 9.0,35.16,0 8.75,35.0,0 8.0,34.52,0 7.13,34.0,0 7.0,33.92,0 6.0,33.36,0 5.3,33.0,0 5.0,32.85,0 4.0,32.38,0 3.12,32.0,0 3.0,31.95,0 2.0,31.58,0 1.0,31.24,0 0.15,31.0,0 0.0,30.96,0 -1.0,30.72,0 -2.0,30.52,0 -3.0,30.37,0 -4.0,30.25,0 -5.0,30.18,0 -6.0,30.14,0 -7.0,30.14,0 -8.0,30.17,0 -9.0,30.23,0 -10.0,30.32,0 -11.0,30.43,0 -12.0,30.58,0 -13.0,30.74,0 -14.0,30.93,0 -14.35,31.0,0 -15.0,31.14,0 -16.0,31.37,0 -17.0,31.62,0 -18.0,31.88,0 -18.42,32.0,0 -19.0,32.17,0 -20.0,32.46,0 -21.0,32.77,0 -21.7,33.0,0 -22.0,33.1,0 -23.0,33.44,0 -24.0,33.78,0 -24.61,34.0,0 -25.0,34.14,0 -26.0,34.51,0 -27.0,34.89,0 -27.28,35.0,0 -28.0,35.28,0 -29.0,35.68,0 -29.8,36.0,0 -30.0,36.08,0 -31.0,36.5,0 -32.0,36.91,0 -32.38,37.0,0 -33.0,37.13,0 -34.0,37.09,0 -34.36,37.0,0 -35.0,36.84,0 -35.75,36.0,0 -36.0,35.74,0 -37.0,35.08,0 -37.05,35.0,0 -37.64,34.0,0 -38.0,33.42,0 -38.45,33.0,0 -38.73,32.0,0 -39.0,31.5,0 -39.46,31.0,0 -40.0,30.42,0 -40.18,30.0,0 -40.28,29.0,0 -41.0,28.14,0 -41.06,28.0,0 -41.46,27.0,0 -41.73,26.0,0 -42.0,25.64,0 -42.24,25.0,0 -42.26,24.0,0 -42.94,23.0,0 -42.85,22.0,0 -43.0,21.55,0 -43.18,21.0,0 -43.08,20.0,0 -43.67,19.0,0 -43.66,18.0,0 -43.91,17.0,0 -44.0,16.83,0 -44.23,16.0,0 -44.07,15.0,0 -44.29,14.0,0 -44.13,13.0,0 -44.53,12.0,0 -44.49,11.0,0 -44.42,10.0,0 -44.38,9.0,0 -44.15,8.0,0 -44.17,7.0,0 -44.0,6.5,0 -43.8,6.0,0 -43.68,5.0,0 -43.32,4.0,0 -43.0,3.35,0 -42.77,3.0,0 -42.15,2.0,0 -42.0,1.81,0 -41.09,1.0,0 -41.0,0.95,0 -40.0,0.49,0 -39.0,0.09,0 -38.78,0.0,0 -38.0,-0.31,0 -37.0,-0.71,0 -36.28,-1.0,0 -36.0,-1.11,0 -35.0,-1.5,0 -34.0,-1.89,0 -33.72,-2.0,0 -33.0,-2.28,0 -32.0,-2.66,0 -31.09,-3.0,0 -31.0,-3.03,0 -30.0,-3.41,0 -29.0,-3.77,0 -28.37,-4.0,0 -28.0,-4.13,0 -27.0,-4.49,0 -26.0,-4.84,0 -25.53,-5.0,0 -25.0,-5.18,0 -24.0,-5.52,0 -23.0,-5.85,0 -22.52,-6.0,0 -22.0,-6.17,0 -21.0,-6.48,0 -20.0,-6.78,0 -19.27,-7.0,0 -19.0,-7.08,0 -18.0,-7.36,0 -17.0,-7.64,0 -16.0,-7.9,0 -15.63,-8.0,0 -15.0,-8.16,0 -14.0,-8.4,0 -13.0,-8.63,0 -12.0,-8.85,0 -11.26,-9.0,0 -11.0,-9.05,0 -10.0,-9.24,0 -9.0,-9.42,0 -8.0,-9.58,0 -7.0,-9.73,0 -6.0,-9.86,0 -5.0,-9.97,0 -4.67,-10.0,0</coordinates></LinearRing></outerBoundaryIs></Polygon></Placemark>
<Placemark><name>after sunset</name><styleUrl>#night</styleUrl><Polygon><outerBoundaryIs><LinearRing><coordinates>61.99,27.0,0 62.0,26.97,0 63.0,26.85,0 63.29,27.0,0 64.0,27.36,0 65.0,27.87,0 65.27,28.0,0 66.0,28.36,0 67.0,28.84,0 67.35,29.0,0 68.0,29.3,0 69.0,29.76,0 69.53,30.0,0 70.0,30.21,0 71.0,30.64,0 71.83,31.0,0 72.0,31.08,0 73.0,31.73,0 73.23,32.0,0 73.63,33.0,0 74.0,33.57,0 74.21,34.0,0 74.28,35.0,0 74.48,36.0,0 74.37,37.0,0 74.18,38.0,0 74.0,38.7,0 73.92,39.0,0 73.61,40.0,0 73.25,41.0,0 73.0,41.61,0 72.91,42.0,0 72.67,43.0,0 72.0,43.94,0 71.96,44.0,0 71.69,45.0,0 71.0,45.92,0 70.94,46.0,0 70.32,47.0,0 70.0,47.54,0 69.72,48.0,0 69.1,49.0,0 69.0,49.07,0 68.24,50.0,0 68.0,50.3,0 67.42,51.0,0 67.0,51.5,0 66.2,52.0,0 66.0,52.27,0 65.47,53.0,0 65.0,53.29,0 64.0,53.88,0 63.89,54.0,0 63.01,55.0,0 63.0,55.01,0 62.0,55.58,0 61.25,56.0,0 61.0,56.14,0 60.0,56.8,0 59.7,57.0,0 59.0,57.49,0 58.26,58.0,0 58.0,58.18,0 57.0,58.52,0 56.28,59.0,0 56.0,59.14,0 55.0,59.52,0 54.0,59.84,0 53.75,60.0,0 53.0,60.35,0 52.0,60.78,0 51.27,61.0,0 51.0,61.06,0 50.0,61.34,0 49.0,61.67,0 48.0,61.88,0 47.7,62.0,0 47.0,62.19,0 46.0,62.36,0 45.0,62.44,0 44.0,62.55,0 43.0,62.2,0 42.68,62.0,0 42.99,61.0,0 43.0,60.99,0 44.0,60.91,0 44.83,60.0,0 45.0,59.26,0 45.19,59.0,0 45.94,58.0,0 46.0,57.91,0 46.96,57.0,0 47.0,56.92,0 47.75,56.0,0 48.0,55.81,0 48.78,55.0,0 48.96,54.0,0 49.0,53.93,0 49.97,53.0,0 50.0,52.86,0 50.48,52.0,0 51.0,51.4,0 51.37,51.0,0 51.8,50.0,0 52.0,49.38,0 52.35,49.0,0 52.97,48.0,0 53.0,47.39,0 53.05,47.0,0 53.78,46.0,0 54.0,45.71,0 54.6,45.0,0 54.58,44.0,0 55.0,43.33,0 55.31,43.0,0 55.83,42.0,0 55.85,41.0,0 56.0,40.58,0 56.54,40.0,0 56.97,39.0,0 57.0,38.96,0 57.69,38.0,0 57.83,37.0,0 57.98,36.0,0 58.0,35.95,0 58.74,35.0,0 59.0,34.28,0 59.31,34.0,0 59.82,33.0,0 60.0,32.48,0 60.54,32.0,0 60.88,31.0,0 60.94,30.0,0 60.97,29.0,0 61.0,28.95,0 61.98,28.0,0 61.99,27.0,0</coordinates></LinearRing></outerBoundaryIs></Polygon></Placemark>
</Folder><Folder><name>Cities</name>
<Placemark><name>Kinshasa, CD</name><styleUrl>#city</styleUrl><description>D1 11:02:02 · D2 11:02:28 · R1 12:04:56 · R2 12:05:26 (UTC)</description><Point><coordinates>15.31357,-4.32758,0</coordinates></Point></Placemark>
<Placemark><name>Istanbul, TR</name><styleUrl>#city</styleUrl><description>D1 12:23:05 · D2 12:23:22 · R1 13:29:51 · R2 13:30:06 (UTC)</description><Point><coordinates>28.94966,41.01384,0</coordinates></Point></Placemark>
<Placemark><name>Lagos, NG</name><styleUrl>#city</styleUrl><description>D1 10:17:33 · D2 10:17:47 · R1 12:10:09 · R2 12:10:25 (UTC)</description><Point><coordinates>3.39467,6.45407,0</coordinates></Point></Placemark>
<Placemark><name>Mumbai, IN</name><styleUrl>#city</styleUrl><description>near miss: Mars passes 10.6′ from the limb (UTC)</description><Point><coordinates>72.88261,19.07283,0</coordinates></Point></Placemark>
<Placemark><name>São Paulo, BR</name><styleUrl>#city</styleUrl><description>near miss: Mars passes 23.1′ from the limb (UTC)</description><Point><coordinates>-46.63611,-23.5475,0</coordinates></Point></Placemark>
<Placemark><name>Karachi, PK</name><styleUrl>#city</styleUrl><description>near miss: Mars passes 3.4′ from the limb (UTC)</description><Point><coordinates>67.0104,24.8608,0</coordinates></Point></Placemark>
<Placemark><name>Moscow, RU</name><styleUrl>#city</styleUrl><description>D1 12:45:49 · D2 12:46:22 · R1 13:14:23 · R2 13:14:50 (UTC)</description><Point><coordinates>37.61781,55.75204,0</coordinates></Point></Placemark>
<Placemark><name>Cairo, EG</name><styleUrl>#city</styleUrl><description>D1 12:11:24 · D2 12:11:39 · R1 13:44:29 · R2 13:44:40 (UTC)</description><Point><coordinates>31.24967,30.06263,0</coordinates></Point></Placemark>
<Placemark><name>Johannesburg, ZA</name><styleUrl>#city</styleUrl><description>near miss: Mars passes 21.2′ from the limb (UTC)</description><Point><coordinates>28.04363,-26.20227,0</coordinates></Point></Placemark>
<Placemark><name>London, GB</name><styleUrl>#city</styleUrl><description>near miss: Mars passes 6.9′ from the limb (UTC)</description><Point><coordinates>-0.12574,51.50853,0</coordinates></Point></Placemark>
<Placemark><name>Bengaluru, IN</name><styleUrl>#city</styleUrl><description>near miss: Mars passes 17.5′ from the limb (UTC)</description><Point><coordinates>77.59369,12.97194,0</coordinates></Point></Placemark>
<Placemark><name>Baghdad, IQ</name><styleUrl>#city</styleUrl><description>D1 12:36:09 · D2 12:36:21 · R1 13:58:42 · R2 13:58:53 (UTC)</description><Point><coordinates>44.40088,33.34058,0</coordinates></Point></Placemark>
<Placemark><name>Tehran, IR</name><styleUrl>#city</styleUrl><description>D1 12:45:54 · D2 12:46:05 · R1 14:01:59 · R2 14:02:10 (UTC)</description><Point><coordinates>51.42151,35.69439,0</coordinates></Point></Placemark>
<Placemark><name>Hyderabad, IN</name><styleUrl>#city</styleUrl><description>near miss: Mars passes 14.1′ from the limb (UTC)</description><Point><coordinates>78.45636,17.38405,0</coordinates></Point></Placemark>
<Placemark><name>Rio de Janeiro, BR</name><styleUrl>#city</styleUrl><description>near miss: Mars passes 21.4′ from the limb (UTC)</description><Point><coordinates>-43.18223,-22.90642,0</coordinates></Point></Placemark>
<Placemark><name>Ahmedabad, IN</name><styleUrl>#city</styleUrl><description>near miss: Mars passes 7.1′ from the limb (UTC)</description><Point><coordinates>72.58727,23.02579,0</coordinates></Point></Placemark>
<Placemark><name>Abidjan, CI</name><styleUrl>#city</styleUrl><description>D1 10:00:30 · D2 10:00:43 · R1 11:43:35 · R2 11:43:51 (UTC)</description><Point><coordinates>-4.00167,5.35444,0</coordinates></Point></Placemark>
<Placemark><name>Dar es Salaam, TZ</name><styleUrl>#city</styleUrl><description>near miss: Mars passes 12.5′ from the limb (UTC)</description><Point><coordinates>39.26951,-6.82349,0</coordinates></Point></Placemark>
<Placemark><name>Saint Petersburg, RU</name><styleUrl>#city</styleUrl><description>near miss: Mars passes 2.4′ from the limb (UTC)</description><Point><coordinates>30.31413,59.93863,0</coordinates></Point></Placemark>
<Placemark><name>Alexandria, EG</name><styleUrl>#city</styleUrl><description>D1 12:10:22 · D2 12:10:37 · R1 13:41:49 · R2 13:42:02 (UTC)</description><Point><coordinates>29.91582,31.20176,0</coordinates></Point></Placemark>
<Placemark><name>Kano, NG</name><styleUrl>#city</styleUrl><description>D1 10:39:35 · D2 10:39:50 · R1 12:35:40 · R2 12:35:56 (UTC)</description><Point><coordinates>8.51672,12.00012,0</coordinates></Point></Placemark>
<Placemark><name>Cape Town, ZA</name><styleUrl>#city</styleUrl><description>near miss: Mars passes 24.6′ from the limb (UTC)</description><Point><coordinates>18.42322,-33.92584,0</coordinates></Point></Placemark>
<Placemark><name>Peshawar, PK</name><styleUrl>#city</styleUrl><description>D1 13:15:56 · D2 13:16:14 · R1 13:53:47 · R2 13:54:02 (UTC)</description><Point><coordinates>71.57849,34.008,0</coordinates></Point></Placemark>
<Placemark><name>Jeddah, SA</name><styleUrl>#city</styleUrl><description>D1 12:26:00 · D2 12:26:16 · R1 13:46:17 · R2 13:46:31 (UTC)</description><Point><coordinates>39.18624,21.49012,0</coordinates></Point></Placemark>
<Placemark><name>Chennai, IN</name><styleUrl>#city</styleUrl><description>near miss: Mars passes 18.4′ from the limb (UTC)</description><Point><coordinates>80.27847,13.08784,0</coordinates></Point></Placemark>
<Placemark><name>Surat, IN</name><styleUrl>#city</styleUrl><description>near miss: Mars passes 8.7′ from the limb (UTC)</description><Point><coordinates>72.83023,21.19594,0</coordinates></Point></Placemark>
<Placemark><name>Kabul, AF</name><styleUrl>#city</styleUrl><description>D1 13:11:10 · D2 13:11:25 · R1 13:56:55 · R2 13:57:07 (UTC)</description><Point><coordinates>69.17233,34.52813,0</coordinates></Point></Placemark>
<Placemark><name>Nairobi, KE</name><styleUrl>#city</styleUrl><description>near miss: Mars passes 7.0′ from the limb (UTC)</description><Point><coordinates>36.81667,-1.28333,0</coordinates></Point></Placemark>
<Placemark><name>Giza, EG</name><styleUrl>#city</styleUrl><description>D1 12:11:16 · D2 12:11:30 · R1 13:44:25 · R2 13:44:36 (UTC)</description><Point><coordinates>31.20861,30.00944,0</coordinates></Point></Placemark>
<Placemark><name>Bamako, ML</name><styleUrl>#city</styleUrl><description>D1 10:01:16 · D2 10:01:29 · R1 11:38:02 · R2 11:38:17 (UTC)</description><Point><coordinates>-7.97522,12.60915,0</coordinates></Point></Placemark>
<Placemark><name>Riyadh, SA</name><styleUrl>#city</styleUrl><description>D1 12:44:48 · D2 12:45:04 · R1 13:52:01 · R2 13:52:13 (UTC)</description><Point><coordinates>46.72185,24.68773,0</coordinates></Point></Placemark>
<Placemark><name>Addis Ababa, ET</name><styleUrl>#city</styleUrl><description>near miss: Mars passes 0.8′ from the limb (UTC)</description><Point><coordinates>38.74689,9.02497,0</coordinates></Point></Placemark>
<Placemark><name>Dubai, AE</name><styleUrl>#city</styleUrl><description>D1 13:07:46 · D2 13:08:08 · R1 13:46:45 · R2 13:47:07 (UTC)</description><Point><coordinates>55.30927,25.07725,0</coordinates></Point></Placemark>
<Placemark><name>Casablanca, MA</name><styleUrl>#city</styleUrl><description>near miss: Mars passes 1.7′ from the limb (UTC)</description><Point><coordinates>-7.61138,33.58831,0</coordinates></Point></Placemark>
<Placemark><name>Ibadan, NG</name><styleUrl>#city</styleUrl><description>D1 10:19:47 · D2 10:20:01 · R1 12:13:24 · R2 12:13:41 (UTC)</description><Point><coordinates>3.90591,7.37756,0</coordinates></Point></Placemark>
<Placemark><name>Ankara, TR</name><styleUrl>#city</styleUrl><description>D1 12:24:48 · D2 12:25:03 · R1 13:40:08 · R2 13:40:22 (UTC)</description><Point><coordinates>32.85427,39.91987,0</coordinates></Point></Placemark>
<Placemark><name>Berlin, DE</name><styleUrl>#city</styleUrl><description>near miss: Mars passes 4.7′ from the limb (UTC)</description><Point><coordinates>13.41053,52.52437,0</coordinates></Point></Placemark>
<Placemark><name>Rawalpindi, PK</name><styleUrl>#city</styleUrl><description>D1 13:19:45 · D2 13:20:05 · R1 13:50:58 · R2 13:51:19 (UTC)</description><Point><coordinates>73.0479,33.59733,0</coordinates></Point></Placemark>
<Placemark><name>Durban, ZA</name><styleUrl>#city</styleUrl><description>near miss: Mars passes 25.5′ from the limb (UTC)</description><Point><coordinates>31.0292,-29.8579,0</coordinates></Point></Placemark>
<Placemark><name>Madrid, ES</name><styleUrl>#city</styleUrl><description>near miss: Mars passes 4.3′ from the limb (UTC)</description><Point><coordinates>-3.70256,40.4165,0</coordinates></Point></Placemark>
<Placemark><name>Pune, IN</name><styleUrl>#city</styleUrl><description>near miss: Mars passes 11.4′ from the limb (UTC)</description><Point><coordinates>73.85535,18.51957,0</coordinates></Point></Placemark>
<Placemark><name>Bursa, TR</name><styleUrl>#city</styleUrl><description>D1 12:21:52 · D2 12:22:09 · R1 13:31:24 · R2 13:31:40 (UTC)</description><Point><coordinates>29.06013,40.19559,0</coordinates></Point></Placemark>
<Placemark><name>Kyiv, UA</name><styleUrl>#city</styleUrl><description>D1 12:40:55 · D2 12:41:29 · R1 13:10:40 · R2 13:11:14 (UTC)</description><Point><coordinates>30.5238,50.45466,0</coordinates></Point></Placemark>
<Placemark><name>İzmir, TR</name><styleUrl>#city</styleUrl><description>D1 12:17:18 · D2 12:17:36 · R1 13:29:13 · R2 13:29:29 (UTC)</description><Point><coordinates>27.13838,38.41273,0</coordinates></Point></Placemark>
<Placemark><name>Buenos Aires, AR</name><styleUrl>#city</styleUrl><description>near miss: Mars passes 35.5′ from the limb (UTC)</description><Point><coordinates>-58.37723,-34.61315,0</coordinates></Point></Placemark>
<Placemark><name>Luanda, AO</name><styleUrl>#city</styleUrl><description>near miss: Mars passes 0.7′ from the limb (UTC)</description><Point><coordinates>13.23432,-8.83682,0</coordinates></Point></Placemark>
<Placemark><name>Belo Horizonte, BR</name><styleUrl>#city</styleUrl><description>near miss: Mars passes 19.2′ from the limb (UTC)</description><Point><coordinates>-43.93778,-19.92083,0</coordinates></Point></Placemark>
<Placemark><name>Salvador, BR</name><styleUrl>#city</styleUrl><description>near miss: Mars passes 11.3′ from the limb (UTC)</description><Point><coordinates>-38.49096,-12.97563,0</coordinates></Point></Placemark>
<Placemark><name>Abuja, NG</name><styleUrl>#city</styleUrl><description>D1 10:31:50 · D2 10:32:05 · R1 12:28:17 · R2 12:28:34 (UTC)</description><Point><coordinates>7.49508,9.05785,0</coordinates></Point></Placemark>
<Placemark><name>Dakar, SN</name><styleUrl>#city</styleUrl><description>D1 09:50:43 · D2 09:50:54 · R1 11:15:33 · R2 11:15:47 (UTC)</description><Point><coordinates>-17.44406,14.6937,0</coordinates></Point></Placemark>
<Placemark><name>Navi Mumbai, IN</name><styleUrl>#city</styleUrl><description>near miss: Mars passes 10.7′ from the limb (UTC)</description><Point><coordinates>73.01582,19.03681,0</coordinates></Point></Placemark>
<Placemark><name>Mogadishu, SO</name><styleUrl>#city</styleUrl><description>near miss: Mars passes 10.0′ from the limb (UTC)</description><Point><coordinates>45.34375,2.03711,0</coordinates></Point></Placemark>
<Placemark><name>Kumasi, GH</name><styleUrl>#city</styleUrl><description>D1 10:06:06 · D2 10:06:19 · R1 11:53:14 · R2 11:53:30 (UTC)</description><Point><coordinates>-1.62443,6.68848,0</coordinates></Point></Placemark>
<Placemark><name>Ouagadougou, BF</name><styleUrl>#city</styleUrl><description>D1 10:13:53 · D2 10:14:07 · R1 11:59:01 · R2 11:59:17 (UTC)</description><Point><coordinates>-1.53388,12.36566,0</coordinates></Point></Placemark>
<Placemark><name>Fortaleza, BR</name><styleUrl>#city</styleUrl><description>near miss: Mars passes 3.2′ from the limb (UTC)</description><Point><coordinates>-38.54306,-3.71722,0</coordinates></Point></Placemark>
<Placemark><name>Algiers, DZ</name><styleUrl>#city</styleUrl><description>near miss: Mars passes 2.1′ from the limb (UTC)</description><Point><coordinates>3.08746,36.73225,0</coordinates></Point></Placemark>
<Placemark><name>Baku, AZ</name><styleUrl>#city</styleUrl><description>D1 12:42:32 · D2 12:42:43 · R1 14:00:08 · R2 14:00:18 (UTC)</description><Point><coordinates>49.89201,40.37767,0</coordinates></Point></Placemark>
<Placemark><name>Rome, IT</name><styleUrl>#city</styleUrl><description>near miss: Mars passes 1.7′ from the limb (UTC)</description><Point><coordinates>12.51133,41.89193,0</coordinates></Point></Placemark>
<Placemark><name>Mashhad, IR</name><styleUrl>#city</styleUrl><description>D1 12:56:04 · D2 12:56:16 · R1 14:02:45 · R2 14:02:55 (UTC)</description><Point><coordinates>59.60567,36.29807,0</coordinates></Point></Placemark>
<Placemark><name>Gaziantep, TR</name><styleUrl>#city</styleUrl><description>D1 12:27:15 · D2 12:27:28 · R1 13:50:34 · R2 13:50:45 (UTC)</description><Point><coordinates>37.3825,37.05944,0</coordinates></Point></Placemark>
<Placemark><name>Lubumbashi, CD</name><styleUrl>#city</styleUrl><description>near miss: Mars passes 9.1′ from the limb (UTC)</description><Point><coordinates>27.47938,-11.66089,0</coordinates></Point></Placemark>
<Placemark><name>Lusaka, ZM</name><styleUrl>#city</styleUrl><description>near miss: Mars passes 12.5′ from the limb (UTC)</description><Point><coordinates>28.28713,-15.40669,0</coordinates></Point></Placemark>
<Placemark><name>Brasília, BR</name><styleUrl>#city</styleUrl><description>near miss: Mars passes 17.0′ from the limb (UTC)</description><Point><coordinates>-47.92972,-15.77972,0</coordinates></Point></Placemark>
<Placemark><name>Lomé, TG</name><styleUrl>#city</styleUrl><description>D1 10:11:55 · D2 10:12:09 · R1 12:02:12 · R2 12:02:28 (UTC)</description><Point><coordinates>1.22154,6.12874,0</coordinates></Point></Placemark>
<Placemark><name>Multan, PK</name><styleUrl>#city</styleUrl><description>near miss: Mars passes 0.6′ from the limb (UTC)</description><Point><coordinates>71.47824,30.19679,0</coordinates></Point></Placemark>
<Placemark><name>Paris, FR</name><styleUrl>#city</styleUrl><description>near miss: Mars passes 6.0′ from the limb (UTC)</description><Point><coordinates>2.3488,48.85341,0</coordinates></Point></Placemark>
<Placemark><name>Coimbatore, IN</name><styleUrl>#city</styleUrl><description>near miss: Mars passes 18.9′ from the limb (UTC)</description><Point><coordinates>76.96612,11.00555,0</coordinates></Point></Placemark>
<Placemark><name>Port Harcourt, NG</name><styleUrl>#city</styleUrl><description>D1 10:26:02 · D2 10:26:16 · R1 12:19:00 · R2 12:19:16 (UTC)</description><Point><coordinates>7.0134,4.77742,0</coordinates></Point></Placemark>
<Placemark><name>Pretoria, ZA</name><styleUrl>#city</styleUrl><description>near miss: Mars passes 20.9′ from the limb (UTC)</description><Point><coordinates>28.18783,-25.74486,0</coordinates></Point></Placemark>
<Placemark><name>Mbuji-Mayi, CD</name><styleUrl>#city</styleUrl><description>near miss: Mars passes 2.8′ from the limb (UTC)</description><Point><coordinates>23.58979,-6.13603,0</coordinates></Point></Placemark>
<Placemark><name>Aleppo, SY</name><styleUrl>#city</styleUrl><description>D1 12:26:22 · D2 12:26:36 · R1 13:50:53 · R2 13:51:04 (UTC)</description><Point><coordinates>37.16117,36.20124,0</coordinates></Point></Placemark>
<Placemark><name>Al Mawşil al Jadīdah, IQ</name><styleUrl>#city</styleUrl><description>D1 12:34:28 · D2 12:34:40 · R1 13:57:21 · R2 13:57:31 (UTC)</description><Point><coordinates>43.10555,36.33271,0</coordinates></Point></Placemark>
<Placemark><name>Al Başrah al Qadīmah, IQ</name><styleUrl>#city</styleUrl><description>D1 12:42:45 · D2 12:42:57 · R1 13:59:05 · R2 13:59:15 (UTC)</description><Point><coordinates>47.81507,30.50316,0</coordinates></Point></Placemark>
<Placemark><name>Indore, IN</name><styleUrl>#city</styleUrl><description>near miss: Mars passes 8.5′ from the limb (UTC)</description><Point><coordinates>75.8333,22.71792,0</coordinates></Point></Placemark>
<Placemark><name>Brazzaville, CG</name><styleUrl>#city</styleUrl><description>D1 11:01:40 · D2 11:02:08 · R1 12:05:19 · R2 12:05:45 (UTC)</description><Point><coordinates>15.28318,-4.26613,0</coordinates></Point></Placemark>
<Placemark><name>Tashkent, UZ</name><styleUrl>#city</styleUrl><description>D1 12:59:30 · D2 12:59:41 · R1 14:02:15 · R2 14:02:24 (UTC)</description><Point><coordinates>69.21627,41.26465,0</coordinates></Point></Placemark>
<Placemark><name>Khartoum, SD</name><styleUrl>#city</styleUrl><description>D1 12:04:46 · D2 12:05:02 · R1 13:31:58 · R2 13:32:12 (UTC)</description><Point><coordinates>32.53241,15.55177,0</coordinates></Point></Placemark>
<Placemark><name>Hamburg, DE</name><styleUrl>#city</styleUrl><description>near miss: Mars passes 5.6′ from the limb (UTC)</description><Point><coordinates>9.99302,53.55073,0</coordinates></Point></Placemark>
<Placemark><name>Accra, GH</name><styleUrl>#city</styleUrl><description>D1 10:08:17 · D2 10:08:30 · R1 11:56:27 · R2 11:56:44 (UTC)</description><Point><coordinates>-0.1969,5.55602,0</coordinates></Point></Placemark>
<Placemark><name>Curitiba, BR</name><styleUrl>#city</styleUrl><description>near miss: Mars passes 25.5′ from the limb (UTC)</description><Point><coordinates>-49.27306,-25.42778,0</coordinates></Point></Placemark>
<Placemark><name>Sanaa, YE</name><styleUrl>#city</styleUrl><description>D1 12:57:53 · D2 12:58:43 · R1 13:20:26 · R2 13:21:11 (UTC)</description><Point><coordinates>44.20646,15.35452,0</coordinates></Point></Placemark>
<Placemark><name>Conakry, GN</name><styleUrl>#city</styleUrl><description>D1 09:49:04 · D2 09:49:15 · R1 11:20:36 · R2 11:20:50 (UTC)</description><Point><coordinates>-13.67729,9.53795,0</coordinates></Point></Placemark>
<Placemark><name>Hyderabad, PK</name><styleUrl>#city</styleUrl><description>near miss: Mars passes 3.4′ from the limb (UTC)</description><Point><coordinates>68.37718,25.39689,0</coordinates></Point></Placemark>
<Placemark><name>Beirut, LB</name><styleUrl>#city</styleUrl><description>D1 12:22:16 · D2 12:22:29 · R1 13:49:55 · R2 13:50:07 (UTC)</description><Point><coordinates>35.50157,33.89332,0</coordinates></Point></Placemark>
<Placemark><name>Bucharest, RO</name><styleUrl>#city</styleUrl><description>D1 12:28:50 · D2 12:29:15 · R1 13:14:12 · R2 13:14:34 (UTC)</description><Point><coordinates>26.10626,44.43225,0</coordinates></Point></Placemark>
<Placemark><name>Camayenne, GN</name><styleUrl>#city</styleUrl><description>D1 09:49:04 · D2 09:49:15 · R1 11:20:35 · R2 11:20:49 (UTC)</description><Point><coordinates>-13.68778,9.535,0</coordinates></Point></Placemark>
<Placemark><name>Kakamega, KE</name><styleUrl>#city</styleUrl><description>near miss: Mars passes 4.6′ from the limb (UTC)</description><Point><coordinates>34.75229,0.28422,0</coordinates></Point></Placemark>
<Placemark><name>Kaduna, NG</name><styleUrl>#city</styleUrl><description>D1 10:33:55 · D2 10:34:10 · R1 12:30:03 · R2 12:30:18 (UTC)</description><Point><coordinates>7.43879,10.52641,0</coordinates></Point></Placemark>
<Placemark><name>Omdurman, SD</name><styleUrl>#city</styleUrl><description>D1 12:04:35 · D2 12:04:52 · R1 13:32:08 · R2 13:32:23 (UTC)</description><Point><coordinates>32.47773,15.64453,0</coordinates></Point></Placemark>
<Placemark><name>Thāne, IN</name><styleUrl>#city</styleUrl><description>near miss: Mars passes 10.5′ from the limb (UTC)</description><Point><coordinates>72.96355,19.19704,0</coordinates></Point></Placemark>
<Placemark><name>Diyarbakır, TR</name><styleUrl>#city</styleUrl><description>D1 12:31:16 · D2 12:31:29 · R1 13:53:33 · R2 13:53:46 (UTC)</description><Point><coordinates>40.21721,37.91363,0</coordinates></Point></Placemark>
<Placemark><name>Vadodara, IN</name><styleUrl>#city</styleUrl><description>near miss: Mars passes 7.9′ from the limb (UTC)</description><Point><coordinates>73.20812,22.29941,0</coordinates></Point></Placemark>
<Placemark><name>Adana, TR</name><styleUrl>#city</styleUrl><description>D1 12:24:37 · D2 12:24:50 · R1 13:47:38 · R2 13:47:51 (UTC)</description><Point><coordinates>35.32531,36.98615,0</coordinates></Point></Placemark>
<Placemark><name>Abu Dhabi, AE</name><styleUrl>#city</styleUrl><description>D1 13:06:53 · D2 13:07:14 · R1 13:45:47 · R2 13:46:09 (UTC)</description><Point><coordinates>54.39696,24.45118,0</coordinates></Point></Placemark>
<Placemark><name>Sharjah, AE</name><styleUrl>#city</styleUrl><description>D1 13:07:17 · D2 13:07:37 · R1 13:47:36 · R2 13:47:54 (UTC)</description><Point><coordinates>55.41221,25.3342,0</coordinates></Point></Placemark>
<Placemark><name>Benin City, NG</name><styleUrl>#city</styleUrl><description>D1 10:23:21 · D2 10:23:36 · R1 12:17:31 · R2 12:17:48 (UTC)</description><Point><coordinates>5.62575,6.33815,0</coordinates></Point></Placemark>
<Placemark><name>Minsk, BY</name><styleUrl>#city</styleUrl><description>near miss: Mars passes 1.3′ from the limb (UTC)</description><Point><coordinates>27.56653,53.90019,0</coordinates></Point></Placemark>
<Placemark><name>Budapest, HU</name><styleUrl>#city</styleUrl><description>near miss: Mars passes 1.7′ from the limb (UTC)</description><Point><coordinates>19.04045,47.49835,0</coordinates></Point></Placemark>
<Placemark><name>Pimpri-Chinchwad, IN</name><styleUrl>#city</styleUrl><description>near miss: Mars passes 11.3′ from the limb (UTC)</description><Point><coordinates>73.80375,18.61867,0</coordinates></Point></Placemark>
<Placemark><name>Warsaw, PL</name><styleUrl>#city</styleUrl><description>near miss: Mars passes 2.6′ from the limb (UTC)</description><Point><coordinates>21.01178,52.22977,0</coordinates></Point></Placemark>
<Placemark><name>Soweto, ZA</name><styleUrl>#city</styleUrl><description>near miss: Mars passes 21.1′ from the limb (UTC)</description><Point><coordinates>27.85849,-26.26781,0</coordinates></Point></Placemark>
<Placemark><name>Vienna, AT</name><styleUrl>#city</styleUrl><description>near miss: Mars passes 2.7′ from the limb (UTC)</description><Point><coordinates>16.37208,48.20849,0</coordinates></Point></Placemark>
<Placemark><name>Barcelona, ES</name><styleUrl>#city</styleUrl><description>near miss: Mars passes 3.9′ from the limb (UTC)</description><Point><coordinates>2.15899,41.38879,0</coordinates></Point></Placemark>
<Placemark><name>Mosul, IQ</name><styleUrl>#city</styleUrl><description>D1 12:34:29 · D2 12:34:41 · R1 13:57:21 · R2 13:57:32 (UTC)</description><Point><coordinates>43.11889,36.335,0</coordinates></Point></Placemark>
<Placemark><name>Kallakurichi, IN</name><styleUrl>#city</styleUrl><description>near miss: Mars passes 19.0′ from the limb (UTC)</description><Point><coordinates>78.95925,11.73379,0</coordinates></Point></Placemark>
<Placemark><name>Kampala, UG</name><styleUrl>#city</styleUrl><description>near miss: Mars passes 3.2′ from the limb (UTC)</description><Point><coordinates>32.58219,0.31628,0</coordinates></Point></Placemark>
<Placemark><name>Rabat, MA</name><styleUrl>#city</styleUrl><description>near miss: Mars passes 1.9′ from the limb (UTC)</description><Point><coordinates>-6.83255,34.01325,0</coordinates></Point></Placemark>
<Placemark><name>Recife, BR</name><styleUrl>#city</styleUrl><description>near miss: Mars passes 5.8′ from the limb (UTC)</description><Point><coordinates>-34.88111,-8.05389,0</coordinates></Point></Placemark>
<Placemark><name>Erbil, IQ</name><styleUrl>#city</styleUrl><description>D1 12:35:40 · D2 12:35:52 · R1 13:58:07 · R2 13:58:18 (UTC)</description><Point><coordinates>44.00943,36.19117,0</coordinates></Point></Placemark>
<Placemark><name>Makkah, SA</name><styleUrl>#city</styleUrl><description>D1 12:27:52 · D2 12:28:10 · R1 13:46:18 · R2 13:46:32 (UTC)</description><Point><coordinates>39.82563,21.42664,0</coordinates></Point></Placemark>
<Placemark><name>Damascus, SY</name><styleUrl>#city</styleUrl><description>D1 12:23:13 · D2 12:23:27 · R1 13:51:03 · R2 13:51:15 (UTC)</description><Point><coordinates>36.29128,33.5102,0</coordinates></Point></Placemark>
<Placemark><name>Quetta, PK</name><styleUrl>#city</styleUrl><description>D1 13:21:22 · D2 13:21:48 · R1 13:47:38 · R2 13:48:01 (UTC)</description><Point><coordinates>67.00141,30.18414,0</coordinates></Point></Placemark>
<Placemark><name>Onitsha, NG</name><styleUrl>#city</styleUrl><description>D1 10:26:24 · D2 10:26:38 · R1 12:21:01 · R2 12:21:17 (UTC)</description><Point><coordinates>6.78569,6.14978,0</coordinates></Point></Placemark>
<Placemark><name>Isfahan, IR</name><styleUrl>#city</styleUrl><description>D1 12:48:09 · D2 12:48:22 · R1 14:01:03 · R2 14:01:13 (UTC)</description><Point><coordinates>51.67462,32.65246,0</coordinates></Point></Placemark>
<Placemark><name>Harare, ZW</name><styleUrl>#city</styleUrl><description>near miss: Mars passes 15.9′ from the limb (UTC)</description><Point><coordinates>31.05337,-17.82772,0</coordinates></Point></Placemark>
<Placemark><name>Monrovia, LR</name><styleUrl>#city</styleUrl><description>D1 09:50:30 · D2 09:50:42 · R1 11:24:43 · R2 11:24:57 (UTC)</description><Point><coordinates>-10.7969,6.30054,0</coordinates></Point></Placemark>
<Placemark><name>Stockholm, SE</name><styleUrl>#city</styleUrl><description>near miss: Mars passes 5.0′ from the limb (UTC)</description><Point><coordinates>18.06871,59.32938,0</coordinates></Point></Placemark>
<Placemark><name>Munich, DE</name><styleUrl>#city</styleUrl><description>near miss: Mars passes 4.0′ from the limb (UTC)</description><Point><coordinates>11.57549,48.13743,0</coordinates></Point></Placemark>
<Placemark><name>Porto Alegre, BR</name><styleUrl>#city</styleUrl><description>near miss: Mars passes 29.9′ from the limb (UTC)</description><Point><coordinates>-51.23019,-30.03283,0</coordinates></Point></Placemark>
<Placemark><name>Nashik, IN</name><styleUrl>#city</styleUrl><description>near miss: Mars passes 10.1′ from the limb (UTC)</description><Point><coordinates>73.79096,19.99727,0</coordinates></Point></Placemark>
<Placemark><name>Madurai, IN</name><styleUrl>#city</styleUrl><description>near miss: Mars passes 20.3′ from the limb (UTC)</description><Point><coordinates>78.11953,9.919,0</coordinates></Point></Placemark>
<Placemark><name>Kayseri, TR</name><styleUrl>#city</styleUrl><description>D1 12:26:18 · D2 12:26:31 · R1 13:46:13 · R2 13:46:26 (UTC)</description><Point><coordinates>35.48528,38.73222,0</coordinates></Point></Placemark>
<Placemark><name>Karaj, IR</name><styleUrl>#city</styleUrl><description>D1 12:45:15 · D2 12:45:27 · R1 14:01:54 · R2 14:02:04 (UTC)</description><Point><coordinates>50.99155,35.83266,0</coordinates></Point></Placemark>
<Placemark><name>Tirunelveli, IN</name><styleUrl>#city</styleUrl><description>near miss: Mars passes 21.1′ from the limb (UTC)</description><Point><coordinates>77.6838,8.72742,0</coordinates></Point></Placemark>
<Placemark><name>Konya, TR</name><styleUrl>#city</styleUrl><description>D1 12:22:04 · D2 12:22:18 · R1 13:41:52 · R2 13:42:05 (UTC)</description><Point><coordinates>32.48464,37.87135,0</coordinates></Point></Placemark>
<Placemark><name>Tabriz, IR</name><styleUrl>#city</styleUrl><description>D1 12:38:44 · D2 12:38:55 · R1 13:59:03 · R2 13:59:13 (UTC)</description><Point><coordinates>46.2919,38.08,0</coordinates></Point></Placemark>
<Placemark><name>Kharkiv, UA</name><styleUrl>#city</styleUrl><description>D1 12:37:57 · D2 12:38:17 · R1 13:28:27 · R2 13:28:44 (UTC)</description><Point><coordinates>36.25475,49.98177,0</coordinates></Point></Placemark>
<Placemark><name>Rājkot, IN</name><styleUrl>#city</styleUrl><description>near miss: Mars passes 7.0′ from the limb (UTC)</description><Point><coordinates>70.79322,22.29161,0</coordinates></Point></Placemark>
<Placemark><name>Milan, IT</name><styleUrl>#city</styleUrl><description>near miss: Mars passes 3.8′ from the limb (UTC)</description><Point><coordinates>9.18951,45.46427,0</coordinates></Point></Placemark>
<Placemark><name>N&#x27;Djamena, TD</name><styleUrl>#city</styleUrl><description>D1 11:00:12 · D2 11:00:28 · R1 12:56:37 · R2 12:56:52 (UTC)</description><Point><coordinates>15.0444,12.10672,0</coordinates></Point></Placemark>
<Placemark><name>Bannu, PK</name><styleUrl>#city</styleUrl><description>D1 13:17:42 · D2 13:18:01 · R1 13:52:14 · R2 13:52:33 (UTC)</description><Point><coordinates>70.60403,32.98527,0</coordinates></Point></Placemark>
<Placemark><name>Antananarivo, MG</name><styleUrl>#city</styleUrl><description>near miss: Mars passes 26.1′ from the limb (UTC)</description><Point><coordinates>47.53613,-18.91368,0</coordinates></Point></Placemark>
<Placemark><name>Abobo, CI</name><styleUrl>#city</styleUrl><description>D1 10:00:30 · D2 10:00:43 · R1 11:43:36 · R2 11:43:52 (UTC)</description><Point><coordinates>-4.0159,5.41613,0</coordinates></Point></Placemark>
<Placemark><name>Douala, CM</name><styleUrl>#city</styleUrl><description>D1 10:33:44 · D2 10:33:59 · R1 12:25:31 · R2 12:25:48 (UTC)</description><Point><coordinates>9.70428,4.04827,0</coordinates></Point></Placemark>
<Placemark><name>Antalya, TR</name><styleUrl>#city</styleUrl><description>D1 12:18:48 · D2 12:19:03 · R1 13:39:22 · R2 13:39:35 (UTC)</description><Point><coordinates>30.69556,36.90812,0</coordinates></Point></Placemark>
<Placemark><name>Basrah, IQ</name><styleUrl>#city</styleUrl><description>D1 12:42:41 · D2 12:42:53 · R1 13:59:04 · R2 13:59:15 (UTC)</description><Point><coordinates>47.7804,30.50852,0</coordinates></Point></Placemark>
<Placemark><name>Niamey, NE</name><styleUrl>#city</styleUrl><description>D1 10:25:00 · D2 10:25:14 · R1 12:13:05 · R2 12:13:22 (UTC)</description><Point><coordinates>2.1098,13.51366,0</coordinates></Point></Placemark>
<Placemark><name>Tripoli, LY</name><styleUrl>#city</styleUrl><description>D1 11:50:04 · D2 11:50:31 · R1 12:47:58 · R2 12:48:24 (UTC)</description><Point><coordinates>13.18733,32.88743,0</coordinates></Point></Placemark>
<Placemark><name>Madinah, SA</name><styleUrl>#city</styleUrl><description>D1 12:26:39 · D2 12:26:53 · R1 13:50:40 · R2 13:50:51 (UTC)</description><Point><coordinates>39.61417,24.46861,0</coordinates></Point></Placemark>
<Placemark><name>Yaoundé, CM</name><styleUrl>#city</styleUrl><description>D1 10:39:33 · D2 10:39:49 · R1 12:30:07 · R2 12:30:24 (UTC)</description><Point><coordinates>11.51667,3.86667,0</coordinates></Point></Placemark>
<Placemark><name>Pimpri, IN</name><styleUrl>#city</styleUrl><description>near miss: Mars passes 11.3′ from the limb (UTC)</description><Point><coordinates>73.80696,18.62292,0</coordinates></Point></Placemark>
</Folder></Document></kml>
