<?xml version="1.0" encoding="UTF-8"?>
<gpx version="1.1" creator="https://occult.alokm.com" xmlns="http://www.topografix.com/GPX/1/1">
<metadata><name>The Moon occults Mars — 2026-11-02 — graze limits</name></metadata>
<trk><name>north graze limit</name><trkseg><trkpt lat="-20.998" lon="-167.97"/><trkpt lat="-20.7235" lon="-167.0"/><trkpt lat="-20.4508" lon="-166.0"/><trkpt lat="-20.1872" lon="-165.0"/><trkpt lat="-19.9958" lon="-164.25"/><trkpt lat="-19.9306" lon="-164.0"/><trkpt lat="-19.6804" lon="-163.0"/><trkpt lat="-19.4458" lon="-162.0"/><trkpt lat="-19.219" lon="-161.0"/><trkpt lat="-19.0056" lon="-160.0"/><trkpt lat="-18.9866" lon="-159.91"/><trkpt lat="-18.8065" lon="-159.0"/><trkpt lat="-18.6168" lon="-158.0"/><trkpt lat="-18.4431" lon="-157.0"/><trkpt lat="-18.2804" lon="-156.0"/><trkpt lat="-18.1262" lon="-155.0"/><trkpt lat="-17.9931" lon="-154.02"/><trkpt lat="-17.9906" lon="-154.0"/><trkpt lat="-17.8682" lon="-153.0"/><trkpt lat="-17.7587" lon="-152.0"/><trkpt lat="-17.6674" lon="-151.0"/><trkpt lat="-17.5951" lon="-150.0"/><trkpt lat="-17.5359" lon="-149.0"/><trkpt lat="-17.4873" lon="-148.0"/><trkpt lat="-17.4821" lon="-147.0"/><trkpt lat="-17.47" lon="-146.0"/><trkpt lat="-17.5021" lon="-145.0"/><trkpt lat="-17.5502" lon="-144.0"/><trkpt lat="-17.6095" lon="-143.0"/><trkpt lat="-17.6946" lon="-142.0"/><trkpt lat="-17.8107" lon="-141.0"/><trkpt lat="-17.9482" lon="-140.0"/><trkpt lat="-17.9836" lon="-139.76"/><trkpt lat="-18.1132" lon="-139.0"/><trkpt lat="-18.3067" lon="-138.0"/><trkpt lat="-18.5365" lon="-137.0"/><trkpt lat="-18.7885" lon="-136.0"/><trkpt lat="-18.9873" lon="-135.29"/><trkpt lat="-19.0724" lon="-135.0"/><trkpt lat="-19.3915" lon="-134.0"/><trkpt lat="-19.7391" lon="-133.0"/><trkpt lat="-19.9799" lon="-132.35"/><trkpt lat="-20.1163" lon="-132.0"/><trkpt lat="-20.5325" lon="-131.0"/><trkpt lat="-20.9714" lon="-130.04"/><trkpt lat="-20.9907" lon="-130.0"/><trkpt lat="-21.4934" lon="-129.0"/><trkpt lat="-21.9694" lon="-128.1"/><trkpt lat="-22.024" lon="-128.0"/><trkpt lat="-22.595" lon="-127.0"/><trkpt lat="-22.9669" lon="-126.39"/><trkpt lat="-23.2074" lon="-126.0"/><trkpt lat="-23.8709" lon="-125.0"/><trkpt lat="-23.9684" lon="-124.85"/><trkpt lat="-24.5557" lon="-124.0"/><trkpt lat="-24.9712" lon="-123.43"/><trkpt lat="-25.295" lon="-123.0"/><trkpt lat="-25.9836" lon="-122.11"/><trkpt lat="-26.0723" lon="-122.0"/><trkpt lat="-26.8792" lon="-121.0"/><trkpt lat="-26.9844" lon="-120.87"/><trkpt lat="-27.7121" lon="-120.0"/><trkpt lat="-27.9905" lon="-119.68"/><trkpt lat="-28.5773" lon="-119.0"/><trkpt lat="-28.9722" lon="-118.55"/><trkpt lat="-29.4643" lon="-118.0"/><trkpt lat="-29.9773" lon="-117.44"/><trkpt lat="-30.3913" lon="-117.0"/><trkpt lat="-30.9853" lon="-116.37"/><trkpt lat="-31.3342" lon="-116.0"/><trkpt lat="-31.9854" lon="-115.32"/><trkpt lat="-32.2958" lon="-115.0"/><trkpt lat="-32.9858" lon="-114.29"/><trkpt lat="-33.2697" lon="-114.0"/><trkpt lat="-33.9858" lon="-113.27"/><trkpt lat="-34.2524" lon="-113.0"/><trkpt lat="-34.9842" lon="-112.26"/><trkpt lat="-35.2414" lon="-112.0"/><trkpt lat="-35.9836" lon="-111.25"/><trkpt lat="-36.2311" lon="-111.0"/><trkpt lat="-36.9923" lon="-110.23"/><trkpt lat="-37.22" lon="-110.0"/><trkpt lat="-37.988" lon="-109.22"/><trkpt lat="-38.2041" lon="-109.0"/><trkpt lat="-38.985" lon="-108.2"/><trkpt lat="-39.1792" lon="-108.0"/><trkpt lat="-39.9855" lon="-107.17"/><trkpt lat="-40.1496" lon="-107.0"/><trkpt lat="-40.9799" lon="-106.13"/><trkpt lat="-41.102" lon="-106.0"/><trkpt lat="-41.9758" lon="-105.07"/><trkpt lat="-42.0413" lon="-105.0"/><trkpt lat="-42.9751" lon="-104.0"/><trkpt lat="-42.9843" lon="-103.99"/><trkpt lat="-43.8978" lon="-103.0"/><trkpt lat="-43.9887" lon="-102.9"/><trkpt lat="-44.7918" lon="-102.0"/><trkpt lat="-44.9886" lon="-101.78"/><trkpt lat="-45.6696" lon="-101.0"/><trkpt lat="-45.9912" lon="-100.63"/><trkpt lat="-46.5324" lon="-100.0"/><trkpt lat="-46.9887" lon="-99.46"/><trkpt lat="-47.3702" lon="-99.0"/><trkpt lat="-47.9831" lon="-98.25"/><trkpt lat="-48.1884" lon="-98.0"/><trkpt lat="-48.9745" lon="-97.01"/><trkpt lat="-48.9825" lon="-97.0"/><trkpt lat="-49.7602" lon="-96.0"/><trkpt lat="-49.9702" lon="-95.73"/><trkpt lat="-50.5225" lon="-95.0"/><trkpt lat="-50.9689" lon="-94.41"/><trkpt lat="-51.269" lon="-94.0"/><trkpt lat="-51.9744" lon="-93.04"/><trkpt lat="-52.0037" lon="-93.0"/><trkpt lat="-52.7037" lon="-92.0"/><trkpt lat="-52.9667" lon="-91.62"/><trkpt lat="-53.3879" lon="-91.0"/><trkpt lat="-53.9687" lon="-90.14"/><trkpt lat="-54.0603" lon="-90.0"/><trkpt lat="-54.7138" lon="-89.0"/><trkpt lat="-54.964" lon="-88.61"/><trkpt lat="-55.3526" lon="-88.0"/><trkpt lat="-55.9733" lon="-87.0"/><trkpt lat="-55.9733" lon="-87.0"/><trkpt lat="-56.5786" lon="-86.0"/><trkpt lat="-56.9737" lon="-85.33"/><trkpt lat="-57.1642" lon="-85.0"/><trkpt lat="-57.7371" lon="-84.0"/><trkpt lat="-57.9766" lon="-83.57"/><trkpt lat="-58.2867" lon="-83.0"/><trkpt lat="-58.8258" lon="-82.0"/><trkpt lat="-58.9683" lon="-81.73"/><trkpt lat="-59.3477" lon="-81.0"/><trkpt lat="-59.8575" lon="-80.0"/><trkpt lat="-59.969" lon="-79.78"/><trkpt lat="-60.3594" lon="-79.0"/><trkpt lat="-60.841" lon="-78.0"/><trkpt lat="-60.9751" lon="-77.72"/><trkpt lat="-61.3146" lon="-77.0"/><trkpt lat="-61.7717" lon="-76.0"/><trkpt lat="-61.9772" lon="-75.54"/><trkpt lat="-62.2163" lon="-75.0"/></trkseg></trk>
</gpx>
