<?xml version="1.0" encoding="UTF-8"?>
<kml xmlns="http://www.opengis.net/kml/2.2"><Document><name>The Moon occults Mars — 2028-08-17</name>
<description>Graze limits from https://occult.alokm.com/mars-2028-08-17, traced against the real lunar limb (LRO LOLA).</description>
<Style id="graze"><LineStyle><color>ff06b6d9</color><width>4</width></LineStyle></Style>
<Placemark><name>south graze limit</name><styleUrl>#graze</styleUrl><LineString><tessellate>1</tessellate><coordinates>180.0,-17.3344,0 179.0,-17.6949,0 178.15,-18.0103,0 178.0,-18.0678,0 177.0,-18.4432,0 176.0,-18.8332,0 175.54,-19.0113,0 175.0,-19.2225,0 174.0,-19.619,0 173.03,-20.0061,0 173.0,-20.0183,0 172.0,-20.4213,0 171.0,-20.8346,0 170.6,-21.0004,0 170.0,-21.2504,0 169.0,-21.6694,0</coordinates></LineString></Placemark>
<Placemark><name>north graze limit</name><styleUrl>#graze</styleUrl><LineString><tessellate>1</tessellate><coordinates>157.41,8.9966,0 158.0,9.2445,0 159.0,9.6648,0 159.79,9.9952,0 160.0,10.083,0 161.0,10.5007,0 162.0,10.9142,0 162.21,10.9998,0 163.0,11.3225,0 164.0,11.7305,0 164.66,11.9985,0 165.0,12.1358,0 166.0,12.5374,0 167.0,12.9345,0 167.17,13.0016,0 168.0,13.3258,0 169.0,13.712,0 169.75,13.9995,0 170.0,14.0951,0 171.0,14.471,0 172.0,14.8419,0 172.43,15.001,0 173.0,15.2081,0 174.0,15.5694,0 175.0,15.9217,0 175.22,15.9988,0 176.0,16.2673,0 177.0,16.6019,0 178.0,16.9407,0 178.18,17.001,0 179.0,17.2651,0 180.0,17.5857,0</coordinates></LineString></Placemark>
<Placemark><name>north graze limit</name><styleUrl>#graze</styleUrl><LineString><tessellate>1</tessellate><coordinates>-180.0,17.5857,0 -179.0,17.8917,0 -178.64,17.9999,0 -178.0,18.1924,0 -177.0,18.4814,0 -176.0,18.7646,0 -175.12,18.9993,0 -175.0,19.0313,0 -174.0,19.2917,0 -173.0,19.54,0 -172.0,19.7794,0 -171.04,19.9986,0 -171.0,20.0071,0 -170.0,20.2333,0 -169.0,20.4325,0 -168.0,20.626,0 -167.0,20.8049,0 -166.0,20.9703,0 -165.78,21.0042,0 -165.0,21.1199,0 -164.0,21.2566,0 -163.0,21.3838,0 -162.0,21.4912,0 -161.0,21.5914,0 -160.0,21.6752,0 -159.0,21.736,0 -158.0,21.789,0 -157.0,21.8083,0 -156.0,21.8248,0 -155.0,21.8295,0 -154.0,21.8126,0 -153.0,21.7686,0 -152.0,21.7116,0 -151.0,21.6337,0 -150.0,21.5389,0 -149.0,21.4237,0 -148.0,21.2888,0 -147.0,21.1331,0 -146.21,20.9975,0 -146.0,20.9612,0 -145.0,20.7715,0 -144.0,20.557,0 -143.0,20.3178,0 -142.0,20.06,0 -141.83,20.0132,0 -141.0,19.7732,0 -140.0,19.469,0 -139.0,19.1356,0 -138.64,19.0124,0 -138.0,18.783,0 -137.0,18.4067,0 -136.0,18.0075,0 -136.0,18.0075,0 -135.0,17.5819,0 -134.0,17.1306,0 -133.73,17.0055,0 -133.0,16.6614,0 -132.0,16.1671,0 -131.68,16.0046,0 -131.0,15.655,0 -130.0,15.1185,0 -129.81,15.0121,0 -129.0,14.5575,0 -128.06,14.0076,0 -128.0,13.9725,0 -127.0,13.3731,0 -126.42,13.0115,0 -126.0,12.7474,0 -125.0,12.1082,0 -124.85,12.0113,0 -124.0,11.4561,0 -123.34,11.0102,0 -123.0,10.7805,0 -122.0,10.0942,0 -121.87,10.0052,0 -121.0,9.4016,0 -120.45,9.014,0 -120.0,8.6934,0 -119.05,8.0119,0 -119.0,7.9756,0 -118.0,7.2499,0 -117.68,7.0157,0 -117.0,6.5168,0 -116.31,6.0086,0 -116.0,5.7795,0 -115.0,5.0413,0 -114.96,5.0117,0 -114.0,4.3015,0 -113.61,4.013,0 -113.0,3.5621,0 -112.25,3.0085,0 -112.0,2.8242,0 -111.0,2.0897,0 -110.9,2.0164,0 -110.0,1.3584,0 -109.52,1.0093,0 -109.0,0.6329,0 -108.14,0.0132,0 -108.0,-0.0873,0 -107.0,-0.801,0 -106.74,-0.9858,0 -106.0,-1.5113,0 -105.31,-1.9937,0 -105.0,-2.209,0 -104.0,-2.898,0 -103.86,-2.9948,0 -103.0,-3.5762,0 -102.38,-3.9884,0 -102.0,-4.2429,0 -101.0,-4.9069,0 -100.87,-4.9916,0 -100.0,-5.5543,0 -99.32,-5.9919,0 -99.0,-6.1952,0 -98.0,-6.8199,0 -97.73,-6.9855,0 -97.0,-7.4367,0 -96.09,-7.988,0 -96.0,-8.0425,0 -95.0,-8.6422,0 -94.4,-8.9905,0 -94.0,-9.2233,0 -93.0,-9.7988,0 -92.66,-9.9912,0 -92.0,-10.3605,0 -91.0,-10.9154,0 -90.87,-10.9863,0 -90.0,-11.4585,0 -89.0,-11.9941,0 -89.0,-11.9941,0 -88.0,-12.5169,0 -87.07,-12.995,0 -87.0,-13.0307,0 -86.0,-13.5338,0 -85.06,-13.991,0 -85.0,-14.0201,0 -84.0,-14.506,0 -83.0,-14.9766,0 -82.96,-14.9948,0 -82.0,-15.4396,0</coordinates></LineString></Placemark>
<Placemark><name>south graze limit</name><styleUrl>#graze</styleUrl><LineString><tessellate>1</tessellate><coordinates>-98.34,-45.0091,0 -99.0,-44.6794,0 -100.0,-44.1608,0 -100.29,-44.0144,0 -101.0,-43.6528,0 -102.0,-43.1276,0 -102.17,-43.0354,0 -103.0,-42.5816,0 -104.0,-42.0255,0 -104.0,-42.0255,0 -105.0,-41.4681,0 -105.78,-41.0216,0 -106.0,-40.8962,0 -107.0,-40.3184,0 -107.5,-40.024,0 -108.0,-39.73,0 -109.0,-39.1366,0 -109.18,-39.0285,0 -110.0,-38.5278,0 -110.82,-38.0271,0 -111.0,-37.9152,0 -112.0,-37.2892,0 -112.42,-37.0245,0 -113.0,-36.6532,0 -113.99,-36.0133,0 -114.0,-36.0068,0 -115.0,-35.3614,0 -115.52,-35.0218,0 -116.0,-34.7063,0 -117.0,-34.0399,0 -117.02,-34.0265,0 -118.0,-33.3696,0 -118.5,-33.0321,0 -119.0,-32.6906,0 -119.95,-32.0269,0 -120.0,-31.9922,0 -121.0,-31.2919,0 -121.38,-31.0228,0 -122.0,-30.583,0 -122.79,-30.0221,0 -123.0,-29.873,0 -124.0,-29.1547,0 -124.19,-29.0168,0 -125.0,-28.431,0 -125.58,-28.0104,0 -126.0,-27.7063,0 -126.96,-27.0107,0 -127.0,-26.9817,0 -128.0,-26.2567,0 -128.34,-26.0102,0 -129.0,-25.5331,0 -129.73,-25.0088,0 -130.0,-24.8157,0 -131.0,-24.1023,0 -131.12,-24.0163,0 -132.0,-23.3892,0 -132.52,-23.0242,0 -133.0,-22.6873,0 -133.95,-22.033,0 -134.0,-21.9984,0 -135.0,-21.3011,0 -135.41,-21.0225,0 -136.0,-20.6225,0 -136.91,-20.0183,0 -137.0,-19.96,0 -138.0,-19.3235,0 -138.48,-19.0226,0 -139.0,-18.7049,0 -140.0,-18.1025,0 -140.14,-18.0204,0 -141.0,-17.5293,0 -141.92,-17.0263,0 -142.0,-16.9782,0 -143.0,-16.435,0 -143.89,-15.9979,0 -144.0,-15.9468,0 -145.0,-15.4985,0 -146.0,-15.0646,0 -146.16,-14.995,0 -147.0,-14.6875,0 -148.0,-14.3601,0 -148.96,-14.0508,0 -149.0,-14.0384,0 -150.0,-13.7384,0 -151.0,-13.5052,0 -152.0,-13.2833,0 -153.0,-13.083,0 -153.3,-13.0416,0 -154.0,-12.9309,0 -155.0,-12.7929,0 -156.0,-12.7058,0 -157.0,-12.6667,0 -158.0,-12.6517,0 -159.0,-12.6111,0 -160.0,-12.637,0 -161.0,-12.6951,0 -162.0,-12.7768,0 -163.0,-12.8847,0 -163.82,-12.9952,0 -164.0,-13.0205,0 -165.0,-13.1815,0 -166.0,-13.348,0 -167.0,-13.535,0 -168.0,-13.7436,0 -169.0,-13.9701,0 -169.15,-14.005,0 -170.0,-14.2042,0 -171.0,-14.4662,0 -172.0,-14.7402,0 -172.94,-15.016,0 -173.0,-15.033,0 -174.0,-15.3255,0 -175.0,-15.6328,0 -176.0,-15.9526,0 -176.18,-16.0126,0 -177.0,-16.2886,0 -178.0,-16.6288,0 -179.0,-16.9781,0 -179.11,-17.0159,0 -180.0,-17.3344,0</coordinates></LineString></Placemark>
</Document></kml>
