<?xml version="1.0" encoding="UTF-8"?>
<gpx version="1.1" creator="https://occult.alokm.com" xmlns="http://www.topografix.com/GPX/1/1">
<metadata><name>The Moon occults Mars — 2027-12-29 — graze limits</name></metadata>
<trk><name>south graze limit</name><trkseg><trkpt lat="-10.0632" lon="-4.0"/><trkpt lat="-9.997" lon="-4.67"/><trkpt lat="-9.9669" lon="-5.0"/><trkpt lat="-9.8686" lon="-6.0"/><trkpt lat="-9.7177" lon="-7.0"/><trkpt lat="-9.5698" lon="-8.0"/><trkpt lat="-9.4186" lon="-9.0"/><trkpt lat="-9.2407" lon="-10.0"/><trkpt lat="-9.0566" lon="-11.0"/><trkpt lat="-9.0087" lon="-11.26"/><trkpt lat="-8.8626" lon="-12.0"/><trkpt lat="-8.6398" lon="-13.0"/><trkpt lat="-8.4102" lon="-14.0"/><trkpt lat="-8.1827" lon="-15.0"/><trkpt lat="-8.023" lon="-15.63"/><trkpt lat="-7.9293" lon="-16.0"/><trkpt lat="-7.6602" lon="-17.0"/><trkpt lat="-7.3708" lon="-18.0"/><trkpt lat="-7.0827" lon="-19.0"/><trkpt lat="-7.0032" lon="-19.27"/><trkpt lat="-6.7892" lon="-20.0"/><trkpt lat="-6.4814" lon="-21.0"/><trkpt lat="-6.1665" lon="-22.0"/><trkpt lat="-6.008" lon="-22.52"/><trkpt lat="-5.8612" lon="-23.0"/><trkpt lat="-5.542" lon="-24.0"/><trkpt lat="-5.2146" lon="-25.0"/><trkpt lat="-5.0367" lon="-25.53"/><trkpt lat="-4.8765" lon="-26.0"/><trkpt lat="-4.5274" lon="-27.0"/><trkpt lat="-4.1693" lon="-28.0"/><trkpt lat="-4.0397" lon="-28.37"/><trkpt lat="-3.8134" lon="-29.0"/><trkpt lat="-3.4485" lon="-30.0"/><trkpt lat="-3.0745" lon="-31.0"/><trkpt lat="-3.0411" lon="-31.09"/><trkpt lat="-2.698" lon="-32.0"/><trkpt lat="-2.3157" lon="-33.0"/><trkpt lat="-2.04" lon="-33.72"/><trkpt lat="-1.9318" lon="-34.0"/><trkpt lat="-1.5402" lon="-35.0"/><trkpt lat="-1.1448" lon="-36.0"/><trkpt lat="-1.0333" lon="-36.28"/><trkpt lat="-0.7472" lon="-37.0"/></trkseg></trk>
<trk><name>north graze limit</name><trkseg><trkpt lat="36.0027" lon="-29.8"/><trkpt lat="35.6748" lon="-29.0"/><trkpt lat="35.2759" lon="-28.0"/><trkpt lat="34.9927" lon="-27.28"/><trkpt lat="34.8852" lon="-27.0"/><trkpt lat="34.5078" lon="-26.0"/><trkpt lat="34.1402" lon="-25.0"/><trkpt lat="34.0" lon="-24.61"/><trkpt lat="33.7811" lon="-24.0"/><trkpt lat="33.4328" lon="-23.0"/><trkpt lat="33.1031" lon="-22.0"/><trkpt lat="33.0043" lon="-21.7"/><trkpt lat="32.7863" lon="-21.0"/><trkpt lat="32.4705" lon="-20.0"/><trkpt lat="32.1724" lon="-19.0"/><trkpt lat="32.0029" lon="-18.42"/><trkpt lat="31.883" lon="-18.0"/><trkpt lat="31.6127" lon="-17.0"/><trkpt lat="31.3649" lon="-16.0"/><trkpt lat="31.1314" lon="-15.0"/><trkpt lat="30.9853" lon="-14.35"/><trkpt lat="30.9121" lon="-14.0"/><trkpt lat="30.7247" lon="-13.0"/><trkpt lat="30.5703" lon="-12.0"/><trkpt lat="30.4358" lon="-11.0"/><trkpt lat="30.3177" lon="-10.0"/><trkpt lat="30.2278" lon="-9.0"/><trkpt lat="30.1709" lon="-8.0"/><trkpt lat="30.1506" lon="-7.0"/><trkpt lat="30.1444" lon="-6.0"/><trkpt lat="30.1833" lon="-5.0"/><trkpt lat="30.2494" lon="-4.0"/><trkpt lat="30.3719" lon="-3.0"/><trkpt lat="30.5273" lon="-2.0"/><trkpt lat="30.7169" lon="-1.0"/><trkpt lat="30.9601" lon="0.0"/><trkpt lat="31.0005" lon="0.15"/><trkpt lat="31.2278" lon="1.0"/><trkpt lat="31.5656" lon="2.0"/><trkpt lat="31.9418" lon="3.0"/><trkpt lat="31.9913" lon="3.12"/><trkpt lat="32.3749" lon="4.0"/><trkpt lat="32.8406" lon="5.0"/><trkpt lat="32.9926" lon="5.3"/><trkpt lat="33.3543" lon="6.0"/><trkpt lat="33.9135" lon="7.0"/><trkpt lat="33.9855" lon="7.13"/><trkpt lat="34.514" lon="8.0"/><trkpt lat="34.994" lon="8.75"/><trkpt lat="35.1588" lon="9.0"/><trkpt lat="35.8433" lon="10.0"/><trkpt lat="35.998" lon="10.22"/><trkpt lat="36.5563" lon="11.0"/><trkpt lat="36.9948" lon="11.6"/><trkpt lat="37.2948" lon="12.0"/><trkpt lat="37.9964" lon="12.91"/><trkpt lat="38.068" lon="13.0"/><trkpt lat="38.8648" lon="14.0"/><trkpt lat="39.0006" lon="14.17"/><trkpt lat="39.6771" lon="15.0"/><trkpt lat="40.0035" lon="15.39"/><trkpt lat="40.5143" lon="16.0"/><trkpt lat="40.999" lon="16.58"/><trkpt lat="41.3523" lon="17.0"/><trkpt lat="42.0001" lon="17.76"/><trkpt lat="42.2068" lon="18.0"/><trkpt lat="43.0025" lon="18.92"/><trkpt lat="43.0717" lon="19.0"/><trkpt lat="43.9394" lon="20.0"/><trkpt lat="44.0003" lon="20.07"/><trkpt lat="44.807" lon="21.0"/><trkpt lat="44.9987" lon="21.22"/><trkpt lat="45.6794" lon="22.0"/><trkpt lat="46.0045" lon="22.37"/><trkpt lat="46.5565" lon="23.0"/><trkpt lat="47.008" lon="23.52"/><trkpt lat="47.4202" lon="24.0"/><trkpt lat="47.9948" lon="24.67"/><trkpt lat="48.276" lon="25.0"/><trkpt lat="49.0037" lon="25.84"/><trkpt lat="49.1408" lon="26.0"/><trkpt lat="49.9882" lon="27.0"/><trkpt lat="50.0047" lon="27.02"/><trkpt lat="50.8277" lon="28.0"/><trkpt lat="50.9988" lon="28.2"/><trkpt lat="51.6593" lon="29.0"/><trkpt lat="51.99" lon="29.4"/><trkpt lat="52.4892" lon="30.0"/><trkpt lat="52.997" lon="30.62"/><trkpt lat="53.3079" lon="31.0"/><trkpt lat="54.0023" lon="31.86"/><trkpt lat="54.1139" lon="32.0"/><trkpt lat="54.9056" lon="33.0"/><trkpt lat="54.9994" lon="33.12"/><trkpt lat="55.6797" lon="34.0"/><trkpt lat="55.9909" lon="34.4"/><trkpt lat="56.4555" lon="35.0"/><trkpt lat="56.9894" lon="35.7"/><trkpt lat="57.2184" lon="36.0"/><trkpt lat="57.963" lon="37.0"/><trkpt lat="57.9927" lon="37.04"/><trkpt lat="58.7064" lon="38.0"/><trkpt lat="58.9973" lon="38.4"/><trkpt lat="59.4329" lon="39.0"/><trkpt lat="59.989" lon="39.79"/><trkpt lat="60.1392" lon="40.0"/></trkseg></trk>
<trk><name>south graze limit</name><trkseg><trkpt lat="29.7368" lon="69.0"/><trkpt lat="29.2791" lon="68.0"/><trkpt lat="28.9802" lon="67.35"/><trkpt lat="28.8164" lon="67.0"/><trkpt lat="28.3365" lon="66.0"/><trkpt lat="27.9751" lon="65.27"/><trkpt lat="27.8394" lon="65.0"/><trkpt lat="27.327" lon="64.0"/><trkpt lat="26.9591" lon="63.29"/><trkpt lat="26.8074" lon="63.0"/><trkpt lat="26.2837" lon="62.0"/><trkpt lat="25.9576" lon="61.39"/><trkpt lat="25.743" lon="61.0"/><trkpt lat="25.1931" lon="60.0"/><trkpt lat="24.9586" lon="59.58"/><trkpt lat="24.632" lon="59.0"/><trkpt lat="24.0518" lon="58.0"/><trkpt lat="23.9587" lon="57.84"/><trkpt lat="23.455" lon="57.0"/><trkpt lat="22.9428" lon="56.16"/><trkpt lat="22.8439" lon="56.0"/><trkpt lat="22.2354" lon="55.0"/><trkpt lat="21.9527" lon="54.55"/><trkpt lat="21.6022" lon="54.0"/><trkpt lat="20.9488" lon="53.0"/><trkpt lat="20.9422" lon="52.99"/><trkpt lat="20.2886" lon="52.0"/><trkpt lat="19.9447" lon="51.49"/><trkpt lat="19.6102" lon="51.0"/><trkpt lat="18.9524" lon="50.04"/><trkpt lat="18.9239" lon="50.0"/><trkpt lat="18.2193" lon="49.0"/><trkpt lat="17.9602" lon="48.64"/><trkpt lat="17.4945" lon="48.0"/><trkpt lat="16.952" lon="47.27"/><trkpt lat="16.7516" lon="47.0"/><trkpt lat="15.9921" lon="46.0"/><trkpt lat="15.9462" lon="45.94"/><trkpt lat="15.2254" lon="45.0"/><trkpt lat="14.953" lon="44.65"/><trkpt lat="14.4365" lon="44.0"/><trkpt lat="13.9506" lon="43.39"/><trkpt lat="13.6361" lon="43.0"/><trkpt lat="12.9496" lon="42.16"/><trkpt lat="12.8186" lon="42.0"/><trkpt lat="11.9892" lon="41.0"/><trkpt lat="11.9473" lon="40.95"/><trkpt lat="11.1475" lon="40.0"/><trkpt lat="10.9539" lon="39.77"/><trkpt lat="10.3001" lon="39.0"/><trkpt lat="9.957" lon="38.6"/><trkpt lat="9.4371" lon="38.0"/><trkpt lat="8.9633" lon="37.45"/><trkpt lat="8.5708" lon="37.0"/><trkpt lat="7.9658" lon="36.31"/><trkpt lat="7.6922" lon="36.0"/><trkpt lat="6.9598" lon="35.17"/><trkpt lat="6.8083" lon="35.0"/><trkpt lat="5.9593" lon="34.04"/><trkpt lat="5.924" lon="34.0"/><trkpt lat="5.0408" lon="33.0"/><trkpt lat="4.9622" lon="32.91"/><trkpt lat="4.1595" lon="32.0"/><trkpt lat="3.9572" lon="31.77"/><trkpt lat="3.2824" lon="31.0"/><trkpt lat="2.9528" lon="30.62"/><trkpt lat="2.4148" lon="30.0"/><trkpt lat="1.9444" lon="29.45"/><trkpt lat="1.5638" lon="29.0"/><trkpt lat="0.9455" lon="28.26"/><trkpt lat="0.7327" lon="28.0"/><trkpt lat="-0.0539" lon="27.03"/><trkpt lat="-0.0769" lon="27.0"/><trkpt lat="-0.8672" lon="26.0"/><trkpt lat="-1.0533" lon="25.76"/><trkpt lat="-1.6277" lon="25.0"/><trkpt lat="-2.0464" lon="24.43"/><trkpt lat="-2.3592" lon="24.0"/><trkpt lat="-3.0506" lon="23.03"/><trkpt lat="-3.0724" lon="23.0"/><trkpt lat="-3.7418" lon="22.0"/><trkpt lat="-4.0499" lon="21.52"/><trkpt lat="-4.3873" lon="21.0"/><trkpt lat="-4.9778" lon="20.0"/><trkpt lat="-5.0437" lon="19.89"/><trkpt lat="-5.5426" lon="19.0"/><trkpt lat="-6.0349" lon="18.08"/><trkpt lat="-6.0755" lon="18.0"/><trkpt lat="-6.564" lon="17.0"/><trkpt lat="-7.0179" lon="16.02"/><trkpt lat="-7.0269" lon="16.0"/><trkpt lat="-7.4498" lon="15.0"/><trkpt lat="-7.8271" lon="14.0"/><trkpt lat="-8.0031" lon="13.55"/><trkpt lat="-8.2014" lon="13.0"/><trkpt lat="-8.5428" lon="12.0"/><trkpt lat="-8.8632" lon="11.0"/><trkpt lat="-9.0258" lon="10.35"/><trkpt lat="-9.1278" lon="10.0"/><trkpt lat="-9.3459" lon="9.0"/><trkpt lat="-9.5469" lon="8.0"/><trkpt lat="-9.7165" lon="7.0"/><trkpt lat="-9.8726" lon="6.0"/><trkpt lat="-9.9919" lon="5.0"/><trkpt lat="-9.9987" lon="4.94"/><trkpt lat="-10.0856" lon="4.0"/><trkpt lat="-10.1572" lon="3.0"/><trkpt lat="-10.2075" lon="2.0"/><trkpt lat="-10.2468" lon="1.0"/><trkpt lat="-10.2605" lon="0.0"/><trkpt lat="-10.239" lon="-1.0"/><trkpt lat="-10.2308" lon="-2.0"/><trkpt lat="-10.1332" lon="-3.0"/><trkpt lat="-10.0632" lon="-4.0"/></trkseg></trk>
</gpx>
