<?xml version="1.0" encoding="UTF-8"?>
<gpx version="1.1" creator="https://occult.alokm.com" xmlns="http://www.topografix.com/GPX/1/1">
<metadata><name>The Moon occults Mars — 2026-10-05 — graze limits</name></metadata>
<trk><name>south graze limit</name><trkseg><trkpt lat="36.9287" lon="107.71"/><trkpt lat="37.2472" lon="107.0"/><trkpt lat="37.7008" lon="106.0"/><trkpt lat="37.9288" lon="105.52"/><trkpt lat="38.1815" lon="105.0"/><trkpt lat="38.6827" lon="104.0"/><trkpt lat="38.9327" lon="103.51"/><trkpt lat="39.1956" lon="103.0"/><trkpt lat="39.7414" lon="102.0"/><trkpt lat="39.9328" lon="101.66"/><trkpt lat="40.3134" lon="101.0"/><trkpt lat="40.888" lon="100.0"/><trkpt lat="40.9299" lon="99.93"/><trkpt lat="41.4998" lon="99.0"/><trkpt lat="41.927" lon="98.32"/><trkpt lat="42.1315" lon="98.0"/><trkpt lat="42.7828" lon="97.0"/><trkpt lat="42.9163" lon="96.8"/><trkpt lat="43.4599" lon="96.0"/><trkpt lat="43.8949" lon="95.37"/><trkpt lat="44.1583" lon="95.0"/><trkpt lat="44.8777" lon="94.02"/><trkpt lat="44.8928" lon="94.0"/><trkpt lat="45.6633" lon="93.0"/><trkpt lat="45.8752" lon="92.73"/><trkpt lat="46.4603" lon="92.0"/><trkpt lat="46.8672" lon="91.5"/><trkpt lat="47.2797" lon="91.0"/><trkpt lat="47.8559" lon="90.32"/><trkpt lat="48.1312" lon="90.0"/><trkpt lat="48.8444" lon="89.19"/><trkpt lat="49.0145" lon="89.0"/><trkpt lat="49.8363" lon="88.1"/><trkpt lat="49.9285" lon="88.0"/><trkpt lat="50.8346" lon="87.04"/><trkpt lat="50.873" lon="87.0"/><trkpt lat="51.8258" lon="86.02"/><trkpt lat="51.8455" lon="86.0"/><trkpt lat="52.8238" lon="85.02"/><trkpt lat="52.844" lon="85.0"/><trkpt lat="53.8258" lon="84.04"/><trkpt lat="53.8671" lon="84.0"/><trkpt lat="54.8178" lon="83.09"/><trkpt lat="54.9135" lon="83.0"/><trkpt lat="55.8201" lon="82.15"/><trkpt lat="55.9834" lon="82.0"/><trkpt lat="56.8393" lon="81.21"/><trkpt lat="57.0657" lon="81.0"/><trkpt lat="57.8345" lon="80.29"/><trkpt lat="58.1484" lon="80.0"/><trkpt lat="58.8316" lon="79.37"/><trkpt lat="59.2404" lon="79.0"/><trkpt lat="59.8475" lon="78.45"/><trkpt lat="60.3452" lon="78.0"/><trkpt lat="60.8607" lon="77.53"/><trkpt lat="61.4402" lon="77.0"/><trkpt lat="61.8813" lon="76.59"/><trkpt lat="62.5112" lon="76.0"/><trkpt lat="62.8936" lon="75.64"/><trkpt lat="63.5508" lon="75.0"/><trkpt lat="63.8805" lon="74.68"/><trkpt lat="64.5779" lon="74.0"/><trkpt lat="64.8823" lon="73.69"/><trkpt lat="65.5493" lon="73.0"/><trkpt lat="65.8762" lon="72.66"/><trkpt lat="66.5136" lon="72.0"/><trkpt lat="66.8735" lon="71.61"/><trkpt lat="67.4252" lon="71.0"/><trkpt lat="67.8698" lon="70.5"/><trkpt lat="68.3143" lon="70.0"/><trkpt lat="68.8649" lon="69.34"/><trkpt lat="69.1529" lon="69.0"/><trkpt lat="69.8829" lon="68.11"/><trkpt lat="69.9746" lon="68.0"/><trkpt lat="70.7647" lon="67.0"/><trkpt lat="70.9083" lon="66.81"/><trkpt lat="71.5217" lon="66.0"/><trkpt lat="71.936" lon="65.41"/><trkpt lat="72.2117" lon="65.0"/><trkpt lat="72.8861" lon="64.0"/><trkpt lat="72.9581" lon="63.89"/><trkpt lat="73.5026" lon="63.0"/><trkpt lat="73.9539" lon="62.23"/><trkpt lat="74.0843" lon="62.0"/><trkpt lat="74.6331" lon="61.0"/><trkpt lat="74.9428" lon="60.4"/><trkpt lat="75.1444" lon="60.0"/><trkpt lat="75.6484" lon="59.0"/><trkpt lat="75.9643" lon="58.35"/><trkpt lat="76.1283" lon="58.0"/><trkpt lat="76.5996" lon="57.0"/><trkpt lat="77.0077" lon="56.03"/><trkpt lat="77.0197" lon="56.0"/><trkpt lat="77.4197" lon="55.0"/><trkpt lat="77.7912" lon="54.0"/><trkpt lat="78.0216" lon="53.35"/><trkpt lat="78.1456" lon="53.0"/><trkpt lat="78.4837" lon="52.0"/><trkpt lat="78.7981" lon="51.0"/><trkpt lat="79.0399" lon="50.21"/><trkpt lat="79.1029" lon="50.0"/><trkpt lat="79.3856" lon="49.0"/><trkpt lat="79.6461" lon="48.0"/><trkpt lat="79.8964" lon="47.0"/><trkpt lat="80.0341" lon="46.43"/></trkseg></trk>
<trk><name>south graze limit</name><trkseg><trkpt lat="80.028" lon="-77.45"/><trkpt lat="79.9028" lon="-78.0"/><trkpt lat="79.6692" lon="-79.0"/><trkpt lat="79.4183" lon="-80.0"/><trkpt lat="79.1557" lon="-81.0"/><trkpt lat="79.0231" lon="-81.48"/><trkpt lat="78.8802" lon="-82.0"/><trkpt lat="78.5982" lon="-83.0"/><trkpt lat="78.3086" lon="-84.0"/><trkpt lat="78.029" lon="-84.89"/><trkpt lat="77.9944" lon="-85.0"/><trkpt lat="77.6628" lon="-86.0"/><trkpt lat="77.322" lon="-87.0"/><trkpt lat="77.0191" lon="-87.85"/><trkpt lat="76.9638" lon="-88.0"/><trkpt lat="76.5943" lon="-89.0"/><trkpt lat="76.2085" lon="-90.0"/><trkpt lat="76.0164" lon="-90.48"/><trkpt lat="75.808" lon="-91.0"/><trkpt lat="75.3869" lon="-92.0"/><trkpt lat="75.0144" lon="-92.86"/><trkpt lat="74.9526" lon="-93.0"/><trkpt lat="74.5038" lon="-94.0"/><trkpt lat="74.0351" lon="-95.0"/><trkpt lat="74.0114" lon="-95.05"/><trkpt lat="73.5499" lon="-96.0"/><trkpt lat="73.0533" lon="-97.0"/><trkpt lat="73.0085" lon="-97.09"/><trkpt lat="72.5437" lon="-98.0"/><trkpt lat="72.0168" lon="-99.0"/><trkpt lat="72.0114" lon="-99.01"/><trkpt lat="71.4656" lon="-100.0"/><trkpt lat="71.0026" lon="-100.83"/><trkpt lat="70.9071" lon="-101.0"/><trkpt lat="70.3266" lon="-102.0"/><trkpt lat="69.9876" lon="-102.58"/><trkpt lat="69.741" lon="-103.0"/><trkpt lat="69.15" lon="-104.0"/><trkpt lat="68.9878" lon="-104.27"/><trkpt lat="68.5422" lon="-105.0"/><trkpt lat="67.9772" lon="-105.92"/><trkpt lat="67.9278" lon="-106.0"/></trkseg></trk>
</gpx>
