<?xml version="1.0" encoding="UTF-8"?>
<kml xmlns="http://www.opengis.net/kml/2.2"><Document><name>The Moon occults Mars — 2026-10-05</name>
<description>Graze limits and visibility from https://occult.alokm.com/mars-2026-10-05. Solid limits are traced against the real lunar limb (LRO LOLA); the dotted line is the mean-sphere limit. Times in the city placemarks are UTC, real limb.</description>
<Style id="exact"><LineStyle><color>ff06b6d9</color><width>4</width></LineStyle></Style>
<Style id="mean"><LineStyle><color>8006b6d9</color><width>2</width></LineStyle></Style>
<Style id="region"><LineStyle><color>80e6c07d</color><width>1</width></LineStyle><PolyStyle><color>3fe6c07d</color></PolyStyle></Style>
<Style id="night"><LineStyle><width>0</width></LineStyle><PolyStyle><color>3fed3ac4</color></PolyStyle></Style>
<Style id="city"><IconStyle><scale>0.8</scale></IconStyle></Style>
<Folder><name>Graze limits (real lunar limb)</name>
<Placemark><name>south limit — real limb</name><styleUrl>#exact</styleUrl><LineString><tessellate>1</tessellate><coordinates>107.71,36.9287,0 107.0,37.2472,0 106.0,37.7008,0 105.52,37.9288,0 105.0,38.1815,0 104.0,38.6827,0 103.51,38.9327,0 103.0,39.1956,0 102.0,39.7414,0 101.66,39.9328,0 101.0,40.3134,0 100.0,40.888,0 99.93,40.9299,0 99.0,41.4998,0 98.32,41.927,0 98.0,42.1315,0 97.0,42.7828,0 96.8,42.9163,0 96.0,43.4599,0 95.37,43.8949,0 95.0,44.1583,0 94.02,44.8777,0 94.0,44.8928,0 93.0,45.6633,0 92.73,45.8752,0 92.0,46.4603,0 91.5,46.8672,0 91.0,47.2797,0 90.32,47.8559,0 90.0,48.1312,0 89.19,48.8444,0 89.0,49.0145,0 88.1,49.8363,0 88.0,49.9285,0 87.04,50.8346,0 87.0,50.873,0 86.02,51.8258,0 86.0,51.8455,0 85.02,52.8238,0 85.0,52.844,0 84.04,53.8258,0 84.0,53.8671,0 83.09,54.8178,0 83.0,54.9135,0 82.15,55.8201,0 82.0,55.9834,0 81.21,56.8393,0 81.0,57.0657,0 80.29,57.8345,0 80.0,58.1484,0 79.37,58.8316,0 79.0,59.2404,0 78.45,59.8475,0 78.0,60.3452,0 77.53,60.8607,0 77.0,61.4402,0 76.59,61.8813,0 76.0,62.5112,0 75.64,62.8936,0 75.0,63.5508,0 74.68,63.8805,0 74.0,64.5779,0 73.69,64.8823,0 73.0,65.5493,0 72.66,65.8762,0 72.0,66.5136,0 71.61,66.8735,0 71.0,67.4252,0 70.5,67.8698,0 70.0,68.3143,0 69.34,68.8649,0 69.0,69.1529,0 68.11,69.8829,0 68.0,69.9746,0 67.0,70.7647,0 66.81,70.9083,0 66.0,71.5217,0 65.41,71.936,0 65.0,72.2117,0 64.0,72.8861,0 63.89,72.9581,0 63.0,73.5026,0 62.23,73.9539,0 62.0,74.0843,0 61.0,74.6331,0 60.4,74.9428,0 60.0,75.1444,0 59.0,75.6484,0 58.35,75.9643,0 58.0,76.1283,0 57.0,76.5996,0 56.03,77.0077,0 56.0,77.0197,0 55.0,77.4197,0 54.0,77.7912,0 53.35,78.0216,0 53.0,78.1456,0 52.0,78.4837,0 51.0,78.7981,0 50.21,79.0399,0 50.0,79.1029,0 49.0,79.3856,0 48.0,79.6461,0 47.0,79.8964,0 46.43,80.0341,0</coordinates></LineString></Placemark>
<Placemark><name>south limit — real limb</name><styleUrl>#exact</styleUrl><LineString><tessellate>1</tessellate><coordinates>-77.45,80.028,0 -78.0,79.9028,0 -79.0,79.6692,0 -80.0,79.4183,0 -81.0,79.1557,0 -81.48,79.0231,0 -82.0,78.8802,0 -83.0,78.5982,0 -84.0,78.3086,0 -84.89,78.029,0 -85.0,77.9944,0 -86.0,77.6628,0 -87.0,77.322,0 -87.85,77.0191,0 -88.0,76.9638,0 -89.0,76.5943,0 -90.0,76.2085,0 -90.48,76.0164,0 -91.0,75.808,0 -92.0,75.3869,0 -92.86,75.0144,0 -93.0,74.9526,0 -94.0,74.5038,0 -95.0,74.0351,0 -95.05,74.0114,0 -96.0,73.5499,0 -97.0,73.0533,0 -97.09,73.0085,0 -98.0,72.5437,0 -99.0,72.0168,0 -99.01,72.0114,0 -100.0,71.4656,0 -100.83,71.0026,0 -101.0,70.9071,0 -102.0,70.3266,0 -102.58,69.9876,0 -103.0,69.741,0 -104.0,69.15,0 -104.27,68.9878,0 -105.0,68.5422,0 -105.92,67.9772,0 -106.0,67.9278,0</coordinates></LineString></Placemark>
</Folder><Folder><name>Mean-sphere limits</name>
<Placemark><name>south limit — mean sphere</name><styleUrl>#mean</styleUrl><LineString><tessellate>1</tessellate><coordinates>107.71,37.0,0 107.0,37.32,0 106.0,37.78,0 105.52,38.0,0 105.0,38.25,0 104.0,38.75,0 103.51,39.0,0 103.0,39.27,0 102.0,39.81,0 101.66,40.0,0 101.0,40.38,0 100.0,40.96,0 99.93,41.0,0 99.0,41.57,0 98.32,42.0,0 98.0,42.21,0 97.0,42.87,0 96.8,43.0,0 96.0,43.56,0 95.37,44.0,0 95.0,44.27,0 94.02,45.0,0 94.0,45.01,0 93.0,45.79,0 92.73,46.0,0 92.0,46.59,0 91.5,47.0,0 91.0,47.42,0 90.32,48.0,0 90.0,48.28,0 89.19,49.0,0 89.0,49.17,0 88.1,50.0,0 88.0,50.09,0 87.04,51.0,0 87.0,51.04,0 86.02,52.0,0 86.0,52.02,0 85.02,53.0,0 85.0,53.02,0 84.04,54.0,0 84.0,54.04,0 83.09,55.0,0 83.0,55.09,0 82.15,56.0,0 82.0,56.16,0 81.21,57.0,0 81.0,57.23,0 80.29,58.0,0 80.0,58.32,0 79.37,59.0,0 79.0,59.41,0 78.45,60.0,0 78.0,60.49,0 77.53,61.0,0 77.0,61.57,0 76.59,62.0,0 76.0,62.63,0 75.64,63.0,0 75.0,63.67,0 74.68,64.0,0 74.0,64.69,0 73.69,65.0,0 73.0,65.68,0 72.66,66.0,0 72.0,66.64,0 71.61,67.0,0 71.0,67.56,0 70.5,68.0,0 70.0,68.44,0 69.34,69.0,0 69.0,69.29,0 68.11,70.0,0 68.0,70.09,0 67.0,70.86,0 66.81,71.0,0 66.0,71.59,0 65.41,72.0,0 65.0,72.28,0 64.0,72.93,0 63.89,73.0,0 63.0,73.55,0 62.23,74.0,0 62.0,74.13,0 61.0,74.69,0 60.4,75.0,0 60.0,75.21,0 59.0,75.7,0 58.35,76.0,0 58.0,76.16,0 57.0,76.6,0 56.03,77.0,0 56.0,77.01,0 55.0,77.41,0 54.0,77.77,0 53.35,78.0,0 53.0,78.12,0 52.0,78.46,0 51.0,78.77,0 50.21,79.0,0 50.0,79.06,0 49.0,79.35,0 48.0,79.61,0 47.0,79.86,0 46.43,80.0,0</coordinates></LineString></Placemark>
<Placemark><name>south limit — mean sphere</name><styleUrl>#mean</styleUrl><LineString><tessellate>1</tessellate><coordinates>-77.45,80.0,0 -78.0,79.88,0 -79.0,79.64,0 -80.0,79.39,0 -81.0,79.13,0 -81.48,79.0,0 -82.0,78.86,0 -83.0,78.58,0 -84.0,78.28,0 -84.89,78.0,0 -85.0,77.96,0 -86.0,77.64,0 -87.0,77.3,0 -87.85,77.0,0 -88.0,76.95,0 -89.0,76.58,0 -90.0,76.19,0 -90.48,76.0,0 -91.0,75.79,0 -92.0,75.38,0 -92.86,75.0,0 -93.0,74.94,0 -94.0,74.5,0 -95.0,74.03,0 -95.05,74.0,0 -96.0,73.55,0 -97.0,73.05,0 -97.09,73.0,0 -98.0,72.54,0 -99.0,72.0,0 -99.01,72.0,0 -100.0,71.47,0 -100.83,71.0,0 -101.0,70.91,0 -102.0,70.34,0 -102.58,70.0,0 -103.0,69.76,0 -104.0,69.17,0 -104.27,69.0,0 -105.0,68.57,0 -105.92,68.0,0 -106.0,67.95,0</coordinates></LineString></Placemark>
</Folder><Folder><name>Visibility</name>
<Placemark><name>sees the occultation</name><styleUrl>#region</styleUrl><Polygon><outerBoundaryIs><LinearRing><coordinates>110.16,36.0,0 111.0,35.87,0 112.0,35.91,0 112.12,36.0,0 113.0,36.56,0 114.0,36.82,0 114.62,37.0,0 115.0,37.23,0 116.0,37.98,0 116.04,38.0,0 117.0,38.38,0 117.63,39.0,0 118.0,39.34,0 119.0,39.74,0 119.24,40.0,0 120.0,40.76,0 120.55,41.0,0 121.0,41.2,0 122.0,41.65,0 122.31,42.0,0 123.0,42.73,0 123.59,43.0,0 124.0,43.19,0 124.72,44.0,0 125.0,44.19,0 126.0,44.79,0 126.44,45.0,0 127.0,45.28,0 128.0,45.87,0 128.19,46.0,0 129.0,46.92,0 129.16,47.0,0 130.0,47.43,0 131.0,47.94,0 131.12,48.0,0 132.0,48.46,0 132.45,49.0,0 133.0,49.4,0 133.86,50.0,0 134.0,50.1,0 135.0,50.7,0 135.57,51.0,0 136.0,51.14,0 137.0,51.76,0 137.44,52.0,0 138.0,52.3,0 139.0,52.84,0 139.29,53.0,0 140.0,53.39,0 141.0,53.96,0 141.12,54.0,0 142.0,54.49,0 142.93,55.0,0 143.0,55.02,0 144.0,55.36,0 144.88,56.0,0 145.0,56.09,0 146.0,56.43,0 147.0,56.76,0 147.33,57.0,0 148.0,57.5,0 149.0,57.83,0 149.5,58.0,0 150.0,58.17,0 151.0,58.66,0 151.66,59.0,0 152.0,59.19,0 153.0,59.6,0 154.0,59.93,0 154.2,60.0,0 155.0,60.2,0 156.0,60.73,0 157.0,60.97,0 157.13,61.0,0 158.0,61.22,0 159.0,61.75,0 160.0,61.99,0 160.04,62.0,0 161.0,62.24,0 162.0,62.61,0 162.96,63.0,0 163.0,63.02,0 164.0,63.22,0 165.0,63.52,0 166.0,63.82,0 166.99,64.0,0 167.0,64.0,0 168.0,64.37,0 169.0,64.63,0 170.0,64.81,0 171.0,65.0,0 171.01,65.0,0 172.0,65.37,0 173.0,65.52,0 174.0,65.67,0 175.0,66.0,0 175.0,66.0,0 176.0,66.16,0 177.0,66.3,0 178.0,66.58,0 179.0,66.71,0 180.0,66.83,0 180.0,67.0,0 180.0,68.0,0 180.0,69.0,0 180.0,70.0,0 180.0,71.0,0 180.0,72.0,0 180.0,73.0,0 180.0,74.0,0 180.0,75.0,0 180.0,76.0,0 180.0,77.0,0 180.0,78.0,0 180.0,79.0,0 180.0,80.0,0 179.0,80.0,0 178.0,80.0,0 177.0,80.0,0 176.0,80.0,0 175.0,80.0,0 174.0,80.0,0 173.0,80.0,0 172.0,80.0,0 171.0,80.0,0 170.0,80.0,0 169.0,80.0,0 168.0,80.0,0 167.0,80.0,0 166.0,80.0,0 165.0,80.0,0 164.0,80.0,0 163.0,80.0,0 162.0,80.0,0 161.0,80.0,0 160.0,80.0,0 159.0,80.0,0 158.0,80.0,0 157.0,80.0,0 156.0,80.0,0 155.0,80.0,0 154.0,80.0,0 153.0,80.0,0 152.0,80.0,0 151.0,80.0,0 150.0,80.0,0 149.0,80.0,0 148.0,80.0,0 147.0,80.0,0 146.0,80.0,0 145.0,80.0,0 144.0,80.0,0 143.0,80.0,0 142.0,80.0,0 141.0,80.0,0 140.0,80.0,0 139.0,80.0,0 138.0,80.0,0 137.0,80.0,0 136.0,80.0,0 135.0,80.0,0 134.0,80.0,0 133.0,80.0,0 132.0,80.0,0 131.0,80.0,0 130.0,80.0,0 129.0,80.0,0 128.0,80.0,0 127.0,80.0,0 126.0,80.0,0 125.0,80.0,0 124.0,80.0,0 123.0,80.0,0 122.0,80.0,0 121.0,80.0,0 120.0,80.0,0 119.0,80.0,0 118.0,80.0,0 117.0,80.0,0 116.0,80.0,0 115.0,80.0,0 114.0,80.0,0 113.0,80.0,0 112.0,80.0,0 111.0,80.0,0 110.0,80.0,0 109.0,80.0,0 108.0,80.0,0 107.0,80.0,0 106.0,80.0,0 105.0,80.0,0 104.0,80.0,0 103.0,80.0,0 102.0,80.0,0 101.0,80.0,0 100.0,80.0,0 99.0,80.0,0 98.0,80.0,0 97.0,80.0,0 96.0,80.0,0 95.0,80.0,0 94.0,80.0,0 93.0,80.0,0 92.0,80.0,0 91.0,80.0,0 90.0,80.0,0 89.0,80.0,0 88.0,80.0,0 87.0,80.0,0 86.0,80.0,0 85.0,80.0,0 84.0,80.0,0 83.0,80.0,0 82.0,80.0,0 81.0,80.0,0 80.0,80.0,0 79.0,80.0,0 78.0,80.0,0 77.0,80.0,0 76.0,80.0,0 75.0,80.0,0 74.0,80.0,0 73.0,80.0,0 72.0,80.0,0 71.0,80.0,0 70.0,80.0,0 69.0,80.0,0 68.0,80.0,0 67.0,80.0,0 66.0,80.0,0 65.0,80.0,0 64.0,80.0,0 63.0,80.0,0 62.0,80.0,0 61.0,80.0,0 60.0,80.0,0 59.0,80.0,0 58.0,80.0,0 57.0,80.0,0 56.0,80.0,0 55.0,80.0,0 54.0,80.0,0 53.0,80.0,0 52.0,80.0,0 51.0,80.0,0 50.0,80.0,0 49.0,80.0,0 48.0,80.0,0 47.0,80.0,0 46.43,80.0,0 47.0,79.86,0 48.0,79.61,0 49.0,79.35,0 50.0,79.06,0 50.21,79.0,0 51.0,78.77,0 52.0,78.46,0 53.0,78.12,0 53.35,78.0,0 54.0,77.77,0 55.0,77.41,0 56.0,77.01,0 56.03,77.0,0 57.0,76.6,0 58.0,76.16,0 58.35,76.0,0 59.0,75.7,0 60.0,75.21,0 60.4,75.0,0 61.0,74.69,0 62.0,74.13,0 62.23,74.0,0 63.0,73.55,0 63.89,73.0,0 64.0,72.93,0 65.0,72.28,0 65.41,72.0,0 66.0,71.59,0 66.81,71.0,0 67.0,70.86,0 68.0,70.09,0 68.11,70.0,0 69.0,69.29,0 69.34,69.0,0 70.0,68.44,0 70.5,68.0,0 71.0,67.56,0 71.61,67.0,0 72.0,66.64,0 72.66,66.0,0 73.0,65.68,0 73.69,65.0,0 74.0,64.69,0 74.68,64.0,0 75.0,63.67,0 75.64,63.0,0 76.0,62.63,0 76.59,62.0,0 77.0,61.57,0 77.53,61.0,0 78.0,60.49,0 78.45,60.0,0 79.0,59.41,0 79.37,59.0,0 80.0,58.32,0 80.29,58.0,0 81.0,57.23,0 81.21,57.0,0 82.0,56.16,0 82.15,56.0,0 83.0,55.09,0 83.09,55.0,0 84.0,54.04,0 84.04,54.0,0 85.0,53.02,0 85.02,53.0,0 86.0,52.02,0 86.02,52.0,0 87.0,51.04,0 87.04,51.0,0 88.0,50.09,0 88.1,50.0,0 89.0,49.17,0 89.19,49.0,0 90.0,48.28,0 90.32,48.0,0 91.0,47.42,0 91.5,47.0,0 92.0,46.59,0 92.73,46.0,0 93.0,45.79,0 94.0,45.01,0 94.02,45.0,0 95.0,44.27,0 95.37,44.0,0 96.0,43.56,0 96.8,43.0,0 97.0,42.87,0 98.0,42.21,0 98.32,42.0,0 99.0,41.57,0 99.93,41.0,0 100.0,40.96,0 101.0,40.38,0 101.66,40.0,0 102.0,39.81,0 103.0,39.27,0 103.51,39.0,0 104.0,38.75,0 105.0,38.25,0 105.52,38.0,0 106.0,37.78,0 107.0,37.32,0 107.71,37.0,0 108.0,36.88,0 109.0,36.46,0 110.0,36.05,0 110.16,36.0,0</coordinates></LinearRing></outerBoundaryIs></Polygon></Placemark>
<Placemark><name>sees the occultation</name><styleUrl>#region</styleUrl><Polygon><outerBoundaryIs><LinearRing><coordinates>-115.12,66.0,0 -115.0,65.98,0 -114.0,65.93,0 -113.0,65.85,0 -112.0,65.86,0 -111.0,65.81,0 -110.0,65.87,0 -109.12,66.0,0 -109.0,66.08,0 -108.0,66.71,0 -107.53,67.0,0 -107.0,67.34,0 -106.0,67.95,0 -105.92,68.0,0 -105.0,68.57,0 -104.27,69.0,0 -104.0,69.17,0 -103.0,69.76,0 -102.58,70.0,0 -102.0,70.34,0 -101.0,70.91,0 -100.83,71.0,0 -100.0,71.47,0 -99.01,72.0,0 -99.0,72.0,0 -98.0,72.54,0 -97.09,73.0,0 -97.0,73.05,0 -96.0,73.55,0 -95.05,74.0,0 -95.0,74.03,0 -94.0,74.5,0 -93.0,74.94,0 -92.86,75.0,0 -92.0,75.38,0 -91.0,75.79,0 -90.48,76.0,0 -90.0,76.19,0 -89.0,76.58,0 -88.0,76.95,0 -87.85,77.0,0 -87.0,77.3,0 -86.0,77.64,0 -85.0,77.96,0 -84.89,78.0,0 -84.0,78.28,0 -83.0,78.58,0 -82.0,78.86,0 -81.48,79.0,0 -81.0,79.13,0 -80.0,79.39,0 -79.0,79.64,0 -78.0,79.88,0 -77.45,80.0,0 -78.0,80.0,0 -79.0,80.0,0 -80.0,80.0,0 -81.0,80.0,0 -82.0,80.0,0 -83.0,80.0,0 -84.0,80.0,0 -85.0,80.0,0 -86.0,80.0,0 -87.0,80.0,0 -88.0,80.0,0 -89.0,80.0,0 -90.0,80.0,0 -91.0,80.0,0 -92.0,80.0,0 -93.0,80.0,0 -94.0,80.0,0 -95.0,80.0,0 -96.0,80.0,0 -97.0,80.0,0 -98.0,80.0,0 -99.0,80.0,0 -100.0,80.0,0 -101.0,80.0,0 -102.0,80.0,0 -103.0,80.0,0 -104.0,80.0,0 -105.0,80.0,0 -106.0,80.0,0 -107.0,80.0,0 -108.0,80.0,0 -109.0,80.0,0 -110.0,80.0,0 -111.0,80.0,0 -112.0,80.0,0 -113.0,80.0,0 -114.0,80.0,0 -115.0,80.0,0 -116.0,80.0,0 -117.0,80.0,0 -118.0,80.0,0 -119.0,80.0,0 -120.0,80.0,0 -121.0,80.0,0 -122.0,80.0,0 -123.0,80.0,0 -124.0,80.0,0 -125.0,80.0,0 -126.0,80.0,0 -127.0,80.0,0 -128.0,80.0,0 -129.0,80.0,0 -130.0,80.0,0 -131.0,80.0,0 -132.0,80.0,0 -133.0,80.0,0 -134.0,80.0,0 -135.0,80.0,0 -136.0,80.0,0 -137.0,80.0,0 -138.0,80.0,0 -139.0,80.0,0 -140.0,80.0,0 -141.0,80.0,0 -142.0,80.0,0 -143.0,80.0,0 -144.0,80.0,0 -145.0,80.0,0 -146.0,80.0,0 -147.0,80.0,0 -148.0,80.0,0 -149.0,80.0,0 -150.0,80.0,0 -151.0,80.0,0 -152.0,80.0,0 -153.0,80.0,0 -154.0,80.0,0 -155.0,80.0,0 -156.0,80.0,0 -157.0,80.0,0 -158.0,80.0,0 -159.0,80.0,0 -160.0,80.0,0 -161.0,80.0,0 -162.0,80.0,0 -163.0,80.0,0 -164.0,80.0,0 -165.0,80.0,0 -166.0,80.0,0 -167.0,80.0,0 -168.0,80.0,0 -169.0,80.0,0 -170.0,80.0,0 -171.0,80.0,0 -172.0,80.0,0 -173.0,80.0,0 -174.0,80.0,0 -175.0,80.0,0 -176.0,80.0,0 -177.0,80.0,0 -178.0,80.0,0 -179.0,80.0,0 -180.0,80.0,0 -180.0,79.0,0 -180.0,78.0,0 -180.0,77.0,0 -180.0,76.0,0 -180.0,75.0,0 -180.0,74.0,0 -180.0,73.0,0 -180.0,72.0,0 -180.0,71.0,0 -180.0,70.0,0 -180.0,69.0,0 -180.0,68.0,0 -180.0,67.0,0 -180.0,66.83,0 -179.0,66.96,0 -178.85,67.0,0 -178.0,67.25,0 -177.0,67.35,0 -176.0,67.48,0 -175.0,67.65,0 -174.0,67.74,0 -173.0,67.94,0 -172.41,68.0,0 -172.0,68.07,0 -171.0,68.2,0 -170.0,68.31,0 -169.0,68.47,0 -168.0,68.52,0 -167.0,68.58,0 -166.0,68.64,0 -165.0,68.72,0 -164.0,68.83,0 -163.0,68.9,0 -162.0,68.97,0 -161.52,69.0,0 -161.0,69.09,0 -160.0,69.23,0 -159.0,69.43,0 -158.0,69.5,0 -157.0,69.55,0 -156.0,69.59,0 -155.0,69.63,0 -154.0,69.66,0 -153.0,69.72,0 -152.0,69.74,0 -151.0,69.76,0 -150.0,69.77,0 -149.0,69.79,0 -148.0,69.78,0 -147.0,69.77,0 -146.0,69.73,0 -145.0,69.69,0 -144.0,69.67,0 -143.0,69.6,0 -142.0,69.48,0 -141.0,69.41,0 -140.0,69.15,0 -139.21,69.0,0 -139.0,68.99,0 -138.0,68.89,0 -137.0,68.82,0 -136.0,68.77,0 -135.0,68.75,0 -134.0,68.7,0 -133.0,68.67,0 -132.0,68.58,0 -131.0,68.53,0 -130.0,68.31,0 -129.0,68.16,0 -128.65,68.0,0 -128.0,67.91,0 -127.0,67.83,0 -126.0,67.74,0 -125.0,67.65,0 -124.0,67.6,0 -123.0,67.41,0 -122.0,67.27,0 -121.44,67.0,0 -121.0,66.92,0 -120.0,66.86,0 -119.0,66.77,0 -118.0,66.7,0 -117.0,66.55,0 -116.0,66.46,0 -115.12,66.0,0</coordinates></LinearRing></outerBoundaryIs></Polygon></Placemark>
<Placemark><name>after sunset</name><styleUrl>#night</styleUrl><Polygon><outerBoundaryIs><LinearRing><coordinates>-115.12,66.0,0 -115.0,65.98,0 -114.0,65.93,0 -113.0,65.85,0 -112.0,65.86,0 -111.0,65.81,0 -110.0,65.87,0 -109.12,66.0,0 -109.0,66.08,0 -108.0,66.71,0 -107.53,67.0,0 -107.0,67.34,0 -106.0,67.95,0 -105.92,68.0,0 -105.0,68.57,0 -104.27,69.0,0 -104.0,69.17,0 -103.0,69.76,0 -102.58,70.0,0 -102.0,70.34,0 -101.0,70.91,0 -100.83,71.0,0 -100.0,71.47,0 -99.01,72.0,0 -99.0,72.0,0 -98.0,72.54,0 -97.09,73.0,0 -97.0,73.05,0 -96.0,73.55,0 -95.05,74.0,0 -95.0,74.03,0 -94.0,74.5,0 -93.0,74.94,0 -92.86,75.0,0 -92.0,75.38,0 -91.0,75.79,0 -90.48,76.0,0 -90.0,76.19,0 -89.0,76.58,0 -88.0,76.95,0 -87.85,77.0,0 -87.0,77.3,0 -86.0,77.64,0 -85.0,77.96,0 -84.89,78.0,0 -84.0,78.28,0 -83.0,78.58,0 -82.0,78.86,0 -81.48,79.0,0 -81.0,79.13,0 -80.0,79.39,0 -79.0,79.64,0 -78.0,79.88,0 -77.45,80.0,0 -78.0,80.0,0 -79.0,80.0,0 -80.0,80.0,0 -81.0,80.0,0 -82.0,80.0,0 -83.0,80.0,0 -84.0,80.0,0 -85.0,80.0,0 -86.0,80.0,0 -87.0,80.0,0 -88.0,80.0,0 -89.0,80.0,0 -90.0,80.0,0 -91.0,80.0,0 -92.0,80.0,0 -93.0,80.0,0 -94.0,80.0,0 -95.0,80.0,0 -96.0,80.0,0 -97.0,80.0,0 -98.0,80.0,0 -99.0,80.0,0 -100.0,80.0,0 -101.0,80.0,0 -102.0,80.0,0 -103.0,80.0,0 -104.0,80.0,0 -105.0,80.0,0 -106.0,80.0,0 -107.0,80.0,0 -108.0,80.0,0 -109.0,80.0,0 -110.0,80.0,0 -111.0,80.0,0 -112.0,80.0,0 -113.0,80.0,0 -114.0,80.0,0 -115.0,80.0,0 -116.0,80.0,0 -117.0,80.0,0 -118.0,80.0,0 -119.0,80.0,0 -120.0,80.0,0 -121.0,80.0,0 -122.0,80.0,0 -123.0,80.0,0 -124.0,80.0,0 -125.0,80.0,0 -126.0,80.0,0 -127.0,80.0,0 -128.0,80.0,0 -129.0,80.0,0 -130.0,80.0,0 -131.0,80.0,0 -132.0,80.0,0 -133.0,80.0,0 -134.0,80.0,0 -135.0,80.0,0 -136.0,80.0,0 -137.0,80.0,0 -138.0,80.0,0 -139.0,80.0,0 -140.0,80.0,0 -141.0,80.0,0 -142.0,80.0,0 -143.0,80.0,0 -144.0,80.0,0 -145.0,80.0,0 -146.0,80.0,0 -147.0,80.0,0 -148.0,80.0,0 -149.0,80.0,0 -150.0,80.0,0 -151.0,80.0,0 -152.0,80.0,0 -153.0,80.0,0 -154.0,80.0,0 -155.0,80.0,0 -156.0,80.0,0 -157.0,80.0,0 -158.0,80.0,0 -159.0,80.0,0 -160.0,80.0,0 -161.0,80.0,0 -162.0,80.0,0 -163.0,80.0,0 -164.0,80.0,0 -165.0,80.0,0 -166.0,80.0,0 -167.0,80.0,0 -168.0,80.0,0 -169.0,80.0,0 -170.0,80.0,0 -171.0,80.0,0 -171.41,80.0,0 -172.0,79.03,0 -172.01,79.0,0 -172.51,78.0,0 -172.88,77.0,0 -173.0,76.8,0 -174.0,76.03,0 -174.03,76.0,0 -174.32,75.0,0 -174.52,74.0,0 -174.68,73.0,0 -174.96,72.0,0 -175.0,71.96,0 -175.8,71.0,0 -176.0,70.29,0 -176.04,70.0,0 -176.16,69.0,0 -176.0,68.93,0 -175.0,68.83,0 -174.0,68.81,0 -173.0,68.85,0 -172.0,68.83,0 -171.0,68.81,0 -170.0,68.78,0 -169.0,68.84,0 -168.0,68.82,0 -167.0,68.8,0 -166.0,68.78,0 -165.0,68.86,0 -164.0,68.9,0 -163.0,68.92,0 -162.0,68.97,0 -161.52,69.0,0 -161.0,69.09,0 -160.0,69.23,0 -159.0,69.43,0 -158.0,69.5,0 -157.0,69.55,0 -156.0,69.59,0 -155.0,69.63,0 -154.0,69.66,0 -153.0,69.72,0 -152.0,69.74,0 -151.0,69.76,0 -150.0,69.77,0 -149.0,69.79,0 -148.0,69.78,0 -147.0,69.77,0 -146.0,69.73,0 -145.0,69.69,0 -144.0,69.67,0 -143.0,69.6,0 -142.0,69.48,0 -141.0,69.41,0 -140.0,69.15,0 -139.21,69.0,0 -139.0,68.99,0 -138.0,68.89,0 -137.0,68.82,0 -136.0,68.77,0 -135.0,68.75,0 -134.0,68.7,0 -133.0,68.67,0 -132.0,68.58,0 -131.0,68.53,0 -130.0,68.31,0 -129.0,68.16,0 -128.65,68.0,0 -128.0,67.91,0 -127.0,67.83,0 -126.0,67.74,0 -125.0,67.65,0 -124.0,67.6,0 -123.0,67.41,0 -122.0,67.27,0 -121.44,67.0,0 -121.0,66.92,0 -120.0,66.86,0 -119.0,66.77,0 -118.0,66.7,0 -117.0,66.55,0 -116.0,66.46,0 -115.12,66.0,0</coordinates></LinearRing></outerBoundaryIs></Polygon></Placemark>
</Folder><Folder><name>Cities</name>
<Placemark><name>Beijing, CN</name><styleUrl>#city</styleUrl><description>D1 06:48:31 · D2 06:48:45 · R1 07:15:18 · R2 07:15:35 (UTC)</description><Point><coordinates>116.39723,39.9075,0</coordinates></Point></Placemark>
<Placemark><name>Kinshasa, CD</name><styleUrl>#city</styleUrl><description>near miss: Mars passes 70.8′ from the limb (UTC)</description><Point><coordinates>15.31357,-4.32758,0</coordinates></Point></Placemark>
<Placemark><name>Istanbul, TR</name><styleUrl>#city</styleUrl><description>near miss: Mars passes 27.1′ from the limb (UTC)</description><Point><coordinates>28.94966,41.01384,0</coordinates></Point></Placemark>
<Placemark><name>Lagos, NG</name><styleUrl>#city</styleUrl><description>near miss: Mars passes 69.1′ from the limb (UTC)</description><Point><coordinates>3.39467,6.45407,0</coordinates></Point></Placemark>
<Placemark><name>Chengdu, CN</name><styleUrl>#city</styleUrl><description>near miss: Mars passes 3.7′ from the limb (UTC)</description><Point><coordinates>104.06667,30.66667,0</coordinates></Point></Placemark>
<Placemark><name>Lahore, PK</name><styleUrl>#city</styleUrl><description>near miss: Mars passes 11.9′ from the limb (UTC)</description><Point><coordinates>74.35071,31.558,0</coordinates></Point></Placemark>
<Placemark><name>Mumbai, IN</name><styleUrl>#city</styleUrl><description>near miss: Mars passes 19.8′ from the limb (UTC)</description><Point><coordinates>72.88261,19.07283,0</coordinates></Point></Placemark>
<Placemark><name>Karachi, PK</name><styleUrl>#city</styleUrl><description>near miss: Mars passes 18.7′ from the limb (UTC)</description><Point><coordinates>67.0104,24.8608,0</coordinates></Point></Placemark>
<Placemark><name>Tianjin, CN</name><styleUrl>#city</styleUrl><description>D1 06:49:30 · D2 06:49:48 · R1 07:15:19 · R2 07:15:36 (UTC)</description><Point><coordinates>117.17667,39.14222,0</coordinates></Point></Placemark>
<Placemark><name>Delhi, IN</name><styleUrl>#city</styleUrl><description>near miss: Mars passes 12.4′ from the limb (UTC)</description><Point><coordinates>77.23149,28.65195,0</coordinates></Point></Placemark>
<Placemark><name>Moscow, RU</name><styleUrl>#city</styleUrl><description>near miss: Mars passes 13.6′ from the limb (UTC)</description><Point><coordinates>37.61781,55.75204,0</coordinates></Point></Placemark>
<Placemark><name>Dhaka, BD</name><styleUrl>#city</styleUrl><description>near miss: Mars passes 10.9′ from the limb (UTC)</description><Point><coordinates>90.40744,23.7104,0</coordinates></Point></Placemark>
<Placemark><name>Cairo, EG</name><styleUrl>#city</styleUrl><description>near miss: Mars passes 34.0′ from the limb (UTC)</description><Point><coordinates>31.24967,30.06263,0</coordinates></Point></Placemark>
<Placemark><name>Xi’an, CN</name><styleUrl>#city</styleUrl><description>near miss: Mars passes 1.0′ from the limb (UTC)</description><Point><coordinates>108.92861,34.25833,0</coordinates></Point></Placemark>
<Placemark><name>Johannesburg, ZA</name><styleUrl>#city</styleUrl><description>near miss: Mars passes 79.1′ from the limb (UTC)</description><Point><coordinates>28.04363,-26.20227,0</coordinates></Point></Placemark>
<Placemark><name>London, GB</name><styleUrl>#city</styleUrl><description>near miss: Mars passes 25.5′ from the limb (UTC)</description><Point><coordinates>-0.12574,51.50853,0</coordinates></Point></Placemark>
<Placemark><name>Bengaluru, IN</name><styleUrl>#city</styleUrl><description>near miss: Mars passes 22.3′ from the limb (UTC)</description><Point><coordinates>77.59369,12.97194,0</coordinates></Point></Placemark>
<Placemark><name>Baghdad, IQ</name><styleUrl>#city</styleUrl><description>near miss: Mars passes 24.7′ from the limb (UTC)</description><Point><coordinates>44.40088,33.34058,0</coordinates></Point></Placemark>
<Placemark><name>Wuzhong, CN</name><styleUrl>#city</styleUrl><description>D1 07:06:55 · D2 07:08:44 · R1 07:11:53 · R2 07:13:21 (UTC)</description><Point><coordinates>106.201,37.9867,0</coordinates></Point></Placemark>
<Placemark><name>Tehran, IR</name><styleUrl>#city</styleUrl><description>near miss: Mars passes 19.7′ from the limb (UTC)</description><Point><coordinates>51.42151,35.69439,0</coordinates></Point></Placemark>
<Placemark><name>Hyderabad, IN</name><styleUrl>#city</styleUrl><description>near miss: Mars passes 18.9′ from the limb (UTC)</description><Point><coordinates>78.45636,17.38405,0</coordinates></Point></Placemark>
<Placemark><name>Ahmedabad, IN</name><styleUrl>#city</styleUrl><description>near miss: Mars passes 17.4′ from the limb (UTC)</description><Point><coordinates>72.58727,23.02579,0</coordinates></Point></Placemark>
<Placemark><name>Abidjan, CI</name><styleUrl>#city</styleUrl><description>near miss: Mars passes 72.1′ from the limb (UTC)</description><Point><coordinates>-4.00167,5.35444,0</coordinates></Point></Placemark>
<Placemark><name>Dar es Salaam, TZ</name><styleUrl>#city</styleUrl><description>near miss: Mars passes 56.8′ from the limb (UTC)</description><Point><coordinates>39.26951,-6.82349,0</coordinates></Point></Placemark>
<Placemark><name>Saint Petersburg, RU</name><styleUrl>#city</styleUrl><description>near miss: Mars passes 12.9′ from the limb (UTC)</description><Point><coordinates>30.31413,59.93863,0</coordinates></Point></Placemark>
<Placemark><name>Alexandria, EG</name><styleUrl>#city</styleUrl><description>near miss: Mars passes 33.9′ from the limb (UTC)</description><Point><coordinates>29.91582,31.20176,0</coordinates></Point></Placemark>
<Placemark><name>Harbin, CN</name><styleUrl>#city</styleUrl><description>D1 06:29:49 · D2 06:30:00 · R1 07:07:07 · R2 07:07:18 (UTC)</description><Point><coordinates>126.65,45.75,0</coordinates></Point></Placemark>
<Placemark><name>Kano, NG</name><styleUrl>#city</styleUrl><description>near miss: Mars passes 61.8′ from the limb (UTC)</description><Point><coordinates>8.51672,12.00012,0</coordinates></Point></Placemark>
<Placemark><name>Cape Town, ZA</name><styleUrl>#city</styleUrl><description>near miss: Mars passes 90.0′ from the limb (UTC)</description><Point><coordinates>18.42322,-33.92584,0</coordinates></Point></Placemark>
<Placemark><name>Peshawar, PK</name><styleUrl>#city</styleUrl><description>near miss: Mars passes 11.7′ from the limb (UTC)</description><Point><coordinates>71.57849,34.008,0</coordinates></Point></Placemark>
<Placemark><name>Jeddah, SA</name><styleUrl>#city</styleUrl><description>near miss: Mars passes 35.5′ from the limb (UTC)</description><Point><coordinates>39.18624,21.49012,0</coordinates></Point></Placemark>
<Placemark><name>Chennai, IN</name><styleUrl>#city</styleUrl><description>near miss: Mars passes 21.2′ from the limb (UTC)</description><Point><coordinates>80.27847,13.08784,0</coordinates></Point></Placemark>
<Placemark><name>Kolkata, IN</name><styleUrl>#city</styleUrl><description>near miss: Mars passes 12.2′ from the limb (UTC)</description><Point><coordinates>88.36304,22.56263,0</coordinates></Point></Placemark>
<Placemark><name>Surat, IN</name><styleUrl>#city</styleUrl><description>near miss: Mars passes 18.5′ from the limb (UTC)</description><Point><coordinates>72.83023,21.19594,0</coordinates></Point></Placemark>
<Placemark><name>Kabul, AF</name><styleUrl>#city</styleUrl><description>near miss: Mars passes 12.4′ from the limb (UTC)</description><Point><coordinates>69.17233,34.52813,0</coordinates></Point></Placemark>
<Placemark><name>Nairobi, KE</name><styleUrl>#city</styleUrl><description>near miss: Mars passes 53.9′ from the limb (UTC)</description><Point><coordinates>36.81667,-1.28333,0</coordinates></Point></Placemark>
<Placemark><name>Giza, EG</name><styleUrl>#city</styleUrl><description>near miss: Mars passes 34.1′ from the limb (UTC)</description><Point><coordinates>31.20861,30.00944,0</coordinates></Point></Placemark>
<Placemark><name>Taiyuan, CN</name><styleUrl>#city</styleUrl><description>D1 06:57:22 · D2 06:57:48 · R1 07:15:59 · R2 07:16:24 (UTC)</description><Point><coordinates>112.56028,37.86944,0</coordinates></Point></Placemark>
<Placemark><name>Bamako, ML</name><styleUrl>#city</styleUrl><description>near miss: Mars passes 65.2′ from the limb (UTC)</description><Point><coordinates>-7.97522,12.60915,0</coordinates></Point></Placemark>
<Placemark><name>Riyadh, SA</name><styleUrl>#city</styleUrl><description>near miss: Mars passes 28.9′ from the limb (UTC)</description><Point><coordinates>46.72185,24.68773,0</coordinates></Point></Placemark>
<Placemark><name>Shijiazhuang, CN</name><styleUrl>#city</styleUrl><description>D1 06:54:53 · D2 06:55:14 · R1 07:15:56 · R2 07:16:18 (UTC)</description><Point><coordinates>114.47861,38.04139,0</coordinates></Point></Placemark>
<Placemark><name>Chattogram, BD</name><styleUrl>#city</styleUrl><description>near miss: Mars passes 11.4′ from the limb (UTC)</description><Point><coordinates>91.83168,22.3384,0</coordinates></Point></Placemark>
<Placemark><name>Addis Ababa, ET</name><styleUrl>#city</styleUrl><description>near miss: Mars passes 44.7′ from the limb (UTC)</description><Point><coordinates>38.74689,9.02497,0</coordinates></Point></Placemark>
<Placemark><name>Faisalabad, PK</name><styleUrl>#city</styleUrl><description>near miss: Mars passes 12.4′ from the limb (UTC)</description><Point><coordinates>73.08969,31.41554,0</coordinates></Point></Placemark>
<Placemark><name>Dubai, AE</name><styleUrl>#city</styleUrl><description>near miss: Mars passes 24.1′ from the limb (UTC)</description><Point><coordinates>55.30927,25.07725,0</coordinates></Point></Placemark>
<Placemark><name>Casablanca, MA</name><styleUrl>#city</styleUrl><description>near miss: Mars passes 43.7′ from the limb (UTC)</description><Point><coordinates>-7.61138,33.58831,0</coordinates></Point></Placemark>
<Placemark><name>Ibadan, NG</name><styleUrl>#city</styleUrl><description>near miss: Mars passes 68.0′ from the limb (UTC)</description><Point><coordinates>3.90591,7.37756,0</coordinates></Point></Placemark>
<Placemark><name>Ankara, TR</name><styleUrl>#city</styleUrl><description>near miss: Mars passes 26.1′ from the limb (UTC)</description><Point><coordinates>32.85427,39.91987,0</coordinates></Point></Placemark>
<Placemark><name>Berlin, DE</name><styleUrl>#city</styleUrl><description>near miss: Mars passes 22.6′ from the limb (UTC)</description><Point><coordinates>13.41053,52.52437,0</coordinates></Point></Placemark>
<Placemark><name>Tangshan, CN</name><styleUrl>#city</styleUrl><description>D1 06:47:36 · D2 06:47:53 · R1 07:14:51 · R2 07:15:05 (UTC)</description><Point><coordinates>118.18319,39.64381,0</coordinates></Point></Placemark>
<Placemark><name>Rawalpindi, PK</name><styleUrl>#city</styleUrl><description>near miss: Mars passes 11.3′ from the limb (UTC)</description><Point><coordinates>73.0479,33.59733,0</coordinates></Point></Placemark>
<Placemark><name>Lüliang, CN</name><styleUrl>#city</styleUrl><description>D1 07:00:13 · D2 07:00:44 · R1 07:15:38 · R2 07:16:09 (UTC)</description><Point><coordinates>111.14436,37.5192,0</coordinates></Point></Placemark>
<Placemark><name>Durban, ZA</name><styleUrl>#city</styleUrl><description>near miss: Mars passes 80.2′ from the limb (UTC)</description><Point><coordinates>31.0292,-29.8579,0</coordinates></Point></Placemark>
<Placemark><name>Madrid, ES</name><styleUrl>#city</styleUrl><description>near miss: Mars passes 36.6′ from the limb (UTC)</description><Point><coordinates>-3.70256,40.4165,0</coordinates></Point></Placemark>
<Placemark><name>Pune, IN</name><styleUrl>#city</styleUrl><description>near miss: Mars passes 19.8′ from the limb (UTC)</description><Point><coordinates>73.85535,18.51957,0</coordinates></Point></Placemark>
<Placemark><name>Bursa, TR</name><styleUrl>#city</styleUrl><description>near miss: Mars passes 27.6′ from the limb (UTC)</description><Point><coordinates>29.06013,40.19559,0</coordinates></Point></Placemark>
<Placemark><name>Jaipur, IN</name><styleUrl>#city</styleUrl><description>near miss: Mars passes 13.9′ from the limb (UTC)</description><Point><coordinates>75.78781,26.91962,0</coordinates></Point></Placemark>
<Placemark><name>Ürümqi, CN</name><styleUrl>#city</styleUrl><description>near miss: Mars passes 2.1′ from the limb (UTC)</description><Point><coordinates>87.60046,43.80096,0</coordinates></Point></Placemark>
<Placemark><name>Lanzhou, CN</name><styleUrl>#city</styleUrl><description>near miss: Mars passes 1.2′ from the limb (UTC)</description><Point><coordinates>103.83987,36.05701,0</coordinates></Point></Placemark>
<Placemark><name>Kyiv, UA</name><styleUrl>#city</styleUrl><description>near miss: Mars passes 19.5′ from the limb (UTC)</description><Point><coordinates>30.5238,50.45466,0</coordinates></Point></Placemark>
<Placemark><name>İzmir, TR</name><styleUrl>#city</styleUrl><description>near miss: Mars passes 29.9′ from the limb (UTC)</description><Point><coordinates>27.13838,38.41273,0</coordinates></Point></Placemark>
<Placemark><name>Kanpur, IN</name><styleUrl>#city</styleUrl><description>near miss: Mars passes 12.5′ from the limb (UTC)</description><Point><coordinates>80.34975,26.46523,0</coordinates></Point></Placemark>
<Placemark><name>Luanda, AO</name><styleUrl>#city</styleUrl><description>near miss: Mars passes 75.6′ from the limb (UTC)</description><Point><coordinates>13.23432,-8.83682,0</coordinates></Point></Placemark>
<Placemark><name>Baoding, CN</name><styleUrl>#city</styleUrl><description>D1 06:51:50 · D2 06:52:12 · R1 07:15:46 · R2 07:16:05 (UTC)</description><Point><coordinates>115.46246,38.87288,0</coordinates></Point></Placemark>
<Placemark><name>Bazhong, CN</name><styleUrl>#city</styleUrl><description>near miss: Mars passes 2.6′ from the limb (UTC)</description><Point><coordinates>106.74432,31.8694,0</coordinates></Point></Placemark>
<Placemark><name>Abuja, NG</name><styleUrl>#city</styleUrl><description>near miss: Mars passes 64.9′ from the limb (UTC)</description><Point><coordinates>7.49508,9.05785,0</coordinates></Point></Placemark>
<Placemark><name>Gazipur, BD</name><styleUrl>#city</styleUrl><description>near miss: Mars passes 10.8′ from the limb (UTC)</description><Point><coordinates>90.42234,23.99844,0</coordinates></Point></Placemark>
<Placemark><name>Dakar, SN</name><styleUrl>#city</styleUrl><description>near miss: Mars passes 61.8′ from the limb (UTC)</description><Point><coordinates>-17.44406,14.6937,0</coordinates></Point></Placemark>
<Placemark><name>Navi Mumbai, IN</name><styleUrl>#city</styleUrl><description>near miss: Mars passes 19.8′ from the limb (UTC)</description><Point><coordinates>73.01582,19.03681,0</coordinates></Point></Placemark>
<Placemark><name>Mogadishu, SO</name><styleUrl>#city</styleUrl><description>near miss: Mars passes 46.0′ from the limb (UTC)</description><Point><coordinates>45.34375,2.03711,0</coordinates></Point></Placemark>
<Placemark><name>Kumasi, GH</name><styleUrl>#city</styleUrl><description>near miss: Mars passes 70.4′ from the limb (UTC)</description><Point><coordinates>-1.62443,6.68848,0</coordinates></Point></Placemark>
<Placemark><name>Gujranwala, PK</name><styleUrl>#city</styleUrl><description>near miss: Mars passes 11.6′ from the limb (UTC)</description><Point><coordinates>74.18705,32.15567,0</coordinates></Point></Placemark>
<Placemark><name>Lucknow, IN</name><styleUrl>#city</styleUrl><description>near miss: Mars passes 12.1′ from the limb (UTC)</description><Point><coordinates>80.92313,26.83928,0</coordinates></Point></Placemark>
<Placemark><name>Ouagadougou, BF</name><styleUrl>#city</styleUrl><description>near miss: Mars passes 65.0′ from the limb (UTC)</description><Point><coordinates>-1.53388,12.36566,0</coordinates></Point></Placemark>
<Placemark><name>Nagpur, IN</name><styleUrl>#city</styleUrl><description>near miss: Mars passes 16.1′ from the limb (UTC)</description><Point><coordinates>79.08491,21.14631,0</coordinates></Point></Placemark>
<Placemark><name>Algiers, DZ</name><styleUrl>#city</styleUrl><description>near miss: Mars passes 39.6′ from the limb (UTC)</description><Point><coordinates>3.08746,36.73225,0</coordinates></Point></Placemark>
<Placemark><name>Baku, AZ</name><styleUrl>#city</styleUrl><description>near miss: Mars passes 17.8′ from the limb (UTC)</description><Point><coordinates>49.89201,40.37767,0</coordinates></Point></Placemark>
<Placemark><name>Hohhot, CN</name><styleUrl>#city</styleUrl><description>D1 06:50:29 · D2 06:50:57 · R1 07:15:54 · R2 07:16:14 (UTC)</description><Point><coordinates>111.65222,40.81056,0</coordinates></Point></Placemark>
<Placemark><name>Rome, IT</name><styleUrl>#city</styleUrl><description>near miss: Mars passes 32.5′ from the limb (UTC)</description><Point><coordinates>12.51133,41.89193,0</coordinates></Point></Placemark>
<Placemark><name>Mashhad, IR</name><styleUrl>#city</styleUrl><description>near miss: Mars passes 15.6′ from the limb (UTC)</description><Point><coordinates>59.60567,36.29807,0</coordinates></Point></Placemark>
<Placemark><name>Gaziantep, TR</name><styleUrl>#city</styleUrl><description>near miss: Mars passes 25.9′ from the limb (UTC)</description><Point><coordinates>37.3825,37.05944,0</coordinates></Point></Placemark>
<Placemark><name>Lubumbashi, CD</name><styleUrl>#city</styleUrl><description>near miss: Mars passes 68.2′ from the limb (UTC)</description><Point><coordinates>27.47938,-11.66089,0</coordinates></Point></Placemark>
<Placemark><name>Lusaka, ZM</name><styleUrl>#city</styleUrl><description>near miss: Mars passes 70.6′ from the limb (UTC)</description><Point><coordinates>28.28713,-15.40669,0</coordinates></Point></Placemark>
<Placemark><name>Lomé, TG</name><styleUrl>#city</styleUrl><description>near miss: Mars passes 70.2′ from the limb (UTC)</description><Point><coordinates>1.22154,6.12874,0</coordinates></Point></Placemark>
<Placemark><name>Multan, PK</name><styleUrl>#city</styleUrl><description>near miss: Mars passes 13.7′ from the limb (UTC)</description><Point><coordinates>71.47824,30.19679,0</coordinates></Point></Placemark>
<Placemark><name>Baotou, CN</name><styleUrl>#city</styleUrl><description>D1 06:52:43 · D2 06:53:02 · R1 07:16:02 · R2 07:16:21 (UTC)</description><Point><coordinates>109.84389,40.6516,0</coordinates></Point></Placemark>
<Placemark><name>Paris, FR</name><styleUrl>#city</styleUrl><description>near miss: Mars passes 27.8′ from the limb (UTC)</description><Point><coordinates>2.3488,48.85341,0</coordinates></Point></Placemark>
<Placemark><name>Coimbatore, IN</name><styleUrl>#city</styleUrl><description>near miss: Mars passes 23.9′ from the limb (UTC)</description><Point><coordinates>76.96612,11.00555,0</coordinates></Point></Placemark>
<Placemark><name>Qingyang, CN</name><styleUrl>#city</styleUrl><description>near miss: Mars passes 0.6′ from the limb (UTC)</description><Point><coordinates>107.64455,35.70976,0</coordinates></Point></Placemark>
<Placemark><name>Port Harcourt, NG</name><styleUrl>#city</styleUrl><description>near miss: Mars passes 68.8′ from the limb (UTC)</description><Point><coordinates>7.0134,4.77742,0</coordinates></Point></Placemark>
<Placemark><name>Pretoria, ZA</name><styleUrl>#city</styleUrl><description>near miss: Mars passes 78.7′ from the limb (UTC)</description><Point><coordinates>28.18783,-25.74486,0</coordinates></Point></Placemark>
<Placemark><name>Mbuji-Mayi, CD</name><styleUrl>#city</styleUrl><description>near miss: Mars passes 66.5′ from the limb (UTC)</description><Point><coordinates>23.58979,-6.13603,0</coordinates></Point></Placemark>
<Placemark><name>Aleppo, SY</name><styleUrl>#city</styleUrl><description>near miss: Mars passes 26.6′ from the limb (UTC)</description><Point><coordinates>37.16117,36.20124,0</coordinates></Point></Placemark>
<Placemark><name>Al Mawşil al Jadīdah, IQ</name><styleUrl>#city</styleUrl><description>near miss: Mars passes 23.4′ from the limb (UTC)</description><Point><coordinates>43.10555,36.33271,0</coordinates></Point></Placemark>
<Placemark><name>Al Başrah al Qadīmah, IQ</name><styleUrl>#city</styleUrl><description>near miss: Mars passes 24.6′ from the limb (UTC)</description><Point><coordinates>47.81507,30.50316,0</coordinates></Point></Placemark>
<Placemark><name>Indore, IN</name><styleUrl>#city</styleUrl><description>near miss: Mars passes 16.4′ from the limb (UTC)</description><Point><coordinates>75.8333,22.71792,0</coordinates></Point></Placemark>
<Placemark><name>Brazzaville, CG</name><styleUrl>#city</styleUrl><description>near miss: Mars passes 70.7′ from the limb (UTC)</description><Point><coordinates>15.28318,-4.26613,0</coordinates></Point></Placemark>
<Placemark><name>Tashkent, UZ</name><styleUrl>#city</styleUrl><description>near miss: Mars passes 9.2′ from the limb (UTC)</description><Point><coordinates>69.21627,41.26465,0</coordinates></Point></Placemark>
<Placemark><name>Almaty, KZ</name><styleUrl>#city</styleUrl><description>near miss: Mars passes 5.6′ from the limb (UTC)</description><Point><coordinates>76.9115,43.25249,0</coordinates></Point></Placemark>
<Placemark><name>Khartoum, SD</name><styleUrl>#city</styleUrl><description>near miss: Mars passes 43.9′ from the limb (UTC)</description><Point><coordinates>32.53241,15.55177,0</coordinates></Point></Placemark>
<Placemark><name>Hamburg, DE</name><styleUrl>#city</styleUrl><description>near miss: Mars passes 22.3′ from the limb (UTC)</description><Point><coordinates>9.99302,53.55073,0</coordinates></Point></Placemark>
<Placemark><name>Accra, GH</name><styleUrl>#city</styleUrl><description>near miss: Mars passes 71.1′ from the limb (UTC)</description><Point><coordinates>-0.1969,5.55602,0</coordinates></Point></Placemark>
<Placemark><name>Ordos, CN</name><styleUrl>#city</styleUrl><description>D1 06:55:28 · D2 06:55:45 · R1 07:16:08 · R2 07:16:29 (UTC)</description><Point><coordinates>109.78157,39.6086,0</coordinates></Point></Placemark>
<Placemark><name>Sanaa, YE</name><styleUrl>#city</styleUrl><description>near miss: Mars passes 36.7′ from the limb (UTC)</description><Point><coordinates>44.20646,15.35452,0</coordinates></Point></Placemark>
<Placemark><name>Conakry, GN</name><styleUrl>#city</styleUrl><description>near miss: Mars passes 67.7′ from the limb (UTC)</description><Point><coordinates>-13.67729,9.53795,0</coordinates></Point></Placemark>
<Placemark><name>Hyderabad, PK</name><styleUrl>#city</styleUrl><description>near miss: Mars passes 17.7′ from the limb (UTC)</description><Point><coordinates>68.37718,25.39689,0</coordinates></Point></Placemark>
<Placemark><name>Beirut, LB</name><styleUrl>#city</styleUrl><description>near miss: Mars passes 29.0′ from the limb (UTC)</description><Point><coordinates>35.50157,33.89332,0</coordinates></Point></Placemark>
<Placemark><name>Bucharest, RO</name><styleUrl>#city</styleUrl><description>near miss: Mars passes 25.6′ from the limb (UTC)</description><Point><coordinates>26.10626,44.43225,0</coordinates></Point></Placemark>
<Placemark><name>Camayenne, GN</name><styleUrl>#city</styleUrl><description>near miss: Mars passes 67.7′ from the limb (UTC)</description><Point><coordinates>-13.68778,9.535,0</coordinates></Point></Placemark>
<Placemark><name>Kakamega, KE</name><styleUrl>#city</styleUrl><description>near miss: Mars passes 54.0′ from the limb (UTC)</description><Point><coordinates>34.75229,0.28422,0</coordinates></Point></Placemark>
<Placemark><name>Datong, CN</name><styleUrl>#city</styleUrl><description>D1 06:50:44 · D2 06:51:08 · R1 07:15:55 · R2 07:16:13 (UTC)</description><Point><coordinates>113.29139,40.09361,0</coordinates></Point></Placemark>
<Placemark><name>Kaduna, NG</name><styleUrl>#city</styleUrl><description>near miss: Mars passes 63.6′ from the limb (UTC)</description><Point><coordinates>7.43879,10.52641,0</coordinates></Point></Placemark>
<Placemark><name>Omdurman, SD</name><styleUrl>#city</styleUrl><description>near miss: Mars passes 43.8′ from the limb (UTC)</description><Point><coordinates>32.47773,15.64453,0</coordinates></Point></Placemark>
<Placemark><name>Thāne, IN</name><styleUrl>#city</styleUrl><description>near miss: Mars passes 19.7′ from the limb (UTC)</description><Point><coordinates>72.96355,19.19704,0</coordinates></Point></Placemark>
<Placemark><name>Diyarbakır, TR</name><styleUrl>#city</styleUrl><description>near miss: Mars passes 23.9′ from the limb (UTC)</description><Point><coordinates>40.21721,37.91363,0</coordinates></Point></Placemark>
<Placemark><name>Vadodara, IN</name><styleUrl>#city</styleUrl><description>near miss: Mars passes 17.6′ from the limb (UTC)</description><Point><coordinates>73.20812,22.29941,0</coordinates></Point></Placemark>
<Placemark><name>Adana, TR</name><styleUrl>#city</styleUrl><description>near miss: Mars passes 27.0′ from the limb (UTC)</description><Point><coordinates>35.32531,36.98615,0</coordinates></Point></Placemark>
<Placemark><name>Abu Dhabi, AE</name><styleUrl>#city</styleUrl><description>near miss: Mars passes 24.9′ from the limb (UTC)</description><Point><coordinates>54.39696,24.45118,0</coordinates></Point></Placemark>
<Placemark><name>Sharjah, AE</name><styleUrl>#city</styleUrl><description>near miss: Mars passes 23.9′ from the limb (UTC)</description><Point><coordinates>55.41221,25.3342,0</coordinates></Point></Placemark>
<Placemark><name>Bhopal, IN</name><styleUrl>#city</styleUrl><description>near miss: Mars passes 15.4′ from the limb (UTC)</description><Point><coordinates>77.40289,23.25469,0</coordinates></Point></Placemark>
<Placemark><name>Benin City, NG</name><styleUrl>#city</styleUrl><description>near miss: Mars passes 68.1′ from the limb (UTC)</description><Point><coordinates>5.62575,6.33815,0</coordinates></Point></Placemark>
<Placemark><name>Bayan Nur, CN</name><styleUrl>#city</styleUrl><description>D1 06:54:50 · D2 06:55:10 · R1 07:15:49 · R2 07:16:10 (UTC)</description><Point><coordinates>107.38599,40.74143,0</coordinates></Point></Placemark>
<Placemark><name>Minsk, BY</name><styleUrl>#city</styleUrl><description>near miss: Mars passes 17.9′ from the limb (UTC)</description><Point><coordinates>27.56653,53.90019,0</coordinates></Point></Placemark>
<Placemark><name>Budapest, HU</name><styleUrl>#city</styleUrl><description>near miss: Mars passes 25.5′ from the limb (UTC)</description><Point><coordinates>19.04045,47.49835,0</coordinates></Point></Placemark>
<Placemark><name>Rasapūdipalem, IN</name><styleUrl>#city</styleUrl><description>near miss: Mars passes 16.9′ from the limb (UTC)</description><Point><coordinates>83.31622,17.73308,0</coordinates></Point></Placemark>
<Placemark><name>Pimpri-Chinchwad, IN</name><styleUrl>#city</styleUrl><description>near miss: Mars passes 19.8′ from the limb (UTC)</description><Point><coordinates>73.80375,18.61867,0</coordinates></Point></Placemark>
<Placemark><name>Warsaw, PL</name><styleUrl>#city</styleUrl><description>near miss: Mars passes 21.0′ from the limb (UTC)</description><Point><coordinates>21.01178,52.22977,0</coordinates></Point></Placemark>
<Placemark><name>Soweto, ZA</name><styleUrl>#city</styleUrl><description>near miss: Mars passes 79.3′ from the limb (UTC)</description><Point><coordinates>27.85849,-26.26781,0</coordinates></Point></Placemark>
<Placemark><name>Vienna, AT</name><styleUrl>#city</styleUrl><description>near miss: Mars passes 25.7′ from the limb (UTC)</description><Point><coordinates>16.37208,48.20849,0</coordinates></Point></Placemark>
<Placemark><name>Barcelona, ES</name><styleUrl>#city</styleUrl><description>near miss: Mars passes 35.1′ from the limb (UTC)</description><Point><coordinates>2.15899,41.38879,0</coordinates></Point></Placemark>
<Placemark><name>Patna, IN</name><styleUrl>#city</styleUrl><description>near miss: Mars passes 11.4′ from the limb (UTC)</description><Point><coordinates>85.13563,25.59408,0</coordinates></Point></Placemark>
<Placemark><name>Mosul, IQ</name><styleUrl>#city</styleUrl><description>near miss: Mars passes 23.4′ from the limb (UTC)</description><Point><coordinates>43.11889,36.335,0</coordinates></Point></Placemark>
<Placemark><name>Kallakurichi, IN</name><styleUrl>#city</styleUrl><description>near miss: Mars passes 22.7′ from the limb (UTC)</description><Point><coordinates>78.95925,11.73379,0</coordinates></Point></Placemark>
<Placemark><name>Kampala, UG</name><styleUrl>#city</styleUrl><description>near miss: Mars passes 55.4′ from the limb (UTC)</description><Point><coordinates>32.58219,0.31628,0</coordinates></Point></Placemark>
<Placemark><name>Xining, CN</name><styleUrl>#city</styleUrl><description>near miss: Mars passes 1.4′ from the limb (UTC)</description><Point><coordinates>101.75739,36.62554,0</coordinates></Point></Placemark>
<Placemark><name>Rabat, MA</name><styleUrl>#city</styleUrl><description>near miss: Mars passes 43.2′ from the limb (UTC)</description><Point><coordinates>-6.83255,34.01325,0</coordinates></Point></Placemark>
<Placemark><name>Recife, BR</name><styleUrl>#city</styleUrl><description>near miss: Mars passes 78.2′ from the limb (UTC)</description><Point><coordinates>-34.88111,-8.05389,0</coordinates></Point></Placemark>
<Placemark><name>Ludhiana, IN</name><styleUrl>#city</styleUrl><description>near miss: Mars passes 11.7′ from the limb (UTC)</description><Point><coordinates>75.85379,30.91204,0</coordinates></Point></Placemark>
<Placemark><name>Novosibirsk, RU</name><styleUrl>#city</styleUrl><description>near miss: Mars passes 0.1′ from the limb (UTC)</description><Point><coordinates>82.93175,55.02259,0</coordinates></Point></Placemark>
<Placemark><name>Erbil, IQ</name><styleUrl>#city</styleUrl><description>near miss: Mars passes 23.1′ from the limb (UTC)</description><Point><coordinates>44.00943,36.19117,0</coordinates></Point></Placemark>
<Placemark><name>Daqing, CN</name><styleUrl>#city</styleUrl><description>D1 06:29:28 · D2 06:29:40 · R1 07:07:16 · R2 07:07:27 (UTC)</description><Point><coordinates>125.0,46.58333,0</coordinates></Point></Placemark>
<Placemark><name>Makkah, SA</name><styleUrl>#city</styleUrl><description>near miss: Mars passes 35.1′ from the limb (UTC)</description><Point><coordinates>39.82563,21.42664,0</coordinates></Point></Placemark>
<Placemark><name>Damascus, SY</name><styleUrl>#city</styleUrl><description>near miss: Mars passes 28.8′ from the limb (UTC)</description><Point><coordinates>36.29128,33.5102,0</coordinates></Point></Placemark>
<Placemark><name>Quetta, PK</name><styleUrl>#city</styleUrl><description>near miss: Mars passes 15.6′ from the limb (UTC)</description><Point><coordinates>67.00141,30.18414,0</coordinates></Point></Placemark>
<Placemark><name>Onitsha, NG</name><styleUrl>#city</styleUrl><description>near miss: Mars passes 67.7′ from the limb (UTC)</description><Point><coordinates>6.78569,6.14978,0</coordinates></Point></Placemark>
<Placemark><name>Mianyang, CN</name><styleUrl>#city</styleUrl><description>near miss: Mars passes 3.2′ from the limb (UTC)</description><Point><coordinates>104.68168,31.46784,0</coordinates></Point></Placemark>
<Placemark><name>Isfahan, IR</name><styleUrl>#city</styleUrl><description>near miss: Mars passes 21.3′ from the limb (UTC)</description><Point><coordinates>51.67462,32.65246,0</coordinates></Point></Placemark>
<Placemark><name>Astana, KZ</name><styleUrl>#city</styleUrl><description>near miss: Mars passes 4.5′ from the limb (UTC)</description><Point><coordinates>71.44598,51.1801,0</coordinates></Point></Placemark>
<Placemark><name>Harare, ZW</name><styleUrl>#city</styleUrl><description>near miss: Mars passes 70.8′ from the limb (UTC)</description><Point><coordinates>31.05337,-17.82772,0</coordinates></Point></Placemark>
<Placemark><name>Monrovia, LR</name><styleUrl>#city</styleUrl><description>near miss: Mars passes 71.2′ from the limb (UTC)</description><Point><coordinates>-10.7969,6.30054,0</coordinates></Point></Placemark>
<Placemark><name>Stockholm, SE</name><styleUrl>#city</styleUrl><description>near miss: Mars passes 16.0′ from the limb (UTC)</description><Point><coordinates>18.06871,59.32938,0</coordinates></Point></Placemark>
<Placemark><name>Munich, DE</name><styleUrl>#city</styleUrl><description>near miss: Mars passes 26.9′ from the limb (UTC)</description><Point><coordinates>11.57549,48.13743,0</coordinates></Point></Placemark>
<Placemark><name>Khulna, BD</name><styleUrl>#city</styleUrl><description>near miss: Mars passes 11.7′ from the limb (UTC)</description><Point><coordinates>89.56439,22.80979,0</coordinates></Point></Placemark>
<Placemark><name>Yekaterinburg, RU</name><styleUrl>#city</styleUrl><description>near miss: Mars passes 5.9′ from the limb (UTC)</description><Point><coordinates>60.61529,56.85733,0</coordinates></Point></Placemark>
<Placemark><name>Yinchuan, CN</name><styleUrl>#city</styleUrl><description>D1 07:04:00 · D2 07:04:49 · R1 07:13:57 · R2 07:14:38 (UTC)</description><Point><coordinates>106.27306,38.46806,0</coordinates></Point></Placemark>
<Placemark><name>Nashik, IN</name><styleUrl>#city</styleUrl><description>near miss: Mars passes 18.9′ from the limb (UTC)</description><Point><coordinates>73.79096,19.99727,0</coordinates></Point></Placemark>
<Placemark><name>Madurai, IN</name><styleUrl>#city</styleUrl><description>near miss: Mars passes 24.3′ from the limb (UTC)</description><Point><coordinates>78.11953,9.919,0</coordinates></Point></Placemark>
<Placemark><name>Kayseri, TR</name><styleUrl>#city</styleUrl><description>near miss: Mars passes 25.7′ from the limb (UTC)</description><Point><coordinates>35.48528,38.73222,0</coordinates></Point></Placemark>
<Placemark><name>Karaj, IR</name><styleUrl>#city</styleUrl><description>near miss: Mars passes 19.8′ from the limb (UTC)</description><Point><coordinates>50.99155,35.83266,0</coordinates></Point></Placemark>
<Placemark><name>Kathmandu, NP</name><styleUrl>#city</styleUrl><description>near miss: Mars passes 10.1′ from the limb (UTC)</description><Point><coordinates>85.3206,27.70169,0</coordinates></Point></Placemark>
<Placemark><name>Baoji, CN</name><styleUrl>#city</styleUrl><description>near miss: Mars passes 1.3′ from the limb (UTC)</description><Point><coordinates>107.23705,34.36775,0</coordinates></Point></Placemark>
<Placemark><name>Tirunelveli, IN</name><styleUrl>#city</styleUrl><description>near miss: Mars passes 25.4′ from the limb (UTC)</description><Point><coordinates>77.6838,8.72742,0</coordinates></Point></Placemark>
<Placemark><name>Konya, TR</name><styleUrl>#city</styleUrl><description>near miss: Mars passes 27.7′ from the limb (UTC)</description><Point><coordinates>32.48464,37.87135,0</coordinates></Point></Placemark>
<Placemark><name>Agra, IN</name><styleUrl>#city</styleUrl><description>near miss: Mars passes 12.9′ from the limb (UTC)</description><Point><coordinates>78.01667,27.18333,0</coordinates></Point></Placemark>
<Placemark><name>Tabriz, IR</name><styleUrl>#city</styleUrl><description>near miss: Mars passes 20.8′ from the limb (UTC)</description><Point><coordinates>46.2919,38.08,0</coordinates></Point></Placemark>
<Placemark><name>Kharkiv, UA</name><styleUrl>#city</styleUrl><description>near miss: Mars passes 17.8′ from the limb (UTC)</description><Point><coordinates>36.25475,49.98177,0</coordinates></Point></Placemark>
<Placemark><name>Faridabad, IN</name><styleUrl>#city</styleUrl><description>near miss: Mars passes 12.5′ from the limb (UTC)</description><Point><coordinates>77.31316,28.41124,0</coordinates></Point></Placemark>
<Placemark><name>Rājkot, IN</name><styleUrl>#city</styleUrl><description>near miss: Mars passes 18.6′ from the limb (UTC)</description><Point><coordinates>70.79322,22.29161,0</coordinates></Point></Placemark>
<Placemark><name>Milan, IT</name><styleUrl>#city</styleUrl><description>near miss: Mars passes 29.9′ from the limb (UTC)</description><Point><coordinates>9.18951,45.46427,0</coordinates></Point></Placemark>
<Placemark><name>Najafgarh, IN</name><styleUrl>#city</styleUrl><description>near miss: Mars passes 12.5′ from the limb (UTC)</description><Point><coordinates>76.97982,28.60922,0</coordinates></Point></Placemark>
<Placemark><name>N&#x27;Djamena, TD</name><styleUrl>#city</styleUrl><description>near miss: Mars passes 57.9′ from the limb (UTC)</description><Point><coordinates>15.0444,12.10672,0</coordinates></Point></Placemark>
<Placemark><name>Bannu, PK</name><styleUrl>#city</styleUrl><description>near miss: Mars passes 12.6′ from the limb (UTC)</description><Point><coordinates>70.60403,32.98527,0</coordinates></Point></Placemark>
<Placemark><name>Antananarivo, MG</name><styleUrl>#city</styleUrl><description>near miss: Mars passes 62.2′ from the limb (UTC)</description><Point><coordinates>47.53613,-18.91368,0</coordinates></Point></Placemark>
<Placemark><name>Abobo, CI</name><styleUrl>#city</styleUrl><description>near miss: Mars passes 72.0′ from the limb (UTC)</description><Point><coordinates>-4.0159,5.41613,0</coordinates></Point></Placemark>
<Placemark><name>Jamshedpur, IN</name><styleUrl>#city</styleUrl><description>near miss: Mars passes 12.7′ from the limb (UTC)</description><Point><coordinates>86.18545,22.80278,0</coordinates></Point></Placemark>
<Placemark><name>Douala, CM</name><styleUrl>#city</styleUrl><description>near miss: Mars passes 67.8′ from the limb (UTC)</description><Point><coordinates>9.70428,4.04827,0</coordinates></Point></Placemark>
<Placemark><name>Antalya, TR</name><styleUrl>#city</styleUrl><description>near miss: Mars passes 29.3′ from the limb (UTC)</description><Point><coordinates>30.69556,36.90812,0</coordinates></Point></Placemark>
<Placemark><name>Basrah, IQ</name><styleUrl>#city</styleUrl><description>near miss: Mars passes 24.6′ from the limb (UTC)</description><Point><coordinates>47.7804,30.50852,0</coordinates></Point></Placemark>
<Placemark><name>Gorakhpur, IN</name><styleUrl>#city</styleUrl><description>near miss: Mars passes 12.5′ from the limb (UTC)</description><Point><coordinates>75.67206,29.44768,0</coordinates></Point></Placemark>
<Placemark><name>Niamey, NE</name><styleUrl>#city</styleUrl><description>near miss: Mars passes 63.0′ from the limb (UTC)</description><Point><coordinates>2.1098,13.51366,0</coordinates></Point></Placemark>
<Placemark><name>Tripoli, LY</name><styleUrl>#city</styleUrl><description>near miss: Mars passes 40.6′ from the limb (UTC)</description><Point><coordinates>13.18733,32.88743,0</coordinates></Point></Placemark>
<Placemark><name>Madinah, SA</name><styleUrl>#city</styleUrl><description>near miss: Mars passes 33.1′ from the limb (UTC)</description><Point><coordinates>39.61417,24.46861,0</coordinates></Point></Placemark>
<Placemark><name>Yaoundé, CM</name><styleUrl>#city</styleUrl><description>near miss: Mars passes 66.9′ from the limb (UTC)</description><Point><coordinates>11.51667,3.86667,0</coordinates></Point></Placemark>
<Placemark><name>Pimpri, IN</name><styleUrl>#city</styleUrl><description>near miss: Mars passes 19.8′ from the limb (UTC)</description><Point><coordinates>73.80696,18.62292,0</coordinates></Point></Placemark>
</Folder></Document></kml>
