<?xml version="1.0" encoding="UTF-8"?>
<gpx version="1.1" creator="https://occult.alokm.com" xmlns="http://www.topografix.com/GPX/1/1">
<metadata><name>The Moon occults Mars — 2028-08-17 — graze limits</name></metadata>
<trk><name>south graze limit</name><trkseg><trkpt lat="-17.3344" lon="180.0"/><trkpt lat="-17.6949" lon="179.0"/><trkpt lat="-18.0103" lon="178.15"/><trkpt lat="-18.0678" lon="178.0"/><trkpt lat="-18.4432" lon="177.0"/><trkpt lat="-18.8332" lon="176.0"/><trkpt lat="-19.0113" lon="175.54"/><trkpt lat="-19.2225" lon="175.0"/><trkpt lat="-19.619" lon="174.0"/><trkpt lat="-20.0061" lon="173.03"/><trkpt lat="-20.0183" lon="173.0"/><trkpt lat="-20.4213" lon="172.0"/><trkpt lat="-20.8346" lon="171.0"/><trkpt lat="-21.0004" lon="170.6"/><trkpt lat="-21.2504" lon="170.0"/><trkpt lat="-21.6694" lon="169.0"/></trkseg></trk>
<trk><name>north graze limit</name><trkseg><trkpt lat="8.9966" lon="157.41"/><trkpt lat="9.2445" lon="158.0"/><trkpt lat="9.6648" lon="159.0"/><trkpt lat="9.9952" lon="159.79"/><trkpt lat="10.083" lon="160.0"/><trkpt lat="10.5007" lon="161.0"/><trkpt lat="10.9142" lon="162.0"/><trkpt lat="10.9998" lon="162.21"/><trkpt lat="11.3225" lon="163.0"/><trkpt lat="11.7305" lon="164.0"/><trkpt lat="11.9985" lon="164.66"/><trkpt lat="12.1358" lon="165.0"/><trkpt lat="12.5374" lon="166.0"/><trkpt lat="12.9345" lon="167.0"/><trkpt lat="13.0016" lon="167.17"/><trkpt lat="13.3258" lon="168.0"/><trkpt lat="13.712" lon="169.0"/><trkpt lat="13.9995" lon="169.75"/><trkpt lat="14.0951" lon="170.0"/><trkpt lat="14.471" lon="171.0"/><trkpt lat="14.8419" lon="172.0"/><trkpt lat="15.001" lon="172.43"/><trkpt lat="15.2081" lon="173.0"/><trkpt lat="15.5694" lon="174.0"/><trkpt lat="15.9217" lon="175.0"/><trkpt lat="15.9988" lon="175.22"/><trkpt lat="16.2673" lon="176.0"/><trkpt lat="16.6019" lon="177.0"/><trkpt lat="16.9407" lon="178.0"/><trkpt lat="17.001" lon="178.18"/><trkpt lat="17.2651" lon="179.0"/><trkpt lat="17.5857" lon="180.0"/></trkseg></trk>
<trk><name>north graze limit</name><trkseg><trkpt lat="17.5857" lon="-180.0"/><trkpt lat="17.8917" lon="-179.0"/><trkpt lat="17.9999" lon="-178.64"/><trkpt lat="18.1924" lon="-178.0"/><trkpt lat="18.4814" lon="-177.0"/><trkpt lat="18.7646" lon="-176.0"/><trkpt lat="18.9993" lon="-175.12"/><trkpt lat="19.0313" lon="-175.0"/><trkpt lat="19.2917" lon="-174.0"/><trkpt lat="19.54" lon="-173.0"/><trkpt lat="19.7794" lon="-172.0"/><trkpt lat="19.9986" lon="-171.04"/><trkpt lat="20.0071" lon="-171.0"/><trkpt lat="20.2333" lon="-170.0"/><trkpt lat="20.4325" lon="-169.0"/><trkpt lat="20.626" lon="-168.0"/><trkpt lat="20.8049" lon="-167.0"/><trkpt lat="20.9703" lon="-166.0"/><trkpt lat="21.0042" lon="-165.78"/><trkpt lat="21.1199" lon="-165.0"/><trkpt lat="21.2566" lon="-164.0"/><trkpt lat="21.3838" lon="-163.0"/><trkpt lat="21.4912" lon="-162.0"/><trkpt lat="21.5914" lon="-161.0"/><trkpt lat="21.6752" lon="-160.0"/><trkpt lat="21.736" lon="-159.0"/><trkpt lat="21.789" lon="-158.0"/><trkpt lat="21.8083" lon="-157.0"/><trkpt lat="21.8248" lon="-156.0"/><trkpt lat="21.8295" lon="-155.0"/><trkpt lat="21.8126" lon="-154.0"/><trkpt lat="21.7686" lon="-153.0"/><trkpt lat="21.7116" lon="-152.0"/><trkpt lat="21.6337" lon="-151.0"/><trkpt lat="21.5389" lon="-150.0"/><trkpt lat="21.4237" lon="-149.0"/><trkpt lat="21.2888" lon="-148.0"/><trkpt lat="21.1331" lon="-147.0"/><trkpt lat="20.9975" lon="-146.21"/><trkpt lat="20.9612" lon="-146.0"/><trkpt lat="20.7715" lon="-145.0"/><trkpt lat="20.557" lon="-144.0"/><trkpt lat="20.3178" lon="-143.0"/><trkpt lat="20.06" lon="-142.0"/><trkpt lat="20.0132" lon="-141.83"/><trkpt lat="19.7732" lon="-141.0"/><trkpt lat="19.469" lon="-140.0"/><trkpt lat="19.1356" lon="-139.0"/><trkpt lat="19.0124" lon="-138.64"/><trkpt lat="18.783" lon="-138.0"/><trkpt lat="18.4067" lon="-137.0"/><trkpt lat="18.0075" lon="-136.0"/><trkpt lat="18.0075" lon="-136.0"/><trkpt lat="17.5819" lon="-135.0"/><trkpt lat="17.1306" lon="-134.0"/><trkpt lat="17.0055" lon="-133.73"/><trkpt lat="16.6614" lon="-133.0"/><trkpt lat="16.1671" lon="-132.0"/><trkpt lat="16.0046" lon="-131.68"/><trkpt lat="15.655" lon="-131.0"/><trkpt lat="15.1185" lon="-130.0"/><trkpt lat="15.0121" lon="-129.81"/><trkpt lat="14.5575" lon="-129.0"/><trkpt lat="14.0076" lon="-128.06"/><trkpt lat="13.9725" lon="-128.0"/><trkpt lat="13.3731" lon="-127.0"/><trkpt lat="13.0115" lon="-126.42"/><trkpt lat="12.7474" lon="-126.0"/><trkpt lat="12.1082" lon="-125.0"/><trkpt lat="12.0113" lon="-124.85"/><trkpt lat="11.4561" lon="-124.0"/><trkpt lat="11.0102" lon="-123.34"/><trkpt lat="10.7805" lon="-123.0"/><trkpt lat="10.0942" lon="-122.0"/><trkpt lat="10.0052" lon="-121.87"/><trkpt lat="9.4016" lon="-121.0"/><trkpt lat="9.014" lon="-120.45"/><trkpt lat="8.6934" lon="-120.0"/><trkpt lat="8.0119" lon="-119.05"/><trkpt lat="7.9756" lon="-119.0"/><trkpt lat="7.2499" lon="-118.0"/><trkpt lat="7.0157" lon="-117.68"/><trkpt lat="6.5168" lon="-117.0"/><trkpt lat="6.0086" lon="-116.31"/><trkpt lat="5.7795" lon="-116.0"/><trkpt lat="5.0413" lon="-115.0"/><trkpt lat="5.0117" lon="-114.96"/><trkpt lat="4.3015" lon="-114.0"/><trkpt lat="4.013" lon="-113.61"/><trkpt lat="3.5621" lon="-113.0"/><trkpt lat="3.0085" lon="-112.25"/><trkpt lat="2.8242" lon="-112.0"/><trkpt lat="2.0897" lon="-111.0"/><trkpt lat="2.0164" lon="-110.9"/><trkpt lat="1.3584" lon="-110.0"/><trkpt lat="1.0093" lon="-109.52"/><trkpt lat="0.6329" lon="-109.0"/><trkpt lat="0.0132" lon="-108.14"/><trkpt lat="-0.0873" lon="-108.0"/><trkpt lat="-0.801" lon="-107.0"/><trkpt lat="-0.9858" lon="-106.74"/><trkpt lat="-1.5113" lon="-106.0"/><trkpt lat="-1.9937" lon="-105.31"/><trkpt lat="-2.209" lon="-105.0"/><trkpt lat="-2.898" lon="-104.0"/><trkpt lat="-2.9948" lon="-103.86"/><trkpt lat="-3.5762" lon="-103.0"/><trkpt lat="-3.9884" lon="-102.38"/><trkpt lat="-4.2429" lon="-102.0"/><trkpt lat="-4.9069" lon="-101.0"/><trkpt lat="-4.9916" lon="-100.87"/><trkpt lat="-5.5543" lon="-100.0"/><trkpt lat="-5.9919" lon="-99.32"/><trkpt lat="-6.1952" lon="-99.0"/><trkpt lat="-6.8199" lon="-98.0"/><trkpt lat="-6.9855" lon="-97.73"/><trkpt lat="-7.4367" lon="-97.0"/><trkpt lat="-7.988" lon="-96.09"/><trkpt lat="-8.0425" lon="-96.0"/><trkpt lat="-8.6422" lon="-95.0"/><trkpt lat="-8.9905" lon="-94.4"/><trkpt lat="-9.2233" lon="-94.0"/><trkpt lat="-9.7988" lon="-93.0"/><trkpt lat="-9.9912" lon="-92.66"/><trkpt lat="-10.3605" lon="-92.0"/><trkpt lat="-10.9154" lon="-91.0"/><trkpt lat="-10.9863" lon="-90.87"/><trkpt lat="-11.4585" lon="-90.0"/><trkpt lat="-11.9941" lon="-89.0"/><trkpt lat="-11.9941" lon="-89.0"/><trkpt lat="-12.5169" lon="-88.0"/><trkpt lat="-12.995" lon="-87.07"/><trkpt lat="-13.0307" lon="-87.0"/><trkpt lat="-13.5338" lon="-86.0"/><trkpt lat="-13.991" lon="-85.06"/><trkpt lat="-14.0201" lon="-85.0"/><trkpt lat="-14.506" lon="-84.0"/><trkpt lat="-14.9766" lon="-83.0"/><trkpt lat="-14.9948" lon="-82.96"/><trkpt lat="-15.4396" lon="-82.0"/></trkseg></trk>
<trk><name>south graze limit</name><trkseg><trkpt lat="-45.0091" lon="-98.34"/><trkpt lat="-44.6794" lon="-99.0"/><trkpt lat="-44.1608" lon="-100.0"/><trkpt lat="-44.0144" lon="-100.29"/><trkpt lat="-43.6528" lon="-101.0"/><trkpt lat="-43.1276" lon="-102.0"/><trkpt lat="-43.0354" lon="-102.17"/><trkpt lat="-42.5816" lon="-103.0"/><trkpt lat="-42.0255" lon="-104.0"/><trkpt lat="-42.0255" lon="-104.0"/><trkpt lat="-41.4681" lon="-105.0"/><trkpt lat="-41.0216" lon="-105.78"/><trkpt lat="-40.8962" lon="-106.0"/><trkpt lat="-40.3184" lon="-107.0"/><trkpt lat="-40.024" lon="-107.5"/><trkpt lat="-39.73" lon="-108.0"/><trkpt lat="-39.1366" lon="-109.0"/><trkpt lat="-39.0285" lon="-109.18"/><trkpt lat="-38.5278" lon="-110.0"/><trkpt lat="-38.0271" lon="-110.82"/><trkpt lat="-37.9152" lon="-111.0"/><trkpt lat="-37.2892" lon="-112.0"/><trkpt lat="-37.0245" lon="-112.42"/><trkpt lat="-36.6532" lon="-113.0"/><trkpt lat="-36.0133" lon="-113.99"/><trkpt lat="-36.0068" lon="-114.0"/><trkpt lat="-35.3614" lon="-115.0"/><trkpt lat="-35.0218" lon="-115.52"/><trkpt lat="-34.7063" lon="-116.0"/><trkpt lat="-34.0399" lon="-117.0"/><trkpt lat="-34.0265" lon="-117.02"/><trkpt lat="-33.3696" lon="-118.0"/><trkpt lat="-33.0321" lon="-118.5"/><trkpt lat="-32.6906" lon="-119.0"/><trkpt lat="-32.0269" lon="-119.95"/><trkpt lat="-31.9922" lon="-120.0"/><trkpt lat="-31.2919" lon="-121.0"/><trkpt lat="-31.0228" lon="-121.38"/><trkpt lat="-30.583" lon="-122.0"/><trkpt lat="-30.0221" lon="-122.79"/><trkpt lat="-29.873" lon="-123.0"/><trkpt lat="-29.1547" lon="-124.0"/><trkpt lat="-29.0168" lon="-124.19"/><trkpt lat="-28.431" lon="-125.0"/><trkpt lat="-28.0104" lon="-125.58"/><trkpt lat="-27.7063" lon="-126.0"/><trkpt lat="-27.0107" lon="-126.96"/><trkpt lat="-26.9817" lon="-127.0"/><trkpt lat="-26.2567" lon="-128.0"/><trkpt lat="-26.0102" lon="-128.34"/><trkpt lat="-25.5331" lon="-129.0"/><trkpt lat="-25.0088" lon="-129.73"/><trkpt lat="-24.8157" lon="-130.0"/><trkpt lat="-24.1023" lon="-131.0"/><trkpt lat="-24.0163" lon="-131.12"/><trkpt lat="-23.3892" lon="-132.0"/><trkpt lat="-23.0242" lon="-132.52"/><trkpt lat="-22.6873" lon="-133.0"/><trkpt lat="-22.033" lon="-133.95"/><trkpt lat="-21.9984" lon="-134.0"/><trkpt lat="-21.3011" lon="-135.0"/><trkpt lat="-21.0225" lon="-135.41"/><trkpt lat="-20.6225" lon="-136.0"/><trkpt lat="-20.0183" lon="-136.91"/><trkpt lat="-19.96" lon="-137.0"/><trkpt lat="-19.3235" lon="-138.0"/><trkpt lat="-19.0226" lon="-138.48"/><trkpt lat="-18.7049" lon="-139.0"/><trkpt lat="-18.1025" lon="-140.0"/><trkpt lat="-18.0204" lon="-140.14"/><trkpt lat="-17.5293" lon="-141.0"/><trkpt lat="-17.0263" lon="-141.92"/><trkpt lat="-16.9782" lon="-142.0"/><trkpt lat="-16.435" lon="-143.0"/><trkpt lat="-15.9979" lon="-143.89"/><trkpt lat="-15.9468" lon="-144.0"/><trkpt lat="-15.4985" lon="-145.0"/><trkpt lat="-15.0646" lon="-146.0"/><trkpt lat="-14.995" lon="-146.16"/><trkpt lat="-14.6875" lon="-147.0"/><trkpt lat="-14.3601" lon="-148.0"/><trkpt lat="-14.0508" lon="-148.96"/><trkpt lat="-14.0384" lon="-149.0"/><trkpt lat="-13.7384" lon="-150.0"/><trkpt lat="-13.5052" lon="-151.0"/><trkpt lat="-13.2833" lon="-152.0"/><trkpt lat="-13.083" lon="-153.0"/><trkpt lat="-13.0416" lon="-153.3"/><trkpt lat="-12.9309" lon="-154.0"/><trkpt lat="-12.7929" lon="-155.0"/><trkpt lat="-12.7058" lon="-156.0"/><trkpt lat="-12.6667" lon="-157.0"/><trkpt lat="-12.6517" lon="-158.0"/><trkpt lat="-12.6111" lon="-159.0"/><trkpt lat="-12.637" lon="-160.0"/><trkpt lat="-12.6951" lon="-161.0"/><trkpt lat="-12.7768" lon="-162.0"/><trkpt lat="-12.8847" lon="-163.0"/><trkpt lat="-12.9952" lon="-163.82"/><trkpt lat="-13.0205" lon="-164.0"/><trkpt lat="-13.1815" lon="-165.0"/><trkpt lat="-13.348" lon="-166.0"/><trkpt lat="-13.535" lon="-167.0"/><trkpt lat="-13.7436" lon="-168.0"/><trkpt lat="-13.9701" lon="-169.0"/><trkpt lat="-14.005" lon="-169.15"/><trkpt lat="-14.2042" lon="-170.0"/><trkpt lat="-14.4662" lon="-171.0"/><trkpt lat="-14.7402" lon="-172.0"/><trkpt lat="-15.016" lon="-172.94"/><trkpt lat="-15.033" lon="-173.0"/><trkpt lat="-15.3255" lon="-174.0"/><trkpt lat="-15.6328" lon="-175.0"/><trkpt lat="-15.9526" lon="-176.0"/><trkpt lat="-16.0126" lon="-176.18"/><trkpt lat="-16.2886" lon="-177.0"/><trkpt lat="-16.6288" lon="-178.0"/><trkpt lat="-16.9781" lon="-179.0"/><trkpt lat="-17.0159" lon="-179.11"/><trkpt lat="-17.3344" lon="-180.0"/></trkseg></trk>
</gpx>
