<?xml version="1.0" encoding="UTF-8"?>
<kml xmlns="http://www.opengis.net/kml/2.2"><Document><name>The Moon occults Mars — 2029-10-11</name>
<description>Graze limits from https://occult.alokm.com/mars-2029-10-11, traced against the real lunar limb (LRO LOLA).</description>
<Style id="graze"><LineStyle><color>ff06b6d9</color><width>4</width></LineStyle></Style>
<Placemark><name>south graze limit</name><styleUrl>#graze</styleUrl><LineString><tessellate>1</tessellate><coordinates>-18.0,-43.0409,0 -18.17,-43.0221,0 -19.0,-42.9203,0 -20.0,-42.7899,0 -21.0,-42.6543,0 -22.0,-42.5106,0 -23.0,-42.3627,0 -24.0,-42.1965,0 -25.0,-42.0233,0 -25.14,-41.9971,0 -26.0,-41.841,0 -27.0,-41.6506,0 -28.0,-41.4297,0 -29.0,-41.2013,0 -29.8,-41.0129,0 -30.0,-40.9677,0 -31.0,-40.7287,0 -32.0,-40.4641,0 -33.0,-40.1911,0 -33.55,-40.0286,0 -34.0,-39.888,0 -35.0,-39.5758,0 -36.0,-39.2596,0 -36.79,-39.0035,0 -37.0,-38.9314,0 -38.0,-38.596,0 -39.0,-38.2498,0 -39.69,-38.0073,0 -40.0,-37.9013,0 -41.0,-37.5447,0 -42.0,-37.1708,0 -42.34,-37.0435,0 -43.0,-36.785,0 -44.0,-36.3864,0 -44.82,-36.0423,0 -45.0,-35.9669,0 -46.0,-35.5524,0 -47.0,-35.1231,0 -47.16,-35.0521,0 -48.0,-34.6788,0 -49.0,-34.2293,0 -49.39,-34.051,0 -50.0,-33.771,0 -51.0,-33.3053,0 -51.54,-33.0468,0 -52.0,-32.8272,0 -53.0,-32.3457,0 -53.63,-32.0405,0 -54.0,-31.8602,0 -55.0,-31.3684,0 -55.66,-31.0412,0 -56.0,-30.872,0 -57.0,-30.3699,0 -57.65,-30.0434,0 -58.0,-29.8662,0 -59.0,-29.3557,0 -59.62,-29.0389,0 -60.0,-28.8449,0 -61.0,-28.3314,0 -61.57,-28.037,0 -62.0,-27.8149,0 -63.0,-27.2979,0 -63.5,-27.039,0 -64.0,-26.7801,0 -65.0,-26.2623,0 -65.43,-26.0396,0 -66.0,-25.7447,0 -67.0,-25.228,0 -67.37,-25.0371,0 -68.0,-24.7124,0 -69.0,-24.1989,0 -69.31,-24.0396,0 -70.0,-23.6858,0 -71.0,-23.1749,0 -71.27,-23.0375,0 -72.0,-22.669,0 -73.0,-22.1636,0 -73.24,-22.0424,0 -74.0,-21.6618,0 -75.0,-21.1635,0 -75.25,-21.0394,0 -76.0,-20.6682,0 -77.0,-20.1776,0 -77.28,-20.0415,0 -78.0,-19.6908,0 -79.0,-19.2091,0 -79.35,-19.0416,0 -80.0,-18.7336,0 -81.0,-18.2624,0 -81.46,-18.0484,0 -82.0,-17.7973,0 -83.0,-17.333,0</coordinates></LineString></Placemark>
<Placemark><name>north graze limit</name><styleUrl>#graze</styleUrl><LineString><tessellate>1</tessellate><coordinates>-67.79,12.0032,0 -67.0,11.6422,0 -66.0,11.1848,0 -65.61,11.0044,0 -65.0,10.7214,0 -64.0,10.2508,0 -63.47,10.0005,0 -63.0,9.7782,0 -62.0,9.301,0 -61.38,9.003,0 -61.0,8.8195,0 -60.0,8.3338,0 -59.32,8.0018,0 -59.0,7.8449,0 -58.0,7.3528,0 -57.3,7.0062,0 -57.0,6.8563,0 -56.0,6.3545,0 -55.31,6.0067,0 -55.0,5.85,0 -54.0,5.3428,0 -53.34,5.006,0 -53.0,4.8313,0 -52.0,4.3176,0 -51.4,4.009,0 -51.0,3.8022,0 -50.0,3.284,0 -49.46,3.0031,0 -49.0,2.7642,0 -48.0,2.2426,0 -47.54,2.0029,0 -47.0,1.7212,0 -46.0,1.1995,0 -45.63,1.0066,0 -45.0,0.6782,0 -44.0,0.1578,0 -43.71,0.0073,0 -43.0,-0.361,0 -42.0,-0.8781,0 -41.78,-0.9915,0 -41.0,-1.3938,0 -40.0,-1.9054,0 -39.83,-1.9917,0 -39.0,-2.414,0 -38.0,-2.9175,0 -37.85,-2.9923,0 -37.0,-3.4187,0 -36.0,-3.9126,0 -35.82,-4.0011,0 -35.0,-4.3982,0 -34.0,-4.8763,0 -33.74,-4.997,0 -33.0,-5.3437,0 -32.0,-5.8028,0 -31.56,-6.0024,0 -31.0,-6.2527,0 -30.0,-6.6847,0 -29.25,-6.9978,0 -29.0,-7.1015,0 -28.0,-7.5048,0 -27.0,-7.9044,0 -26.75,-7.9986,0 -26.0,-8.2786,0 -25.0,-8.633,0 -24.0,-8.9808,0 -23.96,-8.9955,0 -23.0,-9.3061,0 -22.0,-9.6145,0 -21.0,-9.8942,0 -20.6,-10.0005,0 -20.0,-10.1535,0 -19.0,-10.3959,0 -18.0,-10.6095,0 -17.0,-10.797,0 -16.0,-10.9712,0 -15.82,-10.9994,0 -15.0,-11.1197,0 -14.0,-11.2451,0 -13.0,-11.3369,0 -12.0,-11.4026,0 -11.0,-11.45,0 -10.0,-11.4689,0 -9.0,-11.4615,0 -8.0,-11.4331,0 -7.0,-11.3824,0 -6.0,-11.3046,0 -5.0,-11.1982,0 -4.0,-11.0755,0 -3.46,-11.0027,0 -3.0,-10.9314,0 -2.0,-10.761,0 -1.0,-10.579,0 0.0,-10.3649,0 1.0,-10.1391,0 1.52,-10.0077,0 2.0,-9.882,0 3.0,-9.6146,0 4.0,-9.331,0 5.0,-9.0293,0 5.08,-9.0048,0 6.0,-8.7088,0 7.0,-8.3798,0 8.0,-8.0423,0 8.08,-8.0135,0 9.0,-7.6782,0 10.0,-7.3016,0 10.78,-7.0037,0 11.0,-6.9172,0 12.0,-6.522,0 13.0,-6.1195,0 13.28,-6.0052,0 14.0,-5.7099,0 15.0,-5.284,0 15.66,-4.9997,0 16.0,-4.8523,0 17.0,-4.4145,0 17.94,-4.0038,0 18.0,-3.9771,0 19.0,-3.5326,0 20.0,-3.0791,0 20.16,-3.0057,0 21.0,-2.6202,0 22.0,-2.1619,0 22.34,-2.0044,0 23.0,-1.6965,0 24.0,-1.2284,0 24.48,-1.0043,0 25.0,-0.7605,0 26.0,-0.2898,0 26.61,-0.0021,0 27.0,0.182,0 28.0,0.6547,0 28.72,0.9955,0 29.0,1.1278,0 30.0,1.6014,0 30.83,1.9943,0 31.0,2.0748,0 32.0,2.5479,0 32.95,2.9964,0 33.0,3.02,0 34.0,3.4909,0 35.0,3.961,0 35.07,3.9938,0 36.0,4.4301,0 37.0,4.896,0 37.22,4.9975,0 38.0,5.358,0 39.0,5.8222,0 39.38,5.998,0 40.0,6.284,0 41.0,6.7405,0 41.56,6.9944,0 42.0,7.1954,0 43.0,7.6466,0</coordinates></LineString></Placemark>
<Placemark><name>south graze limit</name><styleUrl>#graze</styleUrl><LineString><tessellate>1</tessellate><coordinates>59.68,-21.0009,0 59.0,-21.3105,0 58.0,-21.7719,0 57.5,-22.0038,0 57.0,-22.2359,0 56.0,-22.7018,0 55.34,-23.0099,0 55.0,-23.1691,0 54.0,-23.638,0 53.2,-24.0135,0 53.0,-24.1076,0 52.0,-24.5783,0 51.08,-25.0136,0 51.0,-25.0515,0 50.0,-25.526,0 49.0,-26.0002,0 48.97,-26.0145,0 48.0,-26.4748,0 47.0,-26.9496,0 46.86,-27.0161,0 46.0,-27.4241,0 45.0,-27.8973,0 44.76,-28.0107,0 44.0,-28.3706,0 43.0,-28.8423,0 42.64,-29.0112,0 42.0,-29.3111,0 41.0,-29.7776,0 40.5,-30.0097,0 40.0,-30.2404,0 39.0,-30.6976,0 38.34,-31.0007,0 38.0,-31.157,0 37.0,-31.615,0 36.14,-32.0067,0 36.0,-32.0711,0 35.0,-32.5224,0 34.0,-32.9669,0 33.9,-33.0106,0 33.0,-33.4023,0 32.0,-33.8323,0 31.58,-34.0142,0 31.0,-34.2599,0 30.0,-34.6822,0 29.19,-35.0234,0 29.0,-35.1022,0 28.0,-35.5073,0 27.0,-35.9142,0 26.7,-36.0339,0 26.0,-36.3067,0 25.0,-36.6853,0 24.07,-37.0254,0 24.0,-37.0507,0 23.0,-37.4069,0 22.0,-37.7652,0 21.26,-38.0234,0 21.0,-38.1159,0 20.0,-38.4623,0 19.0,-38.7815,0 18.21,-39.0222,0 18.0,-39.0878,0 17.0,-39.3829,0 16.0,-39.6745,0 15.0,-39.9611,0 14.82,-40.012,0 14.0,-40.2337,0 13.0,-40.499,0 12.0,-40.7486,0 11.0,-40.9864,0 10.93,-41.003,0 10.0,-41.2164,0 9.0,-41.4352,0 8.0,-41.6452,0 7.0,-41.8464,0 6.13,-42.0031,0 6.0,-42.0266,0 5.0,-42.2041,0 4.0,-42.3622,0 3.0,-42.517,0 2.0,-42.6507,0 1.0,-42.774,0 0.0,-42.8908,0 -0.97,-42.9957,0 -1.0,-42.9988,0 -2.0,-43.09,0 -3.0,-43.1748,0 -4.0,-43.2429,0 -5.0,-43.2986,0 -6.0,-43.3503,0 -7.0,-43.3902,0 -8.0,-43.4218,0 -9.0,-43.4325,0 -10.0,-43.4551,0 -11.0,-43.4636,0 -12.0,-43.4235,0 -13.0,-43.3645,0 -14.0,-43.3113,0 -15.0,-43.2639,0 -16.0,-43.1902,0 -17.0,-43.1302,0 -18.0,-43.0409,0</coordinates></LineString></Placemark>
</Document></kml>
