<?xml version="1.0" encoding="UTF-8"?>
<gpx version="1.1" creator="https://occult.alokm.com" xmlns="http://www.topografix.com/GPX/1/1">
<metadata><name>The Moon occults Mars — 2029-10-11 — graze limits</name></metadata>
<trk><name>south graze limit</name><trkseg><trkpt lat="-43.0409" lon="-18.0"/><trkpt lat="-43.0221" lon="-18.17"/><trkpt lat="-42.9203" lon="-19.0"/><trkpt lat="-42.7899" lon="-20.0"/><trkpt lat="-42.6543" lon="-21.0"/><trkpt lat="-42.5106" lon="-22.0"/><trkpt lat="-42.3627" lon="-23.0"/><trkpt lat="-42.1965" lon="-24.0"/><trkpt lat="-42.0233" lon="-25.0"/><trkpt lat="-41.9971" lon="-25.14"/><trkpt lat="-41.841" lon="-26.0"/><trkpt lat="-41.6506" lon="-27.0"/><trkpt lat="-41.4297" lon="-28.0"/><trkpt lat="-41.2013" lon="-29.0"/><trkpt lat="-41.0129" lon="-29.8"/><trkpt lat="-40.9677" lon="-30.0"/><trkpt lat="-40.7287" lon="-31.0"/><trkpt lat="-40.4641" lon="-32.0"/><trkpt lat="-40.1911" lon="-33.0"/><trkpt lat="-40.0286" lon="-33.55"/><trkpt lat="-39.888" lon="-34.0"/><trkpt lat="-39.5758" lon="-35.0"/><trkpt lat="-39.2596" lon="-36.0"/><trkpt lat="-39.0035" lon="-36.79"/><trkpt lat="-38.9314" lon="-37.0"/><trkpt lat="-38.596" lon="-38.0"/><trkpt lat="-38.2498" lon="-39.0"/><trkpt lat="-38.0073" lon="-39.69"/><trkpt lat="-37.9013" lon="-40.0"/><trkpt lat="-37.5447" lon="-41.0"/><trkpt lat="-37.1708" lon="-42.0"/><trkpt lat="-37.0435" lon="-42.34"/><trkpt lat="-36.785" lon="-43.0"/><trkpt lat="-36.3864" lon="-44.0"/><trkpt lat="-36.0423" lon="-44.82"/><trkpt lat="-35.9669" lon="-45.0"/><trkpt lat="-35.5524" lon="-46.0"/><trkpt lat="-35.1231" lon="-47.0"/><trkpt lat="-35.0521" lon="-47.16"/><trkpt lat="-34.6788" lon="-48.0"/><trkpt lat="-34.2293" lon="-49.0"/><trkpt lat="-34.051" lon="-49.39"/><trkpt lat="-33.771" lon="-50.0"/><trkpt lat="-33.3053" lon="-51.0"/><trkpt lat="-33.0468" lon="-51.54"/><trkpt lat="-32.8272" lon="-52.0"/><trkpt lat="-32.3457" lon="-53.0"/><trkpt lat="-32.0405" lon="-53.63"/><trkpt lat="-31.8602" lon="-54.0"/><trkpt lat="-31.3684" lon="-55.0"/><trkpt lat="-31.0412" lon="-55.66"/><trkpt lat="-30.872" lon="-56.0"/><trkpt lat="-30.3699" lon="-57.0"/><trkpt lat="-30.0434" lon="-57.65"/><trkpt lat="-29.8662" lon="-58.0"/><trkpt lat="-29.3557" lon="-59.0"/><trkpt lat="-29.0389" lon="-59.62"/><trkpt lat="-28.8449" lon="-60.0"/><trkpt lat="-28.3314" lon="-61.0"/><trkpt lat="-28.037" lon="-61.57"/><trkpt lat="-27.8149" lon="-62.0"/><trkpt lat="-27.2979" lon="-63.0"/><trkpt lat="-27.039" lon="-63.5"/><trkpt lat="-26.7801" lon="-64.0"/><trkpt lat="-26.2623" lon="-65.0"/><trkpt lat="-26.0396" lon="-65.43"/><trkpt lat="-25.7447" lon="-66.0"/><trkpt lat="-25.228" lon="-67.0"/><trkpt lat="-25.0371" lon="-67.37"/><trkpt lat="-24.7124" lon="-68.0"/><trkpt lat="-24.1989" lon="-69.0"/><trkpt lat="-24.0396" lon="-69.31"/><trkpt lat="-23.6858" lon="-70.0"/><trkpt lat="-23.1749" lon="-71.0"/><trkpt lat="-23.0375" lon="-71.27"/><trkpt lat="-22.669" lon="-72.0"/><trkpt lat="-22.1636" lon="-73.0"/><trkpt lat="-22.0424" lon="-73.24"/><trkpt lat="-21.6618" lon="-74.0"/><trkpt lat="-21.1635" lon="-75.0"/><trkpt lat="-21.0394" lon="-75.25"/><trkpt lat="-20.6682" lon="-76.0"/><trkpt lat="-20.1776" lon="-77.0"/><trkpt lat="-20.0415" lon="-77.28"/><trkpt lat="-19.6908" lon="-78.0"/><trkpt lat="-19.2091" lon="-79.0"/><trkpt lat="-19.0416" lon="-79.35"/><trkpt lat="-18.7336" lon="-80.0"/><trkpt lat="-18.2624" lon="-81.0"/><trkpt lat="-18.0484" lon="-81.46"/><trkpt lat="-17.7973" lon="-82.0"/><trkpt lat="-17.333" lon="-83.0"/></trkseg></trk>
<trk><name>north graze limit</name><trkseg><trkpt lat="12.0032" lon="-67.79"/><trkpt lat="11.6422" lon="-67.0"/><trkpt lat="11.1848" lon="-66.0"/><trkpt lat="11.0044" lon="-65.61"/><trkpt lat="10.7214" lon="-65.0"/><trkpt lat="10.2508" lon="-64.0"/><trkpt lat="10.0005" lon="-63.47"/><trkpt lat="9.7782" lon="-63.0"/><trkpt lat="9.301" lon="-62.0"/><trkpt lat="9.003" lon="-61.38"/><trkpt lat="8.8195" lon="-61.0"/><trkpt lat="8.3338" lon="-60.0"/><trkpt lat="8.0018" lon="-59.32"/><trkpt lat="7.8449" lon="-59.0"/><trkpt lat="7.3528" lon="-58.0"/><trkpt lat="7.0062" lon="-57.3"/><trkpt lat="6.8563" lon="-57.0"/><trkpt lat="6.3545" lon="-56.0"/><trkpt lat="6.0067" lon="-55.31"/><trkpt lat="5.85" lon="-55.0"/><trkpt lat="5.3428" lon="-54.0"/><trkpt lat="5.006" lon="-53.34"/><trkpt lat="4.8313" lon="-53.0"/><trkpt lat="4.3176" lon="-52.0"/><trkpt lat="4.009" lon="-51.4"/><trkpt lat="3.8022" lon="-51.0"/><trkpt lat="3.284" lon="-50.0"/><trkpt lat="3.0031" lon="-49.46"/><trkpt lat="2.7642" lon="-49.0"/><trkpt lat="2.2426" lon="-48.0"/><trkpt lat="2.0029" lon="-47.54"/><trkpt lat="1.7212" lon="-47.0"/><trkpt lat="1.1995" lon="-46.0"/><trkpt lat="1.0066" lon="-45.63"/><trkpt lat="0.6782" lon="-45.0"/><trkpt lat="0.1578" lon="-44.0"/><trkpt lat="0.0073" lon="-43.71"/><trkpt lat="-0.361" lon="-43.0"/><trkpt lat="-0.8781" lon="-42.0"/><trkpt lat="-0.9915" lon="-41.78"/><trkpt lat="-1.3938" lon="-41.0"/><trkpt lat="-1.9054" lon="-40.0"/><trkpt lat="-1.9917" lon="-39.83"/><trkpt lat="-2.414" lon="-39.0"/><trkpt lat="-2.9175" lon="-38.0"/><trkpt lat="-2.9923" lon="-37.85"/><trkpt lat="-3.4187" lon="-37.0"/><trkpt lat="-3.9126" lon="-36.0"/><trkpt lat="-4.0011" lon="-35.82"/><trkpt lat="-4.3982" lon="-35.0"/><trkpt lat="-4.8763" lon="-34.0"/><trkpt lat="-4.997" lon="-33.74"/><trkpt lat="-5.3437" lon="-33.0"/><trkpt lat="-5.8028" lon="-32.0"/><trkpt lat="-6.0024" lon="-31.56"/><trkpt lat="-6.2527" lon="-31.0"/><trkpt lat="-6.6847" lon="-30.0"/><trkpt lat="-6.9978" lon="-29.25"/><trkpt lat="-7.1015" lon="-29.0"/><trkpt lat="-7.5048" lon="-28.0"/><trkpt lat="-7.9044" lon="-27.0"/><trkpt lat="-7.9986" lon="-26.75"/><trkpt lat="-8.2786" lon="-26.0"/><trkpt lat="-8.633" lon="-25.0"/><trkpt lat="-8.9808" lon="-24.0"/><trkpt lat="-8.9955" lon="-23.96"/><trkpt lat="-9.3061" lon="-23.0"/><trkpt lat="-9.6145" lon="-22.0"/><trkpt lat="-9.8942" lon="-21.0"/><trkpt lat="-10.0005" lon="-20.6"/><trkpt lat="-10.1535" lon="-20.0"/><trkpt lat="-10.3959" lon="-19.0"/><trkpt lat="-10.6095" lon="-18.0"/><trkpt lat="-10.797" lon="-17.0"/><trkpt lat="-10.9712" lon="-16.0"/><trkpt lat="-10.9994" lon="-15.82"/><trkpt lat="-11.1197" lon="-15.0"/><trkpt lat="-11.2451" lon="-14.0"/><trkpt lat="-11.3369" lon="-13.0"/><trkpt lat="-11.4026" lon="-12.0"/><trkpt lat="-11.45" lon="-11.0"/><trkpt lat="-11.4689" lon="-10.0"/><trkpt lat="-11.4615" lon="-9.0"/><trkpt lat="-11.4331" lon="-8.0"/><trkpt lat="-11.3824" lon="-7.0"/><trkpt lat="-11.3046" lon="-6.0"/><trkpt lat="-11.1982" lon="-5.0"/><trkpt lat="-11.0755" lon="-4.0"/><trkpt lat="-11.0027" lon="-3.46"/><trkpt lat="-10.9314" lon="-3.0"/><trkpt lat="-10.761" lon="-2.0"/><trkpt lat="-10.579" lon="-1.0"/><trkpt lat="-10.3649" lon="0.0"/><trkpt lat="-10.1391" lon="1.0"/><trkpt lat="-10.0077" lon="1.52"/><trkpt lat="-9.882" lon="2.0"/><trkpt lat="-9.6146" lon="3.0"/><trkpt lat="-9.331" lon="4.0"/><trkpt lat="-9.0293" lon="5.0"/><trkpt lat="-9.0048" lon="5.08"/><trkpt lat="-8.7088" lon="6.0"/><trkpt lat="-8.3798" lon="7.0"/><trkpt lat="-8.0423" lon="8.0"/><trkpt lat="-8.0135" lon="8.08"/><trkpt lat="-7.6782" lon="9.0"/><trkpt lat="-7.3016" lon="10.0"/><trkpt lat="-7.0037" lon="10.78"/><trkpt lat="-6.9172" lon="11.0"/><trkpt lat="-6.522" lon="12.0"/><trkpt lat="-6.1195" lon="13.0"/><trkpt lat="-6.0052" lon="13.28"/><trkpt lat="-5.7099" lon="14.0"/><trkpt lat="-5.284" lon="15.0"/><trkpt lat="-4.9997" lon="15.66"/><trkpt lat="-4.8523" lon="16.0"/><trkpt lat="-4.4145" lon="17.0"/><trkpt lat="-4.0038" lon="17.94"/><trkpt lat="-3.9771" lon="18.0"/><trkpt lat="-3.5326" lon="19.0"/><trkpt lat="-3.0791" lon="20.0"/><trkpt lat="-3.0057" lon="20.16"/><trkpt lat="-2.6202" lon="21.0"/><trkpt lat="-2.1619" lon="22.0"/><trkpt lat="-2.0044" lon="22.34"/><trkpt lat="-1.6965" lon="23.0"/><trkpt lat="-1.2284" lon="24.0"/><trkpt lat="-1.0043" lon="24.48"/><trkpt lat="-0.7605" lon="25.0"/><trkpt lat="-0.2898" lon="26.0"/><trkpt lat="-0.0021" lon="26.61"/><trkpt lat="0.182" lon="27.0"/><trkpt lat="0.6547" lon="28.0"/><trkpt lat="0.9955" lon="28.72"/><trkpt lat="1.1278" lon="29.0"/><trkpt lat="1.6014" lon="30.0"/><trkpt lat="1.9943" lon="30.83"/><trkpt lat="2.0748" lon="31.0"/><trkpt lat="2.5479" lon="32.0"/><trkpt lat="2.9964" lon="32.95"/><trkpt lat="3.02" lon="33.0"/><trkpt lat="3.4909" lon="34.0"/><trkpt lat="3.961" lon="35.0"/><trkpt lat="3.9938" lon="35.07"/><trkpt lat="4.4301" lon="36.0"/><trkpt lat="4.896" lon="37.0"/><trkpt lat="4.9975" lon="37.22"/><trkpt lat="5.358" lon="38.0"/><trkpt lat="5.8222" lon="39.0"/><trkpt lat="5.998" lon="39.38"/><trkpt lat="6.284" lon="40.0"/><trkpt lat="6.7405" lon="41.0"/><trkpt lat="6.9944" lon="41.56"/><trkpt lat="7.1954" lon="42.0"/><trkpt lat="7.6466" lon="43.0"/></trkseg></trk>
<trk><name>south graze limit</name><trkseg><trkpt lat="-21.0009" lon="59.68"/><trkpt lat="-21.3105" lon="59.0"/><trkpt lat="-21.7719" lon="58.0"/><trkpt lat="-22.0038" lon="57.5"/><trkpt lat="-22.2359" lon="57.0"/><trkpt lat="-22.7018" lon="56.0"/><trkpt lat="-23.0099" lon="55.34"/><trkpt lat="-23.1691" lon="55.0"/><trkpt lat="-23.638" lon="54.0"/><trkpt lat="-24.0135" lon="53.2"/><trkpt lat="-24.1076" lon="53.0"/><trkpt lat="-24.5783" lon="52.0"/><trkpt lat="-25.0136" lon="51.08"/><trkpt lat="-25.0515" lon="51.0"/><trkpt lat="-25.526" lon="50.0"/><trkpt lat="-26.0002" lon="49.0"/><trkpt lat="-26.0145" lon="48.97"/><trkpt lat="-26.4748" lon="48.0"/><trkpt lat="-26.9496" lon="47.0"/><trkpt lat="-27.0161" lon="46.86"/><trkpt lat="-27.4241" lon="46.0"/><trkpt lat="-27.8973" lon="45.0"/><trkpt lat="-28.0107" lon="44.76"/><trkpt lat="-28.3706" lon="44.0"/><trkpt lat="-28.8423" lon="43.0"/><trkpt lat="-29.0112" lon="42.64"/><trkpt lat="-29.3111" lon="42.0"/><trkpt lat="-29.7776" lon="41.0"/><trkpt lat="-30.0097" lon="40.5"/><trkpt lat="-30.2404" lon="40.0"/><trkpt lat="-30.6976" lon="39.0"/><trkpt lat="-31.0007" lon="38.34"/><trkpt lat="-31.157" lon="38.0"/><trkpt lat="-31.615" lon="37.0"/><trkpt lat="-32.0067" lon="36.14"/><trkpt lat="-32.0711" lon="36.0"/><trkpt lat="-32.5224" lon="35.0"/><trkpt lat="-32.9669" lon="34.0"/><trkpt lat="-33.0106" lon="33.9"/><trkpt lat="-33.4023" lon="33.0"/><trkpt lat="-33.8323" lon="32.0"/><trkpt lat="-34.0142" lon="31.58"/><trkpt lat="-34.2599" lon="31.0"/><trkpt lat="-34.6822" lon="30.0"/><trkpt lat="-35.0234" lon="29.19"/><trkpt lat="-35.1022" lon="29.0"/><trkpt lat="-35.5073" lon="28.0"/><trkpt lat="-35.9142" lon="27.0"/><trkpt lat="-36.0339" lon="26.7"/><trkpt lat="-36.3067" lon="26.0"/><trkpt lat="-36.6853" lon="25.0"/><trkpt lat="-37.0254" lon="24.07"/><trkpt lat="-37.0507" lon="24.0"/><trkpt lat="-37.4069" lon="23.0"/><trkpt lat="-37.7652" lon="22.0"/><trkpt lat="-38.0234" lon="21.26"/><trkpt lat="-38.1159" lon="21.0"/><trkpt lat="-38.4623" lon="20.0"/><trkpt lat="-38.7815" lon="19.0"/><trkpt lat="-39.0222" lon="18.21"/><trkpt lat="-39.0878" lon="18.0"/><trkpt lat="-39.3829" lon="17.0"/><trkpt lat="-39.6745" lon="16.0"/><trkpt lat="-39.9611" lon="15.0"/><trkpt lat="-40.012" lon="14.82"/><trkpt lat="-40.2337" lon="14.0"/><trkpt lat="-40.499" lon="13.0"/><trkpt lat="-40.7486" lon="12.0"/><trkpt lat="-40.9864" lon="11.0"/><trkpt lat="-41.003" lon="10.93"/><trkpt lat="-41.2164" lon="10.0"/><trkpt lat="-41.4352" lon="9.0"/><trkpt lat="-41.6452" lon="8.0"/><trkpt lat="-41.8464" lon="7.0"/><trkpt lat="-42.0031" lon="6.13"/><trkpt lat="-42.0266" lon="6.0"/><trkpt lat="-42.2041" lon="5.0"/><trkpt lat="-42.3622" lon="4.0"/><trkpt lat="-42.517" lon="3.0"/><trkpt lat="-42.6507" lon="2.0"/><trkpt lat="-42.774" lon="1.0"/><trkpt lat="-42.8908" lon="0.0"/><trkpt lat="-42.9957" lon="-0.97"/><trkpt lat="-42.9988" lon="-1.0"/><trkpt lat="-43.09" lon="-2.0"/><trkpt lat="-43.1748" lon="-3.0"/><trkpt lat="-43.2429" lon="-4.0"/><trkpt lat="-43.2986" lon="-5.0"/><trkpt lat="-43.3503" lon="-6.0"/><trkpt lat="-43.3902" lon="-7.0"/><trkpt lat="-43.4218" lon="-8.0"/><trkpt lat="-43.4325" lon="-9.0"/><trkpt lat="-43.4551" lon="-10.0"/><trkpt lat="-43.4636" lon="-11.0"/><trkpt lat="-43.4235" lon="-12.0"/><trkpt lat="-43.3645" lon="-13.0"/><trkpt lat="-43.3113" lon="-14.0"/><trkpt lat="-43.2639" lon="-15.0"/><trkpt lat="-43.1902" lon="-16.0"/><trkpt lat="-43.1302" lon="-17.0"/><trkpt lat="-43.0409" lon="-18.0"/></trkseg></trk>
</gpx>
