<?xml version="1.0" encoding="UTF-8"?>
<kml xmlns="http://www.opengis.net/kml/2.2"><Document><name>The Moon occults Mercury — 2028-09-20</name>
<description>Graze limits from https://occult.alokm.com/mercury-2028-09-20, traced against the real lunar limb (LRO LOLA).</description>
<Style id="graze"><LineStyle><color>ff06b6d9</color><width>4</width></LineStyle></Style>
<Placemark><name>north graze limit</name><styleUrl>#graze</styleUrl><LineString><tessellate>1</tessellate><coordinates>-142.24,-79.9654,0 -142.0,-79.9349,0 -141.0,-79.7962,0 -140.0,-79.6565,0 -139.0,-79.5076,0 -138.0,-79.3579,0 -137.0,-79.1988,0 -136.0,-79.0343,0 -135.57,-78.9625,0 -135.0,-78.868,0 -134.0,-78.6968,0 -133.0,-78.516,0 -132.0,-78.3315,0 -131.0,-78.1389,0 -130.19,-77.9791,0 -130.0,-77.9396,0 -129.0,-77.7271,0 -128.0,-77.5074,0</coordinates></LineString></Placemark>
<Placemark><name>north graze limit</name><styleUrl>#graze</styleUrl><LineString><tessellate>1</tessellate><coordinates>34.0,-34.6747,0 35.0,-34.9147,0 35.39,-35.0107,0 36.0,-35.1621,0 37.0,-35.4268,0 38.0,-35.7109,0 38.99,-36.0159,0 39.0,-36.0191,0 40.0,-36.3315,0 41.0,-36.6595,0 42.0,-37.0021,0 42.0,-37.0021,0 43.0,-37.3619,0 44.0,-37.7462,0 44.61,-37.9836,0 45.0,-38.142,0 46.0,-38.5709,0 46.94,-38.9986,0 47.0,-39.0255,0 48.0,-39.4881,0 49.0,-39.9688,0 49.05,-39.9931,0 50.0,-40.4676,0 50.97,-40.9814,0 51.0,-40.9971,0 52.0,-41.5516,0 52.75,-41.9825,0 53.0,-42.1292,0 54.0,-42.729,0 54.41,-42.9833,0 55.0,-43.353,0 55.98,-43.9886,0 56.0,-44.0018,0 57.0,-44.6679,0 57.46,-44.9853,0 58.0,-45.365,0 58.87,-45.9859,0 59.0,-46.0817,0 60.0,-46.8224,0 60.21,-46.9792,0 61.0,-47.5805,0 61.5,-47.97,0 62.0,-48.3672,0 62.76,-48.9795,0 63.0,-49.1742,0 63.97,-49.9774,0 64.0,-50.0024,0 65.0,-50.8456,0 65.16,-50.982,0 66.0,-51.7046,0 66.31,-51.9741,0 67.0,-52.5773,0 67.45,-52.9711,0 68.0,-53.4571,0 68.58,-53.9753,0 69.0,-54.3488,0 69.7,-54.9727,0 70.0,-55.2424,0 70.81,-55.9758,0 71.0,-56.1494,0 71.93,-56.986,0 72.0,-57.0474,0 73.0,-57.9439,0 73.04,-57.9799,0 74.0,-58.827,0 74.17,-58.977,0 75.0,-59.7102,0 75.32,-59.986,0 76.0,-60.5701,0 76.48,-60.9812,0 77.0,-61.4197,0 77.67,-61.974,0 78.0,-62.2478,0 78.9,-62.9791,0 79.0,-63.059,0 80.0,-63.8478,0 80.16,-63.9725,0 81.0,-64.618,0 81.48,-64.9812,0 82.0,-65.3788,0 82.84,-65.994,0 83.0,-66.1083,0 84.0,-66.8112,0 84.28,-66.9989,0 85.0,-67.4729,0 85.79,-67.9819,0 86.0,-68.115,0 87.0,-68.7508,0 87.39,-68.9904,0 88.0,-69.3545,0 89.0,-69.9383,0 89.11,-70.0007,0 90.0,-70.5085,0 90.95,-71.0171,0 91.0,-71.043,0 92.0,-71.5583,0 92.94,-72.0207,0 93.0,-72.0485,0 94.0,-72.5082,0 95.0,-72.9547,0 95.13,-73.013,0 96.0,-73.3828,0 97.0,-73.7975,0 97.54,-74.0142,0 98.0,-74.1983,0 99.0,-74.572,0 100.0,-74.9327,0 100.23,-75.0133,0 101.0,-75.2717,0 102.0,-75.5991,0 103.0,-75.9174,0 103.29,-76.0065,0 104.0,-76.2212,0 105.0,-76.5202,0 106.0,-76.7997,0 106.8,-77.012,0 107.0,-77.0649,0 108.0,-77.3208,0 109.0,-77.5649,0 110.0,-77.7964,0 110.94,-78.0082,0 111.0,-78.0208,0 112.0,-78.2368,0 113.0,-78.4428,0 114.0,-78.6356,0 115.0,-78.827,0 115.96,-79.0028,0 116.0,-79.0096,0 117.0,-79.1855,0 118.0,-79.3539,0 119.0,-79.5172,0 120.0,-79.6721,0 121.0,-79.8199,0 122.0,-79.9623,0 122.3,-80.0034,0</coordinates></LineString></Placemark>
</Document></kml>
