<?xml version="1.0" encoding="UTF-8"?>
<kml xmlns="http://www.opengis.net/kml/2.2"><Document><name>The Moon occults Mercury — 2029-02-11</name>
<description>Graze limits from https://occult.alokm.com/mercury-2029-02-11, traced against the real lunar limb (LRO LOLA).</description>
<Style id="graze"><LineStyle><color>ff06b6d9</color><width>4</width></LineStyle></Style>
<Placemark><name>south graze limit</name><styleUrl>#graze</styleUrl><LineString><tessellate>1</tessellate><coordinates>91.29,37.9102,0 91.14,37.7831,0 91.0,37.663,0 90.88,37.5614,0 90.75,37.4514,0 90.62,37.3414,0 90.5,37.2384,0 90.38,37.1371,0 90.25,37.0273,0 90.11,36.9079,0 89.96,36.7816,0 89.81,36.6547,0 89.66,36.5283,0 89.52,36.4108,0 89.38,36.2935,0 89.25,36.1851,0 89.12,36.076,0 89.0,35.9758,0 88.88,35.8764,0 88.75,35.7694,0 88.62,35.6621,0 88.47,35.5381,0 88.32,35.4148,0 88.17,35.2923,0 88.01,35.1613,0 87.88,35.0544,0 87.75,34.9477,0 87.62,34.8415,0 87.5,34.7454,0 87.38,34.6478,0 87.25,34.5434,0 87.1,34.4194,0 86.94,34.29,0 86.79,34.1697,0 86.63,34.0417,0 86.5,33.9364,0 86.38,33.8399,0 86.25,33.7366,0 86.12,33.637,0 86.0,33.5433,0 85.85,33.4304,0 85.69,33.3059,0 85.53,33.1839,0 85.38,33.072,0 85.25,32.9736,0 85.12,32.8764,0 85.0,32.786,0 84.88,32.6988,0 84.73,32.5878,0 84.57,32.4704,0 84.4,32.3464,0 84.25,32.2321,0 84.12,32.1341,0 84.0,32.0419,0 83.88,31.9499,0 83.74,31.8445,0 83.57,31.7194,0 83.4,31.598,0 83.25,31.4908,0 83.12,31.4,0 83.0,31.3152,0 82.88,31.2295,0 82.71,31.1122,0 82.54,30.9926,0 82.38,30.8824,0 82.25,30.7904,0 82.12,30.6981,0 82.0,30.6138,0 81.83,30.4951,0 81.65,30.3707,0 81.5,30.2694,0 81.38,30.1867,0 81.25,30.0979,0 81.09,29.991,0 80.91,29.8742,0 80.75,29.7718,0 80.62,29.6923,0 80.5,29.6092,0 80.33,29.5015,0 80.14,29.3793,0 80.0,29.2916,0 79.88,29.2193,0 79.74,29.1303,0 79.54,29.0066,0 79.38,28.9123,0 79.25,28.834,0 79.12,28.7581,0 78.92,28.6399,0 78.75,28.5385,0 78.62,28.4616,0 78.5,28.392,0 78.28,28.259,0 78.12,28.1652,0 78.0,28.0931,0 77.84,27.9987,0 77.62,27.8673,0 77.5,27.7942,0 77.38,27.7211,0 77.14,27.591,0 77.0,27.5292,0 76.88,27.4753,0 76.66,27.3591,0 76.5,27.2765,0 76.37,27.2111,0 76.17,27.1017,0 76.0,27.0139,0 75.88,26.9531,0 75.65,26.847,0 75.5,26.7792,0 75.38,26.7223,0 75.12,26.5992,0 75.0,26.5383,0 74.83,26.4593,0 74.62,26.3655,0 74.5,26.3059,0 74.25,26.1978,0 74.12,26.1448,0 73.94,26.0801,0 73.75,26.0118,0 73.62,25.9647,0 73.38,25.8697,0 73.25,25.8196,0 73.0,25.7236,0 72.88,25.6712,0 72.63,25.5693,0 72.5,25.5248,0 72.28,25.4565,0 72.12,25.4108,0 71.9,25.3384,0 71.75,25.2915,0 71.52,25.2211,0 71.38,25.1744,0 71.12,25.0922,0 71.0,25.048,0 70.75,24.967,0 70.62,24.9249,0 70.38,24.8597,0 70.23,24.8198,0 70.0,24.7714,0 69.75,24.7208,0 69.62,24.6894,0 69.38,24.6419,0 69.22,24.6029,0 69.0,24.5548,0 68.75,24.5012,0 68.62,24.4699,0 68.38,24.4291,0 68.12,24.3882,0 68.0,24.3704,0 67.75,24.3222,0 67.5,24.2768,0 67.34,24.253,0 67.12,24.2164,0 66.88,24.1857,0 66.62,24.1507,0 66.5,24.1326,0 66.25,24.1058,0 66.0,24.0794,0</coordinates></LineString></Placemark>
</Document></kml>
