<?xml version="1.0" encoding="UTF-8"?>
<gpx version="1.1" creator="https://occult.alokm.com" xmlns="http://www.topografix.com/GPX/1/1">
<metadata><name>The Moon occults Mercury — 2028-09-20 — graze limits</name></metadata>
<trk><name>north graze limit</name><trkseg><trkpt lat="-79.9654" lon="-142.24"/><trkpt lat="-79.9349" lon="-142.0"/><trkpt lat="-79.7962" lon="-141.0"/><trkpt lat="-79.6565" lon="-140.0"/><trkpt lat="-79.5076" lon="-139.0"/><trkpt lat="-79.3579" lon="-138.0"/><trkpt lat="-79.1988" lon="-137.0"/><trkpt lat="-79.0343" lon="-136.0"/><trkpt lat="-78.9625" lon="-135.57"/><trkpt lat="-78.868" lon="-135.0"/><trkpt lat="-78.6968" lon="-134.0"/><trkpt lat="-78.516" lon="-133.0"/><trkpt lat="-78.3315" lon="-132.0"/><trkpt lat="-78.1389" lon="-131.0"/><trkpt lat="-77.9791" lon="-130.19"/><trkpt lat="-77.9396" lon="-130.0"/><trkpt lat="-77.7271" lon="-129.0"/><trkpt lat="-77.5074" lon="-128.0"/></trkseg></trk>
<trk><name>north graze limit</name><trkseg><trkpt lat="-34.6747" lon="34.0"/><trkpt lat="-34.9147" lon="35.0"/><trkpt lat="-35.0107" lon="35.39"/><trkpt lat="-35.1621" lon="36.0"/><trkpt lat="-35.4268" lon="37.0"/><trkpt lat="-35.7109" lon="38.0"/><trkpt lat="-36.0159" lon="38.99"/><trkpt lat="-36.0191" lon="39.0"/><trkpt lat="-36.3315" lon="40.0"/><trkpt lat="-36.6595" lon="41.0"/><trkpt lat="-37.0021" lon="42.0"/><trkpt lat="-37.0021" lon="42.0"/><trkpt lat="-37.3619" lon="43.0"/><trkpt lat="-37.7462" lon="44.0"/><trkpt lat="-37.9836" lon="44.61"/><trkpt lat="-38.142" lon="45.0"/><trkpt lat="-38.5709" lon="46.0"/><trkpt lat="-38.9986" lon="46.94"/><trkpt lat="-39.0255" lon="47.0"/><trkpt lat="-39.4881" lon="48.0"/><trkpt lat="-39.9688" lon="49.0"/><trkpt lat="-39.9931" lon="49.05"/><trkpt lat="-40.4676" lon="50.0"/><trkpt lat="-40.9814" lon="50.97"/><trkpt lat="-40.9971" lon="51.0"/><trkpt lat="-41.5516" lon="52.0"/><trkpt lat="-41.9825" lon="52.75"/><trkpt lat="-42.1292" lon="53.0"/><trkpt lat="-42.729" lon="54.0"/><trkpt lat="-42.9833" lon="54.41"/><trkpt lat="-43.353" lon="55.0"/><trkpt lat="-43.9886" lon="55.98"/><trkpt lat="-44.0018" lon="56.0"/><trkpt lat="-44.6679" lon="57.0"/><trkpt lat="-44.9853" lon="57.46"/><trkpt lat="-45.365" lon="58.0"/><trkpt lat="-45.9859" lon="58.87"/><trkpt lat="-46.0817" lon="59.0"/><trkpt lat="-46.8224" lon="60.0"/><trkpt lat="-46.9792" lon="60.21"/><trkpt lat="-47.5805" lon="61.0"/><trkpt lat="-47.97" lon="61.5"/><trkpt lat="-48.3672" lon="62.0"/><trkpt lat="-48.9795" lon="62.76"/><trkpt lat="-49.1742" lon="63.0"/><trkpt lat="-49.9774" lon="63.97"/><trkpt lat="-50.0024" lon="64.0"/><trkpt lat="-50.8456" lon="65.0"/><trkpt lat="-50.982" lon="65.16"/><trkpt lat="-51.7046" lon="66.0"/><trkpt lat="-51.9741" lon="66.31"/><trkpt lat="-52.5773" lon="67.0"/><trkpt lat="-52.9711" lon="67.45"/><trkpt lat="-53.4571" lon="68.0"/><trkpt lat="-53.9753" lon="68.58"/><trkpt lat="-54.3488" lon="69.0"/><trkpt lat="-54.9727" lon="69.7"/><trkpt lat="-55.2424" lon="70.0"/><trkpt lat="-55.9758" lon="70.81"/><trkpt lat="-56.1494" lon="71.0"/><trkpt lat="-56.986" lon="71.93"/><trkpt lat="-57.0474" lon="72.0"/><trkpt lat="-57.9439" lon="73.0"/><trkpt lat="-57.9799" lon="73.04"/><trkpt lat="-58.827" lon="74.0"/><trkpt lat="-58.977" lon="74.17"/><trkpt lat="-59.7102" lon="75.0"/><trkpt lat="-59.986" lon="75.32"/><trkpt lat="-60.5701" lon="76.0"/><trkpt lat="-60.9812" lon="76.48"/><trkpt lat="-61.4197" lon="77.0"/><trkpt lat="-61.974" lon="77.67"/><trkpt lat="-62.2478" lon="78.0"/><trkpt lat="-62.9791" lon="78.9"/><trkpt lat="-63.059" lon="79.0"/><trkpt lat="-63.8478" lon="80.0"/><trkpt lat="-63.9725" lon="80.16"/><trkpt lat="-64.618" lon="81.0"/><trkpt lat="-64.9812" lon="81.48"/><trkpt lat="-65.3788" lon="82.0"/><trkpt lat="-65.994" lon="82.84"/><trkpt lat="-66.1083" lon="83.0"/><trkpt lat="-66.8112" lon="84.0"/><trkpt lat="-66.9989" lon="84.28"/><trkpt lat="-67.4729" lon="85.0"/><trkpt lat="-67.9819" lon="85.79"/><trkpt lat="-68.115" lon="86.0"/><trkpt lat="-68.7508" lon="87.0"/><trkpt lat="-68.9904" lon="87.39"/><trkpt lat="-69.3545" lon="88.0"/><trkpt lat="-69.9383" lon="89.0"/><trkpt lat="-70.0007" lon="89.11"/><trkpt lat="-70.5085" lon="90.0"/><trkpt lat="-71.0171" lon="90.95"/><trkpt lat="-71.043" lon="91.0"/><trkpt lat="-71.5583" lon="92.0"/><trkpt lat="-72.0207" lon="92.94"/><trkpt lat="-72.0485" lon="93.0"/><trkpt lat="-72.5082" lon="94.0"/><trkpt lat="-72.9547" lon="95.0"/><trkpt lat="-73.013" lon="95.13"/><trkpt lat="-73.3828" lon="96.0"/><trkpt lat="-73.7975" lon="97.0"/><trkpt lat="-74.0142" lon="97.54"/><trkpt lat="-74.1983" lon="98.0"/><trkpt lat="-74.572" lon="99.0"/><trkpt lat="-74.9327" lon="100.0"/><trkpt lat="-75.0133" lon="100.23"/><trkpt lat="-75.2717" lon="101.0"/><trkpt lat="-75.5991" lon="102.0"/><trkpt lat="-75.9174" lon="103.0"/><trkpt lat="-76.0065" lon="103.29"/><trkpt lat="-76.2212" lon="104.0"/><trkpt lat="-76.5202" lon="105.0"/><trkpt lat="-76.7997" lon="106.0"/><trkpt lat="-77.012" lon="106.8"/><trkpt lat="-77.0649" lon="107.0"/><trkpt lat="-77.3208" lon="108.0"/><trkpt lat="-77.5649" lon="109.0"/><trkpt lat="-77.7964" lon="110.0"/><trkpt lat="-78.0082" lon="110.94"/><trkpt lat="-78.0208" lon="111.0"/><trkpt lat="-78.2368" lon="112.0"/><trkpt lat="-78.4428" lon="113.0"/><trkpt lat="-78.6356" lon="114.0"/><trkpt lat="-78.827" lon="115.0"/><trkpt lat="-79.0028" lon="115.96"/><trkpt lat="-79.0096" lon="116.0"/><trkpt lat="-79.1855" lon="117.0"/><trkpt lat="-79.3539" lon="118.0"/><trkpt lat="-79.5172" lon="119.0"/><trkpt lat="-79.6721" lon="120.0"/><trkpt lat="-79.8199" lon="121.0"/><trkpt lat="-79.9623" lon="122.0"/><trkpt lat="-80.0034" lon="122.3"/></trkseg></trk>
</gpx>
