<?xml version="1.0" encoding="UTF-8"?>
<gpx version="1.1" creator="https://occult.alokm.com" xmlns="http://www.topografix.com/GPX/1/1">
<metadata><name>The Moon occults Mercury — 2029-02-11 — graze limits</name></metadata>
<trk><name>south graze limit</name><trkseg><trkpt lat="37.9102" lon="91.29"/><trkpt lat="37.7831" lon="91.14"/><trkpt lat="37.663" lon="91.0"/><trkpt lat="37.5614" lon="90.88"/><trkpt lat="37.4514" lon="90.75"/><trkpt lat="37.3414" lon="90.62"/><trkpt lat="37.2384" lon="90.5"/><trkpt lat="37.1371" lon="90.38"/><trkpt lat="37.0273" lon="90.25"/><trkpt lat="36.9079" lon="90.11"/><trkpt lat="36.7816" lon="89.96"/><trkpt lat="36.6547" lon="89.81"/><trkpt lat="36.5283" lon="89.66"/><trkpt lat="36.4108" lon="89.52"/><trkpt lat="36.2935" lon="89.38"/><trkpt lat="36.1851" lon="89.25"/><trkpt lat="36.076" lon="89.12"/><trkpt lat="35.9758" lon="89.0"/><trkpt lat="35.8764" lon="88.88"/><trkpt lat="35.7694" lon="88.75"/><trkpt lat="35.6621" lon="88.62"/><trkpt lat="35.5381" lon="88.47"/><trkpt lat="35.4148" lon="88.32"/><trkpt lat="35.2923" lon="88.17"/><trkpt lat="35.1613" lon="88.01"/><trkpt lat="35.0544" lon="87.88"/><trkpt lat="34.9477" lon="87.75"/><trkpt lat="34.8415" lon="87.62"/><trkpt lat="34.7454" lon="87.5"/><trkpt lat="34.6478" lon="87.38"/><trkpt lat="34.5434" lon="87.25"/><trkpt lat="34.4194" lon="87.1"/><trkpt lat="34.29" lon="86.94"/><trkpt lat="34.1697" lon="86.79"/><trkpt lat="34.0417" lon="86.63"/><trkpt lat="33.9364" lon="86.5"/><trkpt lat="33.8399" lon="86.38"/><trkpt lat="33.7366" lon="86.25"/><trkpt lat="33.637" lon="86.12"/><trkpt lat="33.5433" lon="86.0"/><trkpt lat="33.4304" lon="85.85"/><trkpt lat="33.3059" lon="85.69"/><trkpt lat="33.1839" lon="85.53"/><trkpt lat="33.072" lon="85.38"/><trkpt lat="32.9736" lon="85.25"/><trkpt lat="32.8764" lon="85.12"/><trkpt lat="32.786" lon="85.0"/><trkpt lat="32.6988" lon="84.88"/><trkpt lat="32.5878" lon="84.73"/><trkpt lat="32.4704" lon="84.57"/><trkpt lat="32.3464" lon="84.4"/><trkpt lat="32.2321" lon="84.25"/><trkpt lat="32.1341" lon="84.12"/><trkpt lat="32.0419" lon="84.0"/><trkpt lat="31.9499" lon="83.88"/><trkpt lat="31.8445" lon="83.74"/><trkpt lat="31.7194" lon="83.57"/><trkpt lat="31.598" lon="83.4"/><trkpt lat="31.4908" lon="83.25"/><trkpt lat="31.4" lon="83.12"/><trkpt lat="31.3152" lon="83.0"/><trkpt lat="31.2295" lon="82.88"/><trkpt lat="31.1122" lon="82.71"/><trkpt lat="30.9926" lon="82.54"/><trkpt lat="30.8824" lon="82.38"/><trkpt lat="30.7904" lon="82.25"/><trkpt lat="30.6981" lon="82.12"/><trkpt lat="30.6138" lon="82.0"/><trkpt lat="30.4951" lon="81.83"/><trkpt lat="30.3707" lon="81.65"/><trkpt lat="30.2694" lon="81.5"/><trkpt lat="30.1867" lon="81.38"/><trkpt lat="30.0979" lon="81.25"/><trkpt lat="29.991" lon="81.09"/><trkpt lat="29.8742" lon="80.91"/><trkpt lat="29.7718" lon="80.75"/><trkpt lat="29.6923" lon="80.62"/><trkpt lat="29.6092" lon="80.5"/><trkpt lat="29.5015" lon="80.33"/><trkpt lat="29.3793" lon="80.14"/><trkpt lat="29.2916" lon="80.0"/><trkpt lat="29.2193" lon="79.88"/><trkpt lat="29.1303" lon="79.74"/><trkpt lat="29.0066" lon="79.54"/><trkpt lat="28.9123" lon="79.38"/><trkpt lat="28.834" lon="79.25"/><trkpt lat="28.7581" lon="79.12"/><trkpt lat="28.6399" lon="78.92"/><trkpt lat="28.5385" lon="78.75"/><trkpt lat="28.4616" lon="78.62"/><trkpt lat="28.392" lon="78.5"/><trkpt lat="28.259" lon="78.28"/><trkpt lat="28.1652" lon="78.12"/><trkpt lat="28.0931" lon="78.0"/><trkpt lat="27.9987" lon="77.84"/><trkpt lat="27.8673" lon="77.62"/><trkpt lat="27.7942" lon="77.5"/><trkpt lat="27.7211" lon="77.38"/><trkpt lat="27.591" lon="77.14"/><trkpt lat="27.5292" lon="77.0"/><trkpt lat="27.4753" lon="76.88"/><trkpt lat="27.3591" lon="76.66"/><trkpt lat="27.2765" lon="76.5"/><trkpt lat="27.2111" lon="76.37"/><trkpt lat="27.1017" lon="76.17"/><trkpt lat="27.0139" lon="76.0"/><trkpt lat="26.9531" lon="75.88"/><trkpt lat="26.847" lon="75.65"/><trkpt lat="26.7792" lon="75.5"/><trkpt lat="26.7223" lon="75.38"/><trkpt lat="26.5992" lon="75.12"/><trkpt lat="26.5383" lon="75.0"/><trkpt lat="26.4593" lon="74.83"/><trkpt lat="26.3655" lon="74.62"/><trkpt lat="26.3059" lon="74.5"/><trkpt lat="26.1978" lon="74.25"/><trkpt lat="26.1448" lon="74.12"/><trkpt lat="26.0801" lon="73.94"/><trkpt lat="26.0118" lon="73.75"/><trkpt lat="25.9647" lon="73.62"/><trkpt lat="25.8697" lon="73.38"/><trkpt lat="25.8196" lon="73.25"/><trkpt lat="25.7236" lon="73.0"/><trkpt lat="25.6712" lon="72.88"/><trkpt lat="25.5693" lon="72.63"/><trkpt lat="25.5248" lon="72.5"/><trkpt lat="25.4565" lon="72.28"/><trkpt lat="25.4108" lon="72.12"/><trkpt lat="25.3384" lon="71.9"/><trkpt lat="25.2915" lon="71.75"/><trkpt lat="25.2211" lon="71.52"/><trkpt lat="25.1744" lon="71.38"/><trkpt lat="25.0922" lon="71.12"/><trkpt lat="25.048" lon="71.0"/><trkpt lat="24.967" lon="70.75"/><trkpt lat="24.9249" lon="70.62"/><trkpt lat="24.8597" lon="70.38"/><trkpt lat="24.8198" lon="70.23"/><trkpt lat="24.7714" lon="70.0"/><trkpt lat="24.7208" lon="69.75"/><trkpt lat="24.6894" lon="69.62"/><trkpt lat="24.6419" lon="69.38"/><trkpt lat="24.6029" lon="69.22"/><trkpt lat="24.5548" lon="69.0"/><trkpt lat="24.5012" lon="68.75"/><trkpt lat="24.4699" lon="68.62"/><trkpt lat="24.4291" lon="68.38"/><trkpt lat="24.3882" lon="68.12"/><trkpt lat="24.3704" lon="68.0"/><trkpt lat="24.3222" lon="67.75"/><trkpt lat="24.2768" lon="67.5"/><trkpt lat="24.253" lon="67.34"/><trkpt lat="24.2164" lon="67.12"/><trkpt lat="24.1857" lon="66.88"/><trkpt lat="24.1507" lon="66.62"/><trkpt lat="24.1326" lon="66.5"/><trkpt lat="24.1058" lon="66.25"/><trkpt lat="24.0794" lon="66.0"/></trkseg></trk>
</gpx>
