<?xml version="1.0" encoding="UTF-8"?>
<kml xmlns="http://www.opengis.net/kml/2.2"><Document><name>The Moon occults Mercury — 2027-02-08</name>
<description>Graze limits from https://occult.alokm.com/mercury-2027-02-08, traced against the real lunar limb (LRO LOLA).</description>
<Style id="graze"><LineStyle><color>ff06b6d9</color><width>4</width></LineStyle></Style>
<Placemark><name>south graze limit</name><styleUrl>#graze</styleUrl><LineString><tessellate>1</tessellate><coordinates>180.0,-25.3949,0 179.17,-26.0053,0 179.0,-26.1284,0 178.0,-26.9082,0 177.91,-26.9823,0 177.0,-27.7403,0 176.72,-27.9711,0 176.0,-28.5908,0 175.56,-28.9746,0 175.0,-29.4638,0 174.44,-29.9637,0 174.0,-30.3636,0 173.35,-30.9626,0 173.0,-31.2908,0 172.28,-31.9709,0 172.0,-32.2363,0 171.23,-32.9704,0 171.0,-33.1918,0 170.19,-33.9729,0 170.0,-34.1577,0 169.17,-34.9679,0 169.0,-35.1342,0 168.15,-35.9656,0 168.0,-36.1124,0 167.12,-36.9729,0 167.0,-37.09,0 166.09,-37.974,0 166.0,-38.0613,0 165.06,-38.9692,0 165.0,-39.0273,0 164.01,-39.9722,0 164.0,-39.9817,0 163.0,-40.922,0 162.94,-40.9774,0 162.0,-41.8371,0 161.86,-41.9646,0 161.0,-42.735,0 160.74,-42.9662,0 160.0,-43.6197,0 159.6,-43.9699,0 159.0,-44.4828,0 158.41,-44.9779,0 158.0,-45.3237,0 157.19,-45.9789,0 157.0,-46.1294,0 156.0,-46.9261,0 155.91,-46.9968,0 155.0,-47.7184,0 154.59,-48.0315,0 154.0,-48.4697,0 153.19,-49.0338,0 153.0,-49.1661,0 152.0,-49.8259,0 151.73,-50.0031,0 151.0,-50.4842,0 150.19,-50.9875,0 150.0,-51.1025,0 149.0,-51.7076,0 148.55,-51.9764,0 148.0,-52.3005,0 147.0,-52.8732,0 146.81,-52.9789,0 146.0,-53.4297,0 145.0,-53.9752,0 144.95,-54.0011,0 144.0,-54.5053,0 143.0,-55.0076,0 142.95,-55.0311,0 142.0,-55.4814,0 141.0,-55.9531,0 140.78,-56.0539,0 140.0,-56.4064,0 139.0,-56.8336,0 138.42,-57.0678,0 138.0,-57.235,0 137.0,-57.6032,0 136.0,-57.9717,0 135.84,-58.0295,0 135.0,-58.3273,0 134.0,-58.6706,0 133.0,-59.0126,0 132.97,-59.0225,0 132.0,-59.329,0 131.0,-59.6409,0 130.0,-59.9401,0 129.75,-60.0149,0 129.0,-60.2318,0 128.0,-60.5066,0 127.0,-60.7664,0 126.08,-60.996,0 126.0,-61.0158,0 125.0,-61.2605,0 124.0,-61.4973,0 123.0,-61.7254,0 122.0,-61.9419,0 121.78,-61.9874,0 121.0,-62.1459,0 120.0,-62.3457,0 119.0,-62.5332,0 118.0,-62.72,0 117.0,-62.8979,0 116.57,-62.9743,0 116.0,-63.0708,0 115.0,-63.2353,0 114.0,-63.3965,0 113.0,-63.5484,0 112.0,-63.691,0 111.0,-63.83,0 110.0,-63.9622,0 109.77,-63.9925,0 109.0,-64.0876,0 108.0,-64.1988,0 107.0,-64.3103,0 106.0,-64.4102,0 105.0,-64.5078,0 104.0,-64.6017,0 103.0,-64.6855,0 102.0,-64.7672,0 101.0,-64.8439,0 100.0,-64.9123,0 99.0,-64.9742,0 98.84,-64.9837,0 98.0,-65.035,0 97.0,-65.0939,0 96.0,-65.146,0 95.0,-65.1919,0 94.0,-65.2352,0 93.0,-65.2733,0 92.0,-65.3081,0 91.0,-65.3397,0 90.0,-65.3639,0 89.0,-65.3805,0 88.0,-65.3899,0 87.0,-65.3942,0 86.0,-65.3925,0 85.0,-65.3784,0 84.0,-65.3553,0 83.0,-65.3373,0 82.0,-65.3233,0 81.0,-65.3024,0 80.0,-65.2784,0 79.0,-65.2515,0 78.0,-65.2229,0 77.0,-65.1948,0 76.0,-65.1547,0 75.0,-65.1028,0 74.0,-65.0479,0 73.8,-65.036,0 73.0,-64.9886,0 72.0,-64.9255,0 71.0,-64.8526,0 70.0,-64.7788,0 69.0,-64.6981,0 68.0,-64.6084,0 67.0,-64.5089,0 66.0,-64.409,0 65.0,-64.3067,0 64.0,-64.1993,0 63.0,-64.0883,0</coordinates></LineString></Placemark>
<Placemark><name>north graze limit</name><styleUrl>#graze</styleUrl><LineString><tessellate>1</tessellate><coordinates>76.0,-29.8977,0 76.85,-29.9999,0 77.0,-30.0177,0 78.0,-30.1267,0 79.0,-30.2333,0 80.0,-30.3346,0 81.0,-30.4304,0 82.0,-30.5179,0 83.0,-30.601,0 84.0,-30.6685,0 85.0,-30.7373,0 86.0,-30.7924,0 87.0,-30.8405,0 88.0,-30.8853,0 89.0,-30.917,0 90.0,-30.9413,0 91.0,-30.956,0 92.0,-30.96,0 93.0,-30.9599,0 94.0,-30.9444,0 95.0,-30.9199,0 96.0,-30.8885,0 97.0,-30.851,0 98.0,-30.8009,0 99.0,-30.7366,0 100.0,-30.6655,0 101.0,-30.5825,0 102.0,-30.4857,0 103.0,-30.3751,0 104.0,-30.2548,0 105.0,-30.1234,0 105.85,-30.003,0 106.0,-29.9804,0 107.0,-29.8218,0 108.0,-29.6496,0 109.0,-29.463,0 110.0,-29.26,0 111.0,-29.0416,0 111.16,-29.0049,0 112.0,-28.8047,0 113.0,-28.5578,0 114.0,-28.2875,0 114.99,-28.0031,0 115.0,-27.9998,0 116.0,-27.6946,0 117.0,-27.3686,0 118.0,-27.0201,0 118.05,-27.0024,0 119.0,-26.6493,0 120.0,-26.2561,0 120.64,-25.9894,0 121.0,-25.8473,0 122.0,-25.4147,0 122.89,-25.0077,0 123.0,-24.9568,0 124.0,-24.4713,0 124.9,-23.993,0 125.0,-23.94,0 126.0,-23.3864,0 126.7,-22.991,0 127.0,-22.8144,0 128.0,-22.2137,0 128.36,-21.9804,0 129.0,-21.5711,0 129.88,-20.995,0 130.0,-20.9133,0 131.0,-20.217,0 131.3,-19.9998,0 132.0,-19.4739,0 132.63,-18.9813,0 133.0,-18.686,0 133.89,-17.9778,0 134.0,-17.8913,0 135.0,-17.0679,0 135.09,-16.9919,0 136.0,-16.2068,0 136.23,-16.0059,0 137.0,-15.3085,0 137.33,-15.0122,0 138.0,-14.3847,0 138.39,-14.0113,0 139.0,-13.4191,0 139.42,-13.0102,0 140.0,-12.4414,0 140.43,-12.0115,0 141.0,-11.4359,0 141.42,-11.0058,0 142.0,-10.4097,0 142.39,-10.0085,0 143.0,-9.3788,0 143.36,-9.0048,0 144.0,-8.338,0 144.32,-8.0044,0 145.0,-7.295,0 145.27,-7.0138,0 146.0,-6.2518,0 146.24,-6.0017,0 147.0,-5.2158,0 147.2,-5.0111,0 148.0,-4.1998,0 148.18,-4.0176,0 149.0,-3.1898,0 149.17,-3.0198,0 150.0,-2.1925,0 150.19,-2.0078,0 151.0,-1.226,0 151.22,-1.0166,0 152.0,-0.2755,0 152.28,-0.0088,0 153.0,0.6555,0 153.37,0.9936,0 154.0,1.56,0 154.5,2.0084,0 155.0,2.439,0 155.67,3.0133,0 156.0,3.3001,0 156.88,4.0294,0 157.0,4.1259,0 158.0,4.902,0 158.14,5.0085,0 159.0,5.6523,0 159.47,6.0045,0 160.0,6.3921,0 160.86,7.0123,0 161.0,7.1107,0 162.0,7.7969,0 162.32,8.018,0 163.0,8.4669,0 163.86,9.0091,0 164.0,9.0953,0 165.0,9.7124,0 165.5,10.0144,0 166.0,10.2997,0 167.0,10.8757,0 167.25,11.0131,0 168.0,11.4187,0 169.0,11.9393,0 169.12,11.9997,0 170.0,12.4436,0 171.0,12.926,0 171.14,12.9946,0 172.0,13.3946,0 173.0,13.8563,0 173.33,14.0003,0 174.0,14.2937,0 175.0,14.722,0 175.71,15.0046,0 176.0,15.119,0 177.0,15.5049,0 178.0,15.8738,0 178.35,16.0014,0 179.0,16.2307,0 180.0,16.5748,0</coordinates></LineString></Placemark>
<Placemark><name>north graze limit</name><styleUrl>#graze</styleUrl><LineString><tessellate>1</tessellate><coordinates>-180.0,16.5748,0 -179.0,16.9042,0 -178.71,16.9995,0 -178.0,17.2215,0 -177.0,17.5294,0 -176.0,17.8193,0 -175.37,17.9979,0 -175.0,18.0994,0 -174.0,18.3676,0 -173.0,18.6281,0 -172.0,18.8748,0 -171.48,18.9994,0 -171.0,19.1091,0 -170.0,19.3344,0 -169.0,19.5504,0 -168.0,19.7565,0 -167.0,19.949,0 -166.76,19.9943,0 -166.0,20.1334,0 -165.0,20.3157,0 -164.0,20.4833,0</coordinates></LineString></Placemark>
<Placemark><name>south graze limit</name><styleUrl>#graze</styleUrl><LineString><tessellate>1</tessellate><coordinates>-152.0,-13.5866,0 -153.0,-13.7584,0 -154.0,-13.9444,0 -154.12,-13.9683,0 -155.0,-14.149,0 -156.0,-14.3727,0 -157.0,-14.6141,0 -158.0,-14.863,0 -158.49,-14.9894,0 -159.0,-15.1262,0 -160.0,-15.4125,0 -161.0,-15.7215,0 -161.95,-16.0154,0 -162.0,-16.0307,0 -163.0,-16.3589,0 -164.0,-16.7123,0 -164.85,-17.0199,0 -165.0,-17.0771,0 -166.0,-17.472,0 -167.0,-17.9024,0 -167.36,-18.0646,0 -168.0,-18.3453,0 -169.0,-18.7873,0 -169.58,-19.0471,0 -170.0,-19.2361,0 -171.0,-19.7269,0 -171.59,-20.0274,0 -172.0,-20.2279,0 -173.0,-20.7548,0 -173.42,-20.9814,0 -174.0,-21.3124,0 -175.0,-21.9093,0 -175.11,-21.9757,0 -176.0,-22.5375,0 -176.67,-22.9907,0 -177.0,-23.2144,0 -178.0,-23.9059,0 -178.14,-24.0061,0 -179.0,-24.6455,0 -179.52,-25.0405,0 -180.0,-25.3949,0</coordinates></LineString></Placemark>
</Document></kml>
