<?xml version="1.0" encoding="UTF-8"?>
<gpx version="1.1" creator="https://occult.alokm.com" xmlns="http://www.topografix.com/GPX/1/1">
<metadata><name>The Moon occults Mercury — 2027-02-08 — graze limits</name></metadata>
<trk><name>south graze limit</name><trkseg><trkpt lat="-25.3949" lon="180.0"/><trkpt lat="-26.0053" lon="179.17"/><trkpt lat="-26.1284" lon="179.0"/><trkpt lat="-26.9082" lon="178.0"/><trkpt lat="-26.9823" lon="177.91"/><trkpt lat="-27.7403" lon="177.0"/><trkpt lat="-27.9711" lon="176.72"/><trkpt lat="-28.5908" lon="176.0"/><trkpt lat="-28.9746" lon="175.56"/><trkpt lat="-29.4638" lon="175.0"/><trkpt lat="-29.9637" lon="174.44"/><trkpt lat="-30.3636" lon="174.0"/><trkpt lat="-30.9626" lon="173.35"/><trkpt lat="-31.2908" lon="173.0"/><trkpt lat="-31.9709" lon="172.28"/><trkpt lat="-32.2363" lon="172.0"/><trkpt lat="-32.9704" lon="171.23"/><trkpt lat="-33.1918" lon="171.0"/><trkpt lat="-33.9729" lon="170.19"/><trkpt lat="-34.1577" lon="170.0"/><trkpt lat="-34.9679" lon="169.17"/><trkpt lat="-35.1342" lon="169.0"/><trkpt lat="-35.9656" lon="168.15"/><trkpt lat="-36.1124" lon="168.0"/><trkpt lat="-36.9729" lon="167.12"/><trkpt lat="-37.09" lon="167.0"/><trkpt lat="-37.974" lon="166.09"/><trkpt lat="-38.0613" lon="166.0"/><trkpt lat="-38.9692" lon="165.06"/><trkpt lat="-39.0273" lon="165.0"/><trkpt lat="-39.9722" lon="164.01"/><trkpt lat="-39.9817" lon="164.0"/><trkpt lat="-40.922" lon="163.0"/><trkpt lat="-40.9774" lon="162.94"/><trkpt lat="-41.8371" lon="162.0"/><trkpt lat="-41.9646" lon="161.86"/><trkpt lat="-42.735" lon="161.0"/><trkpt lat="-42.9662" lon="160.74"/><trkpt lat="-43.6197" lon="160.0"/><trkpt lat="-43.9699" lon="159.6"/><trkpt lat="-44.4828" lon="159.0"/><trkpt lat="-44.9779" lon="158.41"/><trkpt lat="-45.3237" lon="158.0"/><trkpt lat="-45.9789" lon="157.19"/><trkpt lat="-46.1294" lon="157.0"/><trkpt lat="-46.9261" lon="156.0"/><trkpt lat="-46.9968" lon="155.91"/><trkpt lat="-47.7184" lon="155.0"/><trkpt lat="-48.0315" lon="154.59"/><trkpt lat="-48.4697" lon="154.0"/><trkpt lat="-49.0338" lon="153.19"/><trkpt lat="-49.1661" lon="153.0"/><trkpt lat="-49.8259" lon="152.0"/><trkpt lat="-50.0031" lon="151.73"/><trkpt lat="-50.4842" lon="151.0"/><trkpt lat="-50.9875" lon="150.19"/><trkpt lat="-51.1025" lon="150.0"/><trkpt lat="-51.7076" lon="149.0"/><trkpt lat="-51.9764" lon="148.55"/><trkpt lat="-52.3005" lon="148.0"/><trkpt lat="-52.8732" lon="147.0"/><trkpt lat="-52.9789" lon="146.81"/><trkpt lat="-53.4297" lon="146.0"/><trkpt lat="-53.9752" lon="145.0"/><trkpt lat="-54.0011" lon="144.95"/><trkpt lat="-54.5053" lon="144.0"/><trkpt lat="-55.0076" lon="143.0"/><trkpt lat="-55.0311" lon="142.95"/><trkpt lat="-55.4814" lon="142.0"/><trkpt lat="-55.9531" lon="141.0"/><trkpt lat="-56.0539" lon="140.78"/><trkpt lat="-56.4064" lon="140.0"/><trkpt lat="-56.8336" lon="139.0"/><trkpt lat="-57.0678" lon="138.42"/><trkpt lat="-57.235" lon="138.0"/><trkpt lat="-57.6032" lon="137.0"/><trkpt lat="-57.9717" lon="136.0"/><trkpt lat="-58.0295" lon="135.84"/><trkpt lat="-58.3273" lon="135.0"/><trkpt lat="-58.6706" lon="134.0"/><trkpt lat="-59.0126" lon="133.0"/><trkpt lat="-59.0225" lon="132.97"/><trkpt lat="-59.329" lon="132.0"/><trkpt lat="-59.6409" lon="131.0"/><trkpt lat="-59.9401" lon="130.0"/><trkpt lat="-60.0149" lon="129.75"/><trkpt lat="-60.2318" lon="129.0"/><trkpt lat="-60.5066" lon="128.0"/><trkpt lat="-60.7664" lon="127.0"/><trkpt lat="-60.996" lon="126.08"/><trkpt lat="-61.0158" lon="126.0"/><trkpt lat="-61.2605" lon="125.0"/><trkpt lat="-61.4973" lon="124.0"/><trkpt lat="-61.7254" lon="123.0"/><trkpt lat="-61.9419" lon="122.0"/><trkpt lat="-61.9874" lon="121.78"/><trkpt lat="-62.1459" lon="121.0"/><trkpt lat="-62.3457" lon="120.0"/><trkpt lat="-62.5332" lon="119.0"/><trkpt lat="-62.72" lon="118.0"/><trkpt lat="-62.8979" lon="117.0"/><trkpt lat="-62.9743" lon="116.57"/><trkpt lat="-63.0708" lon="116.0"/><trkpt lat="-63.2353" lon="115.0"/><trkpt lat="-63.3965" lon="114.0"/><trkpt lat="-63.5484" lon="113.0"/><trkpt lat="-63.691" lon="112.0"/><trkpt lat="-63.83" lon="111.0"/><trkpt lat="-63.9622" lon="110.0"/><trkpt lat="-63.9925" lon="109.77"/><trkpt lat="-64.0876" lon="109.0"/><trkpt lat="-64.1988" lon="108.0"/><trkpt lat="-64.3103" lon="107.0"/><trkpt lat="-64.4102" lon="106.0"/><trkpt lat="-64.5078" lon="105.0"/><trkpt lat="-64.6017" lon="104.0"/><trkpt lat="-64.6855" lon="103.0"/><trkpt lat="-64.7672" lon="102.0"/><trkpt lat="-64.8439" lon="101.0"/><trkpt lat="-64.9123" lon="100.0"/><trkpt lat="-64.9742" lon="99.0"/><trkpt lat="-64.9837" lon="98.84"/><trkpt lat="-65.035" lon="98.0"/><trkpt lat="-65.0939" lon="97.0"/><trkpt lat="-65.146" lon="96.0"/><trkpt lat="-65.1919" lon="95.0"/><trkpt lat="-65.2352" lon="94.0"/><trkpt lat="-65.2733" lon="93.0"/><trkpt lat="-65.3081" lon="92.0"/><trkpt lat="-65.3397" lon="91.0"/><trkpt lat="-65.3639" lon="90.0"/><trkpt lat="-65.3805" lon="89.0"/><trkpt lat="-65.3899" lon="88.0"/><trkpt lat="-65.3942" lon="87.0"/><trkpt lat="-65.3925" lon="86.0"/><trkpt lat="-65.3784" lon="85.0"/><trkpt lat="-65.3553" lon="84.0"/><trkpt lat="-65.3373" lon="83.0"/><trkpt lat="-65.3233" lon="82.0"/><trkpt lat="-65.3024" lon="81.0"/><trkpt lat="-65.2784" lon="80.0"/><trkpt lat="-65.2515" lon="79.0"/><trkpt lat="-65.2229" lon="78.0"/><trkpt lat="-65.1948" lon="77.0"/><trkpt lat="-65.1547" lon="76.0"/><trkpt lat="-65.1028" lon="75.0"/><trkpt lat="-65.0479" lon="74.0"/><trkpt lat="-65.036" lon="73.8"/><trkpt lat="-64.9886" lon="73.0"/><trkpt lat="-64.9255" lon="72.0"/><trkpt lat="-64.8526" lon="71.0"/><trkpt lat="-64.7788" lon="70.0"/><trkpt lat="-64.6981" lon="69.0"/><trkpt lat="-64.6084" lon="68.0"/><trkpt lat="-64.5089" lon="67.0"/><trkpt lat="-64.409" lon="66.0"/><trkpt lat="-64.3067" lon="65.0"/><trkpt lat="-64.1993" lon="64.0"/><trkpt lat="-64.0883" lon="63.0"/></trkseg></trk>
<trk><name>north graze limit</name><trkseg><trkpt lat="-29.8977" lon="76.0"/><trkpt lat="-29.9999" lon="76.85"/><trkpt lat="-30.0177" lon="77.0"/><trkpt lat="-30.1267" lon="78.0"/><trkpt lat="-30.2333" lon="79.0"/><trkpt lat="-30.3346" lon="80.0"/><trkpt lat="-30.4304" lon="81.0"/><trkpt lat="-30.5179" lon="82.0"/><trkpt lat="-30.601" lon="83.0"/><trkpt lat="-30.6685" lon="84.0"/><trkpt lat="-30.7373" lon="85.0"/><trkpt lat="-30.7924" lon="86.0"/><trkpt lat="-30.8405" lon="87.0"/><trkpt lat="-30.8853" lon="88.0"/><trkpt lat="-30.917" lon="89.0"/><trkpt lat="-30.9413" lon="90.0"/><trkpt lat="-30.956" lon="91.0"/><trkpt lat="-30.96" lon="92.0"/><trkpt lat="-30.9599" lon="93.0"/><trkpt lat="-30.9444" lon="94.0"/><trkpt lat="-30.9199" lon="95.0"/><trkpt lat="-30.8885" lon="96.0"/><trkpt lat="-30.851" lon="97.0"/><trkpt lat="-30.8009" lon="98.0"/><trkpt lat="-30.7366" lon="99.0"/><trkpt lat="-30.6655" lon="100.0"/><trkpt lat="-30.5825" lon="101.0"/><trkpt lat="-30.4857" lon="102.0"/><trkpt lat="-30.3751" lon="103.0"/><trkpt lat="-30.2548" lon="104.0"/><trkpt lat="-30.1234" lon="105.0"/><trkpt lat="-30.003" lon="105.85"/><trkpt lat="-29.9804" lon="106.0"/><trkpt lat="-29.8218" lon="107.0"/><trkpt lat="-29.6496" lon="108.0"/><trkpt lat="-29.463" lon="109.0"/><trkpt lat="-29.26" lon="110.0"/><trkpt lat="-29.0416" lon="111.0"/><trkpt lat="-29.0049" lon="111.16"/><trkpt lat="-28.8047" lon="112.0"/><trkpt lat="-28.5578" lon="113.0"/><trkpt lat="-28.2875" lon="114.0"/><trkpt lat="-28.0031" lon="114.99"/><trkpt lat="-27.9998" lon="115.0"/><trkpt lat="-27.6946" lon="116.0"/><trkpt lat="-27.3686" lon="117.0"/><trkpt lat="-27.0201" lon="118.0"/><trkpt lat="-27.0024" lon="118.05"/><trkpt lat="-26.6493" lon="119.0"/><trkpt lat="-26.2561" lon="120.0"/><trkpt lat="-25.9894" lon="120.64"/><trkpt lat="-25.8473" lon="121.0"/><trkpt lat="-25.4147" lon="122.0"/><trkpt lat="-25.0077" lon="122.89"/><trkpt lat="-24.9568" lon="123.0"/><trkpt lat="-24.4713" lon="124.0"/><trkpt lat="-23.993" lon="124.9"/><trkpt lat="-23.94" lon="125.0"/><trkpt lat="-23.3864" lon="126.0"/><trkpt lat="-22.991" lon="126.7"/><trkpt lat="-22.8144" lon="127.0"/><trkpt lat="-22.2137" lon="128.0"/><trkpt lat="-21.9804" lon="128.36"/><trkpt lat="-21.5711" lon="129.0"/><trkpt lat="-20.995" lon="129.88"/><trkpt lat="-20.9133" lon="130.0"/><trkpt lat="-20.217" lon="131.0"/><trkpt lat="-19.9998" lon="131.3"/><trkpt lat="-19.4739" lon="132.0"/><trkpt lat="-18.9813" lon="132.63"/><trkpt lat="-18.686" lon="133.0"/><trkpt lat="-17.9778" lon="133.89"/><trkpt lat="-17.8913" lon="134.0"/><trkpt lat="-17.0679" lon="135.0"/><trkpt lat="-16.9919" lon="135.09"/><trkpt lat="-16.2068" lon="136.0"/><trkpt lat="-16.0059" lon="136.23"/><trkpt lat="-15.3085" lon="137.0"/><trkpt lat="-15.0122" lon="137.33"/><trkpt lat="-14.3847" lon="138.0"/><trkpt lat="-14.0113" lon="138.39"/><trkpt lat="-13.4191" lon="139.0"/><trkpt lat="-13.0102" lon="139.42"/><trkpt lat="-12.4414" lon="140.0"/><trkpt lat="-12.0115" lon="140.43"/><trkpt lat="-11.4359" lon="141.0"/><trkpt lat="-11.0058" lon="141.42"/><trkpt lat="-10.4097" lon="142.0"/><trkpt lat="-10.0085" lon="142.39"/><trkpt lat="-9.3788" lon="143.0"/><trkpt lat="-9.0048" lon="143.36"/><trkpt lat="-8.338" lon="144.0"/><trkpt lat="-8.0044" lon="144.32"/><trkpt lat="-7.295" lon="145.0"/><trkpt lat="-7.0138" lon="145.27"/><trkpt lat="-6.2518" lon="146.0"/><trkpt lat="-6.0017" lon="146.24"/><trkpt lat="-5.2158" lon="147.0"/><trkpt lat="-5.0111" lon="147.2"/><trkpt lat="-4.1998" lon="148.0"/><trkpt lat="-4.0176" lon="148.18"/><trkpt lat="-3.1898" lon="149.0"/><trkpt lat="-3.0198" lon="149.17"/><trkpt lat="-2.1925" lon="150.0"/><trkpt lat="-2.0078" lon="150.19"/><trkpt lat="-1.226" lon="151.0"/><trkpt lat="-1.0166" lon="151.22"/><trkpt lat="-0.2755" lon="152.0"/><trkpt lat="-0.0088" lon="152.28"/><trkpt lat="0.6555" lon="153.0"/><trkpt lat="0.9936" lon="153.37"/><trkpt lat="1.56" lon="154.0"/><trkpt lat="2.0084" lon="154.5"/><trkpt lat="2.439" lon="155.0"/><trkpt lat="3.0133" lon="155.67"/><trkpt lat="3.3001" lon="156.0"/><trkpt lat="4.0294" lon="156.88"/><trkpt lat="4.1259" lon="157.0"/><trkpt lat="4.902" lon="158.0"/><trkpt lat="5.0085" lon="158.14"/><trkpt lat="5.6523" lon="159.0"/><trkpt lat="6.0045" lon="159.47"/><trkpt lat="6.3921" lon="160.0"/><trkpt lat="7.0123" lon="160.86"/><trkpt lat="7.1107" lon="161.0"/><trkpt lat="7.7969" lon="162.0"/><trkpt lat="8.018" lon="162.32"/><trkpt lat="8.4669" lon="163.0"/><trkpt lat="9.0091" lon="163.86"/><trkpt lat="9.0953" lon="164.0"/><trkpt lat="9.7124" lon="165.0"/><trkpt lat="10.0144" lon="165.5"/><trkpt lat="10.2997" lon="166.0"/><trkpt lat="10.8757" lon="167.0"/><trkpt lat="11.0131" lon="167.25"/><trkpt lat="11.4187" lon="168.0"/><trkpt lat="11.9393" lon="169.0"/><trkpt lat="11.9997" lon="169.12"/><trkpt lat="12.4436" lon="170.0"/><trkpt lat="12.926" lon="171.0"/><trkpt lat="12.9946" lon="171.14"/><trkpt lat="13.3946" lon="172.0"/><trkpt lat="13.8563" lon="173.0"/><trkpt lat="14.0003" lon="173.33"/><trkpt lat="14.2937" lon="174.0"/><trkpt lat="14.722" lon="175.0"/><trkpt lat="15.0046" lon="175.71"/><trkpt lat="15.119" lon="176.0"/><trkpt lat="15.5049" lon="177.0"/><trkpt lat="15.8738" lon="178.0"/><trkpt lat="16.0014" lon="178.35"/><trkpt lat="16.2307" lon="179.0"/><trkpt lat="16.5748" lon="180.0"/></trkseg></trk>
<trk><name>north graze limit</name><trkseg><trkpt lat="16.5748" lon="-180.0"/><trkpt lat="16.9042" lon="-179.0"/><trkpt lat="16.9995" lon="-178.71"/><trkpt lat="17.2215" lon="-178.0"/><trkpt lat="17.5294" lon="-177.0"/><trkpt lat="17.8193" lon="-176.0"/><trkpt lat="17.9979" lon="-175.37"/><trkpt lat="18.0994" lon="-175.0"/><trkpt lat="18.3676" lon="-174.0"/><trkpt lat="18.6281" lon="-173.0"/><trkpt lat="18.8748" lon="-172.0"/><trkpt lat="18.9994" lon="-171.48"/><trkpt lat="19.1091" lon="-171.0"/><trkpt lat="19.3344" lon="-170.0"/><trkpt lat="19.5504" lon="-169.0"/><trkpt lat="19.7565" lon="-168.0"/><trkpt lat="19.949" lon="-167.0"/><trkpt lat="19.9943" lon="-166.76"/><trkpt lat="20.1334" lon="-166.0"/><trkpt lat="20.3157" lon="-165.0"/><trkpt lat="20.4833" lon="-164.0"/></trkseg></trk>
<trk><name>south graze limit</name><trkseg><trkpt lat="-13.5866" lon="-152.0"/><trkpt lat="-13.7584" lon="-153.0"/><trkpt lat="-13.9444" lon="-154.0"/><trkpt lat="-13.9683" lon="-154.12"/><trkpt lat="-14.149" lon="-155.0"/><trkpt lat="-14.3727" lon="-156.0"/><trkpt lat="-14.6141" lon="-157.0"/><trkpt lat="-14.863" lon="-158.0"/><trkpt lat="-14.9894" lon="-158.49"/><trkpt lat="-15.1262" lon="-159.0"/><trkpt lat="-15.4125" lon="-160.0"/><trkpt lat="-15.7215" lon="-161.0"/><trkpt lat="-16.0154" lon="-161.95"/><trkpt lat="-16.0307" lon="-162.0"/><trkpt lat="-16.3589" lon="-163.0"/><trkpt lat="-16.7123" lon="-164.0"/><trkpt lat="-17.0199" lon="-164.85"/><trkpt lat="-17.0771" lon="-165.0"/><trkpt lat="-17.472" lon="-166.0"/><trkpt lat="-17.9024" lon="-167.0"/><trkpt lat="-18.0646" lon="-167.36"/><trkpt lat="-18.3453" lon="-168.0"/><trkpt lat="-18.7873" lon="-169.0"/><trkpt lat="-19.0471" lon="-169.58"/><trkpt lat="-19.2361" lon="-170.0"/><trkpt lat="-19.7269" lon="-171.0"/><trkpt lat="-20.0274" lon="-171.59"/><trkpt lat="-20.2279" lon="-172.0"/><trkpt lat="-20.7548" lon="-173.0"/><trkpt lat="-20.9814" lon="-173.42"/><trkpt lat="-21.3124" lon="-174.0"/><trkpt lat="-21.9093" lon="-175.0"/><trkpt lat="-21.9757" lon="-175.11"/><trkpt lat="-22.5375" lon="-176.0"/><trkpt lat="-22.9907" lon="-176.67"/><trkpt lat="-23.2144" lon="-177.0"/><trkpt lat="-23.9059" lon="-178.0"/><trkpt lat="-24.0061" lon="-178.14"/><trkpt lat="-24.6455" lon="-179.0"/><trkpt lat="-25.0405" lon="-179.52"/><trkpt lat="-25.3949" lon="-180.0"/></trkseg></trk>
</gpx>
