<?xml version="1.0" encoding="UTF-8"?>
<gpx version="1.1" creator="https://occult.alokm.com" xmlns="http://www.topografix.com/GPX/1/1">
<metadata><name>The Moon occults Mercury — 2028-02-23 — graze limits</name></metadata>
<trk><name>south graze limit</name><trkseg><trkpt lat="-39.0302" lon="180.0"/><trkpt lat="-39.075" lon="179.95"/><trkpt lat="-39.8929" lon="179.0"/><trkpt lat="-40.0774" lon="178.78"/><trkpt lat="-40.7325" lon="178.0"/><trkpt lat="-41.0819" lon="177.57"/><trkpt lat="-41.5377" lon="177.0"/><trkpt lat="-42.0744" lon="176.31"/><trkpt lat="-42.3136" lon="176.0"/><trkpt lat="-43.0679" lon="175.0"/><trkpt lat="-43.0753" lon="174.99"/><trkpt lat="-43.8002" lon="174.0"/><trkpt lat="-44.0781" lon="173.61"/><trkpt lat="-44.5042" lon="173.0"/><trkpt lat="-45.0831" lon="172.16"/><trkpt lat="-45.1875" lon="172.0"/><trkpt lat="-45.8367" lon="171.0"/><trkpt lat="-46.0812" lon="170.62"/><trkpt lat="-46.4575" lon="170.0"/><trkpt lat="-47.0504" lon="169.0"/><trkpt lat="-47.0673" lon="168.97"/><trkpt lat="-47.5982" lon="168.0"/><trkpt lat="-48.0084" lon="167.21"/><trkpt lat="-48.1196" lon="167.0"/><trkpt lat="-48.6448" lon="166.0"/><trkpt lat="-48.9876" lon="165.31"/><trkpt lat="-49.1434" lon="165.0"/><trkpt lat="-49.6281" lon="164.0"/><trkpt lat="-49.985" lon="163.23"/><trkpt lat="-50.0922" lon="163.0"/><trkpt lat="-50.5409" lon="162.0"/><trkpt lat="-50.9627" lon="161.0"/><trkpt lat="-50.9836" lon="160.95"/><trkpt lat="-51.3851" lon="160.0"/><trkpt lat="-51.7914" lon="159.0"/><trkpt lat="-52.028" lon="158.4"/><trkpt lat="-52.1646" lon="158.0"/><trkpt lat="-52.5125" lon="157.0"/><trkpt lat="-52.863" lon="156.0"/><trkpt lat="-53.0152" lon="155.53"/><trkpt lat="-53.1825" lon="155.0"/><trkpt lat="-53.5014" lon="154.0"/><trkpt lat="-53.8041" lon="153.0"/><trkpt lat="-54.0295" lon="152.2"/><trkpt lat="-54.0812" lon="152.0"/><trkpt lat="-54.3419" lon="151.0"/><trkpt lat="-54.5965" lon="150.0"/><trkpt lat="-54.8517" lon="149.0"/><trkpt lat="-55.0217" lon="148.23"/><trkpt lat="-55.0734" lon="148.0"/><trkpt lat="-55.2982" lon="147.0"/><trkpt lat="-55.5206" lon="146.0"/><trkpt lat="-55.7216" lon="145.0"/><trkpt lat="-55.9029" lon="144.0"/><trkpt lat="-56.0306" lon="143.18"/><trkpt lat="-56.0599" lon="143.0"/><trkpt lat="-56.2154" lon="142.0"/><trkpt lat="-56.3644" lon="141.0"/><trkpt lat="-56.5111" lon="140.0"/><trkpt lat="-56.6335" lon="139.0"/><trkpt lat="-56.7598" lon="138.0"/><trkpt lat="-56.8724" lon="137.0"/><trkpt lat="-56.9747" lon="136.0"/><trkpt lat="-56.9987" lon="135.75"/><trkpt lat="-57.0724" lon="135.0"/><trkpt lat="-57.154" lon="134.0"/><trkpt lat="-57.2312" lon="133.0"/><trkpt lat="-57.306" lon="132.0"/><trkpt lat="-57.3672" lon="131.0"/><trkpt lat="-57.4205" lon="130.0"/><trkpt lat="-57.4652" lon="129.0"/><trkpt lat="-57.5038" lon="128.0"/><trkpt lat="-57.5395" lon="127.0"/><trkpt lat="-57.5666" lon="126.0"/><trkpt lat="-57.5936" lon="125.0"/><trkpt lat="-57.6122" lon="124.0"/><trkpt lat="-57.6261" lon="123.0"/><trkpt lat="-57.6288" lon="122.0"/><trkpt lat="-57.6185" lon="121.0"/><trkpt lat="-57.5991" lon="120.0"/><trkpt lat="-57.574" lon="119.0"/><trkpt lat="-57.5451" lon="118.0"/><trkpt lat="-57.5107" lon="117.0"/><trkpt lat="-57.4606" lon="116.0"/><trkpt lat="-57.4034" lon="115.0"/><trkpt lat="-57.3385" lon="114.0"/><trkpt lat="-57.2716" lon="113.0"/><trkpt lat="-57.2115" lon="112.0"/><trkpt lat="-57.1441" lon="111.0"/><trkpt lat="-57.05" lon="110.0"/><trkpt lat="-57.0091" lon="109.61"/><trkpt lat="-56.9524" lon="109.0"/><trkpt lat="-56.8609" lon="108.0"/><trkpt lat="-56.7589" lon="107.0"/><trkpt lat="-56.6448" lon="106.0"/><trkpt lat="-56.5228" lon="105.0"/><trkpt lat="-56.385" lon="104.0"/><trkpt lat="-56.2333" lon="103.0"/><trkpt lat="-56.0923" lon="102.0"/><trkpt lat="-55.9955" lon="101.29"/><trkpt lat="-55.9549" lon="101.0"/><trkpt lat="-55.8134" lon="100.0"/><trkpt lat="-55.6704" lon="99.0"/><trkpt lat="-55.5105" lon="98.0"/><trkpt lat="-55.338" lon="97.0"/><trkpt lat="-55.1546" lon="96.0"/><trkpt lat="-55.0294" lon="95.34"/><trkpt lat="-54.9671" lon="95.0"/><trkpt lat="-54.774" lon="94.0"/><trkpt lat="-54.5656" lon="93.0"/><trkpt lat="-54.3436" lon="92.0"/><trkpt lat="-54.1214" lon="91.0"/><trkpt lat="-53.9906" lon="90.43"/><trkpt lat="-53.8924" lon="90.0"/><trkpt lat="-53.6622" lon="89.0"/><trkpt lat="-53.4354" lon="88.0"/><trkpt lat="-53.2019" lon="87.0"/><trkpt lat="-52.9997" lon="86.14"/><trkpt lat="-52.966" lon="86.0"/><trkpt lat="-52.7165" lon="85.0"/><trkpt lat="-52.455" lon="84.0"/><trkpt lat="-52.1888" lon="83.0"/><trkpt lat="-51.9967" lon="82.29"/><trkpt lat="-51.9181" lon="82.0"/><trkpt lat="-51.6434" lon="81.0"/><trkpt lat="-51.3667" lon="80.0"/><trkpt lat="-51.0771" lon="79.0"/><trkpt lat="-51.001" lon="78.74"/><trkpt lat="-50.7818" lon="78.0"/><trkpt lat="-50.4826" lon="77.0"/><trkpt lat="-50.1808" lon="76.0"/><trkpt lat="-50.0082" lon="75.43"/><trkpt lat="-49.8752" lon="75.0"/><trkpt lat="-49.5593" lon="74.0"/></trkseg></trk>
<trk><name>north graze limit</name><trkseg><trkpt lat="-18.61" lon="93.0"/><trkpt lat="-18.9195" lon="94.0"/><trkpt lat="-19.0034" lon="94.27"/><trkpt lat="-19.2197" lon="95.0"/><trkpt lat="-19.5167" lon="96.0"/><trkpt lat="-19.8127" lon="97.0"/><trkpt lat="-20.0016" lon="97.65"/><trkpt lat="-20.1015" lon="98.0"/><trkpt lat="-20.3812" lon="99.0"/><trkpt lat="-20.6589" lon="100.0"/><trkpt lat="-20.9271" lon="101.0"/><trkpt lat="-21.0024" lon="101.27"/><trkpt lat="-21.1964" lon="102.0"/><trkpt lat="-21.4532" lon="103.0"/><trkpt lat="-21.6986" lon="104.0"/><trkpt lat="-21.938" lon="105.0"/><trkpt lat="-22.0029" lon="105.27"/><trkpt lat="-22.1709" lon="106.0"/><trkpt lat="-22.3968" lon="107.0"/><trkpt lat="-22.6132" lon="108.0"/><trkpt lat="-22.821" lon="109.0"/><trkpt lat="-23.002" lon="109.89"/><trkpt lat="-23.0239" lon="110.0"/><trkpt lat="-23.2194" lon="111.0"/><trkpt lat="-23.4013" lon="112.0"/><trkpt lat="-23.5705" lon="113.0"/><trkpt lat="-23.7338" lon="114.0"/><trkpt lat="-23.8831" lon="115.0"/><trkpt lat="-24.0047" lon="115.87"/><trkpt lat="-24.0226" lon="116.0"/><trkpt lat="-24.1479" lon="117.0"/><trkpt lat="-24.2661" lon="118.0"/><trkpt lat="-24.3699" lon="119.0"/><trkpt lat="-24.4587" lon="120.0"/><trkpt lat="-24.5368" lon="121.0"/><trkpt lat="-24.6042" lon="122.0"/><trkpt lat="-24.6527" lon="123.0"/><trkpt lat="-24.6904" lon="124.0"/><trkpt lat="-24.7157" lon="125.0"/><trkpt lat="-24.7232" lon="126.0"/><trkpt lat="-24.7082" lon="127.0"/><trkpt lat="-24.6815" lon="128.0"/><trkpt lat="-24.6369" lon="129.0"/><trkpt lat="-24.5736" lon="130.0"/><trkpt lat="-24.4897" lon="131.0"/><trkpt lat="-24.3919" lon="132.0"/><trkpt lat="-24.276" lon="133.0"/><trkpt lat="-24.1338" lon="134.0"/><trkpt lat="-24.0022" lon="134.76"/><trkpt lat="-23.959" lon="135.0"/><trkpt lat="-23.7717" lon="136.0"/><trkpt lat="-23.5578" lon="137.0"/><trkpt lat="-23.3067" lon="138.0"/><trkpt lat="-23.0439" lon="139.0"/><trkpt lat="-23.0013" lon="139.15"/><trkpt lat="-22.7488" lon="140.0"/><trkpt lat="-22.4234" lon="141.0"/><trkpt lat="-22.0633" lon="142.0"/><trkpt lat="-21.9955" lon="142.17"/><trkpt lat="-21.6606" lon="143.0"/><trkpt lat="-21.2453" lon="144.0"/><trkpt lat="-21.0018" lon="144.55"/><trkpt lat="-20.7994" lon="145.0"/><trkpt lat="-20.3056" lon="146.0"/><trkpt lat="-19.9994" lon="146.57"/><trkpt lat="-19.7651" lon="147.0"/><trkpt lat="-19.1958" lon="148.0"/><trkpt lat="-19.0015" lon="148.33"/><trkpt lat="-18.5879" lon="149.0"/><trkpt lat="-18.0031" lon="149.91"/><trkpt lat="-17.9423" lon="150.0"/><trkpt lat="-17.2593" lon="151.0"/><trkpt lat="-17.0055" lon="151.35"/><trkpt lat="-16.5339" lon="152.0"/><trkpt lat="-16.0187" lon="152.69"/><trkpt lat="-15.7822" lon="153.0"/><trkpt lat="-15.021" lon="153.94"/><trkpt lat="-14.9711" lon="154.0"/><trkpt lat="-14.1345" lon="155.0"/><trkpt lat="-14.0348" lon="155.12"/><trkpt lat="-13.2669" lon="156.0"/><trkpt lat="-13.0247" lon="156.26"/><trkpt lat="-12.362" lon="157.0"/><trkpt lat="-12.0347" lon="157.35"/><trkpt lat="-11.4116" lon="158.0"/><trkpt lat="-11.0372" lon="158.4"/><trkpt lat="-10.4631" lon="159.0"/><trkpt lat="-10.0381" lon="159.43"/><trkpt lat="-9.4761" lon="160.0"/><trkpt lat="-9.0406" lon="160.44"/><trkpt lat="-8.4869" lon="161.0"/><trkpt lat="-8.0453" lon="161.44"/><trkpt lat="-7.4804" lon="162.0"/><trkpt lat="-7.0447" lon="162.43"/><trkpt lat="-6.4661" lon="163.0"/><trkpt lat="-6.0495" lon="163.41"/><trkpt lat="-5.4503" lon="164.0"/><trkpt lat="-5.0448" lon="164.4"/><trkpt lat="-4.4371" lon="165.0"/><trkpt lat="-4.0432" lon="165.39"/><trkpt lat="-3.4255" lon="166.0"/><trkpt lat="-3.0323" lon="166.39"/><trkpt lat="-2.4238" lon="167.0"/><trkpt lat="-2.0401" lon="167.39"/><trkpt lat="-1.4471" lon="168.0"/><trkpt lat="-1.0378" lon="168.42"/><trkpt lat="-0.4661" lon="169.0"/><trkpt lat="-0.0274" lon="169.46"/><trkpt lat="0.4782" lon="170.0"/><trkpt lat="0.9599" lon="170.52"/><trkpt lat="1.4171" lon="171.0"/><trkpt lat="1.9802" lon="171.61"/><trkpt lat="2.3231" lon="172.0"/><trkpt lat="2.9634" lon="172.72"/><trkpt lat="3.2106" lon="173.0"/><trkpt lat="3.9702" lon="173.86"/><trkpt lat="4.0912" lon="174.0"/><trkpt lat="4.9468" lon="175.0"/><trkpt lat="4.9816" lon="175.04"/><trkpt lat="5.7644" lon="176.0"/><trkpt lat="5.975" lon="176.26"/><trkpt lat="6.5709" lon="177.0"/><trkpt lat="6.9841" lon="177.52"/><trkpt lat="7.3569" lon="178.0"/><trkpt lat="7.9914" lon="178.82"/><trkpt lat="8.1298" lon="179.0"/><trkpt lat="8.8723" lon="180.0"/></trkseg></trk>
<trk><name>north graze limit</name><trkseg><trkpt lat="8.8723" lon="-180.0"/><trkpt lat="9.0014" lon="-179.82"/><trkpt lat="9.5843" lon="-179.0"/><trkpt lat="10.0057" lon="-178.41"/><trkpt lat="10.2855" lon="-178.0"/><trkpt lat="10.9593" lon="-177.0"/><trkpt lat="10.9994" lon="-176.94"/><trkpt lat="11.618" lon="-176.0"/><trkpt lat="12.0053" lon="-175.4"/><trkpt lat="12.2623" lon="-175.0"/><trkpt lat="12.8769" lon="-174.0"/><trkpt lat="13.0007" lon="-173.8"/><trkpt lat="13.4798" lon="-173.0"/><trkpt lat="14.004" lon="-172.11"/><trkpt lat="14.0703" lon="-172.0"/><trkpt lat="14.6423" lon="-171.0"/><trkpt lat="15.0026" lon="-170.34"/><trkpt lat="15.1857" lon="-170.0"/><trkpt lat="15.7228" lon="-169.0"/><trkpt lat="15.9959" lon="-168.47"/><trkpt lat="16.2361" lon="-168.0"/><trkpt lat="16.7416" lon="-167.0"/><trkpt lat="16.9911" lon="-166.5"/><trkpt lat="17.2308" lon="-166.0"/><trkpt lat="17.7115" lon="-165.0"/><trkpt lat="17.9981" lon="-164.4"/><trkpt lat="18.1859" lon="-164.0"/><trkpt lat="18.6381" lon="-163.0"/><trkpt lat="19.0048" lon="-162.18"/><trkpt lat="19.0808" lon="-162.0"/><trkpt lat="19.5056" lon="-161.0"/><trkpt lat="19.9169" lon="-160.0"/><trkpt lat="19.9985" lon="-159.8"/><trkpt lat="20.332" lon="-159.0"/><trkpt lat="20.7187" lon="-158.0"/><trkpt lat="21.0032" lon="-157.25"/><trkpt lat="21.0972" lon="-157.0"/><trkpt lat="21.4613" lon="-156.0"/><trkpt lat="21.8221" lon="-155.0"/></trkseg></trk>
<trk><name>south graze limit</name><trkseg><trkpt lat="-9.0229" lon="-138.0"/><trkpt lat="-9.373" lon="-139.0"/><trkpt lat="-9.7499" lon="-140.0"/><trkpt lat="-10.0225" lon="-140.67"/><trkpt lat="-10.1554" lon="-141.0"/><trkpt lat="-10.5415" lon="-142.0"/><trkpt lat="-10.9476" lon="-143.0"/><trkpt lat="-10.9959" lon="-143.12"/><trkpt lat="-11.3661" lon="-144.0"/><trkpt lat="-11.8162" lon="-145.0"/><trkpt lat="-11.9818" lon="-145.36"/><trkpt lat="-12.283" lon="-146.0"/><trkpt lat="-12.7658" lon="-147.0"/><trkpt lat="-12.9842" lon="-147.44"/><trkpt lat="-13.2682" lon="-148.0"/><trkpt lat="-13.7869" lon="-149.0"/><trkpt lat="-13.9879" lon="-149.37"/><trkpt lat="-14.3395" lon="-150.0"/><trkpt lat="-14.9012" lon="-151.0"/><trkpt lat="-15.0068" lon="-151.18"/><trkpt lat="-15.5048" lon="-152.0"/><trkpt lat="-16.0573" lon="-152.88"/><trkpt lat="-16.1339" lon="-153.0"/><trkpt lat="-16.7733" lon="-154.0"/><trkpt lat="-17.0768" lon="-154.48"/><trkpt lat="-17.4175" lon="-155.0"/><trkpt lat="-18.0809" lon="-156.0"/><trkpt lat="-18.0877" lon="-156.01"/><trkpt lat="-18.7723" lon="-157.0"/><trkpt lat="-19.0812" lon="-157.45"/><trkpt lat="-19.4748" lon="-158.0"/><trkpt lat="-20.0757" lon="-158.83"/><trkpt lat="-20.2024" lon="-159.0"/><trkpt lat="-20.9567" lon="-160.0"/><trkpt lat="-21.08" lon="-160.16"/><trkpt lat="-21.7362" lon="-161.0"/><trkpt lat="-22.0809" lon="-161.43"/><trkpt lat="-22.5445" lon="-162.0"/><trkpt lat="-23.0878" lon="-162.66"/><trkpt lat="-23.3726" lon="-163.0"/><trkpt lat="-24.0889" lon="-163.85"/><trkpt lat="-24.2158" lon="-164.0"/><trkpt lat="-25.0775" lon="-165.0"/><trkpt lat="-25.0775" lon="-165.0"/><trkpt lat="-25.9541" lon="-166.0"/><trkpt lat="-26.0688" lon="-166.13"/><trkpt lat="-26.8481" lon="-167.0"/><trkpt lat="-27.0573" lon="-167.23"/><trkpt lat="-27.7663" lon="-168.0"/><trkpt lat="-28.0508" lon="-168.31"/><trkpt lat="-28.6962" lon="-169.0"/><trkpt lat="-29.0452" lon="-169.37"/><trkpt lat="-29.646" lon="-170.0"/><trkpt lat="-30.0555" lon="-170.43"/><trkpt lat="-30.5973" lon="-171.0"/><trkpt lat="-31.0463" lon="-171.47"/><trkpt lat="-31.5542" lon="-172.0"/><trkpt lat="-32.0437" lon="-172.51"/><trkpt lat="-32.5146" lon="-173.0"/><trkpt lat="-33.0438" lon="-173.55"/><trkpt lat="-33.4775" lon="-174.0"/><trkpt lat="-34.0513" lon="-174.6"/><trkpt lat="-34.4344" lon="-175.0"/><trkpt lat="-35.05" lon="-175.65"/><trkpt lat="-35.3775" lon="-176.0"/><trkpt lat="-36.0493" lon="-176.72"/><trkpt lat="-36.3119" lon="-177.0"/><trkpt lat="-37.0603" lon="-177.81"/><trkpt lat="-37.2328" lon="-178.0"/><trkpt lat="-38.0623" lon="-178.92"/><trkpt lat="-38.1345" lon="-179.0"/><trkpt lat="-39.0302" lon="-180.0"/></trkseg></trk>
</gpx>
