<?xml version="1.0" encoding="UTF-8"?>
<kml xmlns="http://www.opengis.net/kml/2.2"><Document><name>The Moon occults Mercury — 2028-02-23</name>
<description>Graze limits from https://occult.alokm.com/mercury-2028-02-23, traced against the real lunar limb (LRO LOLA).</description>
<Style id="graze"><LineStyle><color>ff06b6d9</color><width>4</width></LineStyle></Style>
<Placemark><name>south graze limit</name><styleUrl>#graze</styleUrl><LineString><tessellate>1</tessellate><coordinates>180.0,-39.0302,0 179.95,-39.075,0 179.0,-39.8929,0 178.78,-40.0774,0 178.0,-40.7325,0 177.57,-41.0819,0 177.0,-41.5377,0 176.31,-42.0744,0 176.0,-42.3136,0 175.0,-43.0679,0 174.99,-43.0753,0 174.0,-43.8002,0 173.61,-44.0781,0 173.0,-44.5042,0 172.16,-45.0831,0 172.0,-45.1875,0 171.0,-45.8367,0 170.62,-46.0812,0 170.0,-46.4575,0 169.0,-47.0504,0 168.97,-47.0673,0 168.0,-47.5982,0 167.21,-48.0084,0 167.0,-48.1196,0 166.0,-48.6448,0 165.31,-48.9876,0 165.0,-49.1434,0 164.0,-49.6281,0 163.23,-49.985,0 163.0,-50.0922,0 162.0,-50.5409,0 161.0,-50.9627,0 160.95,-50.9836,0 160.0,-51.3851,0 159.0,-51.7914,0 158.4,-52.028,0 158.0,-52.1646,0 157.0,-52.5125,0 156.0,-52.863,0 155.53,-53.0152,0 155.0,-53.1825,0 154.0,-53.5014,0 153.0,-53.8041,0 152.2,-54.0295,0 152.0,-54.0812,0 151.0,-54.3419,0 150.0,-54.5965,0 149.0,-54.8517,0 148.23,-55.0217,0 148.0,-55.0734,0 147.0,-55.2982,0 146.0,-55.5206,0 145.0,-55.7216,0 144.0,-55.9029,0 143.18,-56.0306,0 143.0,-56.0599,0 142.0,-56.2154,0 141.0,-56.3644,0 140.0,-56.5111,0 139.0,-56.6335,0 138.0,-56.7598,0 137.0,-56.8724,0 136.0,-56.9747,0 135.75,-56.9987,0 135.0,-57.0724,0 134.0,-57.154,0 133.0,-57.2312,0 132.0,-57.306,0 131.0,-57.3672,0 130.0,-57.4205,0 129.0,-57.4652,0 128.0,-57.5038,0 127.0,-57.5395,0 126.0,-57.5666,0 125.0,-57.5936,0 124.0,-57.6122,0 123.0,-57.6261,0 122.0,-57.6288,0 121.0,-57.6185,0 120.0,-57.5991,0 119.0,-57.574,0 118.0,-57.5451,0 117.0,-57.5107,0 116.0,-57.4606,0 115.0,-57.4034,0 114.0,-57.3385,0 113.0,-57.2716,0 112.0,-57.2115,0 111.0,-57.1441,0 110.0,-57.05,0 109.61,-57.0091,0 109.0,-56.9524,0 108.0,-56.8609,0 107.0,-56.7589,0 106.0,-56.6448,0 105.0,-56.5228,0 104.0,-56.385,0 103.0,-56.2333,0 102.0,-56.0923,0 101.29,-55.9955,0 101.0,-55.9549,0 100.0,-55.8134,0 99.0,-55.6704,0 98.0,-55.5105,0 97.0,-55.338,0 96.0,-55.1546,0 95.34,-55.0294,0 95.0,-54.9671,0 94.0,-54.774,0 93.0,-54.5656,0 92.0,-54.3436,0 91.0,-54.1214,0 90.43,-53.9906,0 90.0,-53.8924,0 89.0,-53.6622,0 88.0,-53.4354,0 87.0,-53.2019,0 86.14,-52.9997,0 86.0,-52.966,0 85.0,-52.7165,0 84.0,-52.455,0 83.0,-52.1888,0 82.29,-51.9967,0 82.0,-51.9181,0 81.0,-51.6434,0 80.0,-51.3667,0 79.0,-51.0771,0 78.74,-51.001,0 78.0,-50.7818,0 77.0,-50.4826,0 76.0,-50.1808,0 75.43,-50.0082,0 75.0,-49.8752,0 74.0,-49.5593,0</coordinates></LineString></Placemark>
<Placemark><name>north graze limit</name><styleUrl>#graze</styleUrl><LineString><tessellate>1</tessellate><coordinates>93.0,-18.61,0 94.0,-18.9195,0 94.27,-19.0034,0 95.0,-19.2197,0 96.0,-19.5167,0 97.0,-19.8127,0 97.65,-20.0016,0 98.0,-20.1015,0 99.0,-20.3812,0 100.0,-20.6589,0 101.0,-20.9271,0 101.27,-21.0024,0 102.0,-21.1964,0 103.0,-21.4532,0 104.0,-21.6986,0 105.0,-21.938,0 105.27,-22.0029,0 106.0,-22.1709,0 107.0,-22.3968,0 108.0,-22.6132,0 109.0,-22.821,0 109.89,-23.002,0 110.0,-23.0239,0 111.0,-23.2194,0 112.0,-23.4013,0 113.0,-23.5705,0 114.0,-23.7338,0 115.0,-23.8831,0 115.87,-24.0047,0 116.0,-24.0226,0 117.0,-24.1479,0 118.0,-24.2661,0 119.0,-24.3699,0 120.0,-24.4587,0 121.0,-24.5368,0 122.0,-24.6042,0 123.0,-24.6527,0 124.0,-24.6904,0 125.0,-24.7157,0 126.0,-24.7232,0 127.0,-24.7082,0 128.0,-24.6815,0 129.0,-24.6369,0 130.0,-24.5736,0 131.0,-24.4897,0 132.0,-24.3919,0 133.0,-24.276,0 134.0,-24.1338,0 134.76,-24.0022,0 135.0,-23.959,0 136.0,-23.7717,0 137.0,-23.5578,0 138.0,-23.3067,0 139.0,-23.0439,0 139.15,-23.0013,0 140.0,-22.7488,0 141.0,-22.4234,0 142.0,-22.0633,0 142.17,-21.9955,0 143.0,-21.6606,0 144.0,-21.2453,0 144.55,-21.0018,0 145.0,-20.7994,0 146.0,-20.3056,0 146.57,-19.9994,0 147.0,-19.7651,0 148.0,-19.1958,0 148.33,-19.0015,0 149.0,-18.5879,0 149.91,-18.0031,0 150.0,-17.9423,0 151.0,-17.2593,0 151.35,-17.0055,0 152.0,-16.5339,0 152.69,-16.0187,0 153.0,-15.7822,0 153.94,-15.021,0 154.0,-14.9711,0 155.0,-14.1345,0 155.12,-14.0348,0 156.0,-13.2669,0 156.26,-13.0247,0 157.0,-12.362,0 157.35,-12.0347,0 158.0,-11.4116,0 158.4,-11.0372,0 159.0,-10.4631,0 159.43,-10.0381,0 160.0,-9.4761,0 160.44,-9.0406,0 161.0,-8.4869,0 161.44,-8.0453,0 162.0,-7.4804,0 162.43,-7.0447,0 163.0,-6.4661,0 163.41,-6.0495,0 164.0,-5.4503,0 164.4,-5.0448,0 165.0,-4.4371,0 165.39,-4.0432,0 166.0,-3.4255,0 166.39,-3.0323,0 167.0,-2.4238,0 167.39,-2.0401,0 168.0,-1.4471,0 168.42,-1.0378,0 169.0,-0.4661,0 169.46,-0.0274,0 170.0,0.4782,0 170.52,0.9599,0 171.0,1.4171,0 171.61,1.9802,0 172.0,2.3231,0 172.72,2.9634,0 173.0,3.2106,0 173.86,3.9702,0 174.0,4.0912,0 175.0,4.9468,0 175.04,4.9816,0 176.0,5.7644,0 176.26,5.975,0 177.0,6.5709,0 177.52,6.9841,0 178.0,7.3569,0 178.82,7.9914,0 179.0,8.1298,0 180.0,8.8723,0</coordinates></LineString></Placemark>
<Placemark><name>north graze limit</name><styleUrl>#graze</styleUrl><LineString><tessellate>1</tessellate><coordinates>-180.0,8.8723,0 -179.82,9.0014,0 -179.0,9.5843,0 -178.41,10.0057,0 -178.0,10.2855,0 -177.0,10.9593,0 -176.94,10.9994,0 -176.0,11.618,0 -175.4,12.0053,0 -175.0,12.2623,0 -174.0,12.8769,0 -173.8,13.0007,0 -173.0,13.4798,0 -172.11,14.004,0 -172.0,14.0703,0 -171.0,14.6423,0 -170.34,15.0026,0 -170.0,15.1857,0 -169.0,15.7228,0 -168.47,15.9959,0 -168.0,16.2361,0 -167.0,16.7416,0 -166.5,16.9911,0 -166.0,17.2308,0 -165.0,17.7115,0 -164.4,17.9981,0 -164.0,18.1859,0 -163.0,18.6381,0 -162.18,19.0048,0 -162.0,19.0808,0 -161.0,19.5056,0 -160.0,19.9169,0 -159.8,19.9985,0 -159.0,20.332,0 -158.0,20.7187,0 -157.25,21.0032,0 -157.0,21.0972,0 -156.0,21.4613,0 -155.0,21.8221,0</coordinates></LineString></Placemark>
<Placemark><name>south graze limit</name><styleUrl>#graze</styleUrl><LineString><tessellate>1</tessellate><coordinates>-138.0,-9.0229,0 -139.0,-9.373,0 -140.0,-9.7499,0 -140.67,-10.0225,0 -141.0,-10.1554,0 -142.0,-10.5415,0 -143.0,-10.9476,0 -143.12,-10.9959,0 -144.0,-11.3661,0 -145.0,-11.8162,0 -145.36,-11.9818,0 -146.0,-12.283,0 -147.0,-12.7658,0 -147.44,-12.9842,0 -148.0,-13.2682,0 -149.0,-13.7869,0 -149.37,-13.9879,0 -150.0,-14.3395,0 -151.0,-14.9012,0 -151.18,-15.0068,0 -152.0,-15.5048,0 -152.88,-16.0573,0 -153.0,-16.1339,0 -154.0,-16.7733,0 -154.48,-17.0768,0 -155.0,-17.4175,0 -156.0,-18.0809,0 -156.01,-18.0877,0 -157.0,-18.7723,0 -157.45,-19.0812,0 -158.0,-19.4748,0 -158.83,-20.0757,0 -159.0,-20.2024,0 -160.0,-20.9567,0 -160.16,-21.08,0 -161.0,-21.7362,0 -161.43,-22.0809,0 -162.0,-22.5445,0 -162.66,-23.0878,0 -163.0,-23.3726,0 -163.85,-24.0889,0 -164.0,-24.2158,0 -165.0,-25.0775,0 -165.0,-25.0775,0 -166.0,-25.9541,0 -166.13,-26.0688,0 -167.0,-26.8481,0 -167.23,-27.0573,0 -168.0,-27.7663,0 -168.31,-28.0508,0 -169.0,-28.6962,0 -169.37,-29.0452,0 -170.0,-29.646,0 -170.43,-30.0555,0 -171.0,-30.5973,0 -171.47,-31.0463,0 -172.0,-31.5542,0 -172.51,-32.0437,0 -173.0,-32.5146,0 -173.55,-33.0438,0 -174.0,-33.4775,0 -174.6,-34.0513,0 -175.0,-34.4344,0 -175.65,-35.05,0 -176.0,-35.3775,0 -176.72,-36.0493,0 -177.0,-36.3119,0 -177.81,-37.0603,0 -178.0,-37.2328,0 -178.92,-38.0623,0 -179.0,-38.1345,0 -180.0,-39.0302,0</coordinates></LineString></Placemark>
</Document></kml>
