<?xml version="1.0" encoding="UTF-8"?>
<kml xmlns="http://www.opengis.net/kml/2.2"><Document><name>The Moon occults Venus — 2027-11-30</name>
<description>Graze limits and visibility from https://occult.alokm.com/venus-2027-11-30. Solid limits are traced against the real lunar limb (LRO LOLA); the dotted line is the mean-sphere limit. Times in the city placemarks are UTC, real limb.</description>
<Style id="exact"><LineStyle><color>ff06b6d9</color><width>4</width></LineStyle></Style>
<Style id="mean"><LineStyle><color>8006b6d9</color><width>2</width></LineStyle></Style>
<Style id="region"><LineStyle><color>80e6c07d</color><width>1</width></LineStyle><PolyStyle><color>3fe6c07d</color></PolyStyle></Style>
<Style id="night"><LineStyle><width>0</width></LineStyle><PolyStyle><color>3fed3ac4</color></PolyStyle></Style>
<Style id="city"><IconStyle><scale>0.8</scale></IconStyle></Style>
<Folder><name>Graze limits (real lunar limb)</name>
<Placemark><name>north limit — real limb</name><styleUrl>#exact</styleUrl><LineString><tessellate>1</tessellate><coordinates>-87.0,-45.5386,0 -86.13,-45.994,0 -86.0,-46.0619,0 -85.0,-46.587,0 -84.22,-46.9976,0 -84.0,-47.1134,0 -83.0,-47.6412,0 -82.32,-47.9995,0 -82.0,-48.1659,0 -81.0,-48.6895,0 -80.41,-48.9997,0 -80.0,-49.2155,0 -79.0,-49.7368,0 -78.5,-49.9963,0 -78.0,-50.2563,0 -77.0,-50.7756,0 -76.56,-51.003,0 -76.0,-51.291,0 -75.0,-51.797,0 -74.61,-51.9953,0 -74.0,-52.3049,0 -73.0,-52.8104,0 -72.61,-53.0014,0 -72.0,-53.2998,0 -71.0,-53.7871,0 -70.58,-53.9949,0 -70.0,-54.2788,0 -69.0,-54.7609,0 -68.48,-55.0093,0 -68.0,-55.2335,0 -67.0,-55.6916,0 -66.32,-56.0069,0 -66.0,-56.1541,0 -65.0,-56.5956,0 -64.08,-56.9964,0 -64.0,-57.031,0 -63.0,-57.4638,0 -62.0,-57.8833,0 -61.73,-57.9971,0 -61.0,-58.3001,0 -60.0,-58.6956,0 -59.25,-58.9937,0 -59.0,-59.0918,0 -58.0,-59.4794,0 -57.0,-59.8524,0 -56.61,-59.997,0 -56.0,-60.2217,0 -55.0,-60.5774,0 -54.0,-60.9246,0 -53.78,-60.9993,0 -53.0,-61.2598,0 -52.0,-61.5831,0 -51.0,-61.8976,0 -50.7,-61.9898,0 -50.0,-62.2053,0 -49.0,-62.5039,0 -48.0,-62.7923,0 -47.28,-62.9933,0 -47.0,-63.0677,0 -46.0,-63.3341,0 -45.0,-63.595,0 -44.0,-63.8425,0 -43.43,-63.9858,0 -43.0,-64.0891,0 -42.0,-64.3243,0 -41.0,-64.55,0 -40.0,-64.7679,0 -39.0,-64.9808,0 -38.95,-64.9912,0 -38.0,-65.1823,0 -37.0,-65.3805,0 -36.0,-65.5643,0 -35.0,-65.7383,0 -34.0,-65.9111,0 -33.46,-66.0021,0 -33.0,-66.0771,0 -32.0,-66.2298,0 -31.0,-66.3764,0 -30.0,-66.5194,0 -29.0,-66.6535,0 -28.0,-66.777,0 -27.0,-66.8959,0 -26.04,-67.0069,0 -26.0,-67.0116,0 -25.0,-67.118,0 -24.0,-67.2108,0 -23.0,-67.3017,0 -22.0,-67.385,0 -21.0,-67.4623,0 -20.0,-67.5371,0 -19.0,-67.6042,0 -18.0,-67.6652,0 -17.0,-67.721,0 -16.0,-67.771,0 -15.0,-67.8149,0 -14.0,-67.8537,0 -13.0,-67.8814,0 -12.0,-67.9081,0 -11.0,-67.9273,0 -10.0,-67.939,0 -9.0,-67.9467,0 -8.0,-67.942,0 -7.0,-67.9368,0 -6.0,-67.9266,0 -5.0,-67.9081,0 -4.0,-67.8873,0 -3.0,-67.8582,0 -2.0,-67.8237,0 -1.0,-67.7828,0 0.0,-67.7337,0 1.0,-67.6811,0 2.0,-67.6202,0 3.0,-67.5553,0 4.0,-67.4832,0 5.0,-67.4029,0 6.0,-67.3159,0 7.0,-67.2217,0 8.0,-67.1216,0 9.0,-67.0152,0 9.15,-66.9981,0 10.0,-66.8969,0 11.0,-66.7709,0 12.0,-66.6404,0 13.0,-66.5034,0 14.0,-66.3603,0 15.0,-66.2066,0 16.0,-66.0456,0 16.29,-65.9959,0 17.0,-65.8742,0 18.0,-65.6979,0 19.0,-65.5116,0 20.0,-65.3111,0 21.0,-65.1043,0 21.49,-64.9981,0 22.0,-64.8868,0 23.0,-64.6562,0 24.0,-64.4225,0 25.0,-64.1753,0 25.67,-64.0085,0 26.0,-63.9224,0 27.0,-63.6525,0 28.0,-63.368,0 29.0,-63.0713,0 29.22,-63.0043,0 30.0,-62.7628,0 31.0,-62.4408,0 32.0,-62.1191,0 32.31,-62.0118,0 33.0,-61.7686,0 34.0,-61.4068,0 35.0,-61.0266,0 35.06,-61.0036,0 36.0,-60.6335,0 37.0,-60.2308,0 37.56,-59.9996,0 38.0,-59.8134,0 39.0,-59.3811,0 39.84,-59.0054,0 40.0,-58.9327,0 41.0,-58.4671,0 41.96,-58.0023,0 42.0,-57.9827,0 43.0,-57.488,0 43.94,-57.0084,0 44.0,-56.9773,0 45.0,-56.4366,0 45.8,-56.0039,0 46.0,-55.8941,0 47.0,-55.3371,0 47.58,-55.0022,0 48.0,-54.7588,0 49.0,-54.1774,0 49.27,-54.0196,0 50.0,-53.5795,0 50.9,-53.0209,0 51.0,-52.9584,0 52.0,-52.323,0 52.47,-52.0194,0 53.0,-51.6736,0 54.0,-51.0138,0 54.01,-51.0072,0 55.0,-50.347,0 55.51,-50.0032,0 56.0,-49.674,0 56.98,-49.0079,0 57.0,-48.9943,0 58.0,-48.3079,0 58.44,-48.0032,0 59.0,-47.6138,0 59.88,-47.0019,0 60.0,-46.9187,0 61.0,-46.2227,0 61.31,-46.0063,0 62.0,-45.5256,0 62.75,-45.0024,0 63.0,-44.8285,0 64.0,-44.1343,0 64.19,-44.0028,0 65.0,-43.4433,0 65.64,-43.0037,0 66.0,-42.7573,0 67.0,-42.0759,0 67.11,-42.0013,0 68.0,-41.4008,0 68.59,-41.0058,0 69.0,-40.7331,0 70.0,-40.0751,0 70.1,-40.0095,0 71.0,-39.4238,0 71.65,-39.0038,0 72.0,-38.7796,0 73.0,-38.1452,0 73.22,-38.007,0 74.0,-37.524,0 74.84,-37.0093,0 75.0,-36.9121,0 76.0,-36.3125,0 76.51,-36.0116,0 77.0,-35.7251,0 78.0,-35.1488,0 78.23,-35.0174,0 79.0,-34.5814,0 80.0,-34.023,0 80.0,-34.023,0 81.0,-33.4718,0 81.85,-33.0072,0 82.0,-32.9268,0 83.0,-32.3982,0</coordinates></LineString></Placemark>
</Folder><Folder><name>Mean-sphere limits</name>
<Placemark><name>north limit — mean sphere</name><styleUrl>#mean</styleUrl><LineString><tessellate>1</tessellate><coordinates>-87.0,-45.54,0 -86.13,-46.0,0 -86.0,-46.07,0 -85.0,-46.59,0 -84.22,-47.0,0 -84.0,-47.12,0 -83.0,-47.64,0 -82.32,-48.0,0 -82.0,-48.17,0 -81.0,-48.69,0 -80.41,-49.0,0 -80.0,-49.22,0 -79.0,-49.74,0 -78.5,-50.0,0 -78.0,-50.26,0 -77.0,-50.78,0 -76.56,-51.0,0 -76.0,-51.29,0 -75.0,-51.8,0 -74.61,-52.0,0 -74.0,-52.31,0 -73.0,-52.81,0 -72.61,-53.0,0 -72.0,-53.3,0 -71.0,-53.8,0 -70.58,-54.0,0 -70.0,-54.28,0 -69.0,-54.76,0 -68.48,-55.0,0 -68.0,-55.23,0 -67.0,-55.69,0 -66.32,-56.0,0 -66.0,-56.15,0 -65.0,-56.6,0 -64.08,-57.0,0 -64.0,-57.03,0 -63.0,-57.47,0 -62.0,-57.89,0 -61.73,-58.0,0 -61.0,-58.3,0 -60.0,-58.71,0 -59.25,-59.0,0 -59.0,-59.1,0 -58.0,-59.48,0 -57.0,-59.86,0 -56.61,-60.0,0 -56.0,-60.22,0 -55.0,-60.58,0 -54.0,-60.93,0 -53.78,-61.0,0 -53.0,-61.26,0 -52.0,-61.59,0 -51.0,-61.91,0 -50.7,-62.0,0 -50.0,-62.21,0 -49.0,-62.51,0 -48.0,-62.8,0 -47.28,-63.0,0 -47.0,-63.08,0 -46.0,-63.35,0 -45.0,-63.61,0 -44.0,-63.86,0 -43.43,-64.0,0 -43.0,-64.1,0 -42.0,-64.34,0 -41.0,-64.56,0 -40.0,-64.78,0 -39.0,-64.99,0 -38.95,-65.0,0 -38.0,-65.19,0 -37.0,-65.38,0 -36.0,-65.57,0 -35.0,-65.74,0 -34.0,-65.91,0 -33.46,-66.0,0 -33.0,-66.07,0 -32.0,-66.23,0 -31.0,-66.38,0 -30.0,-66.52,0 -29.0,-66.65,0 -28.0,-66.77,0 -27.0,-66.89,0 -26.04,-67.0,0 -26.0,-67.0,0 -25.0,-67.11,0 -24.0,-67.21,0 -23.0,-67.3,0 -22.0,-67.39,0 -21.0,-67.47,0 -20.0,-67.54,0 -19.0,-67.61,0 -18.0,-67.67,0 -17.0,-67.72,0 -16.0,-67.77,0 -15.0,-67.82,0 -14.0,-67.85,0 -13.0,-67.88,0 -12.0,-67.91,0 -11.0,-67.93,0 -10.0,-67.94,0 -9.0,-67.95,0 -8.0,-67.95,0 -7.0,-67.94,0 -6.0,-67.93,0 -5.0,-67.92,0 -4.0,-67.89,0 -3.0,-67.86,0 -2.0,-67.83,0 -1.0,-67.79,0 0.0,-67.74,0 1.0,-67.69,0 2.0,-67.63,0 3.0,-67.56,0 4.0,-67.49,0 5.0,-67.41,0 6.0,-67.32,0 7.0,-67.23,0 8.0,-67.13,0 9.0,-67.02,0 9.15,-67.0,0 10.0,-66.9,0 11.0,-66.78,0 12.0,-66.65,0 13.0,-66.51,0 14.0,-66.37,0 15.0,-66.21,0 16.0,-66.05,0 16.29,-66.0,0 17.0,-65.88,0 18.0,-65.7,0 19.0,-65.51,0 20.0,-65.31,0 21.0,-65.11,0 21.49,-65.0,0 22.0,-64.89,0 23.0,-64.66,0 24.0,-64.42,0 25.0,-64.17,0 25.67,-64.0,0 26.0,-63.91,0 27.0,-63.64,0 28.0,-63.36,0 29.0,-63.07,0 29.22,-63.0,0 30.0,-62.76,0 31.0,-62.44,0 32.0,-62.11,0 32.31,-62.0,0 33.0,-61.76,0 34.0,-61.4,0 35.0,-61.02,0 35.06,-61.0,0 36.0,-60.64,0 37.0,-60.23,0 37.56,-60.0,0 38.0,-59.81,0 39.0,-59.38,0 39.84,-59.0,0 40.0,-58.93,0 41.0,-58.46,0 41.96,-58.0,0 42.0,-57.98,0 43.0,-57.48,0 43.94,-57.0,0 44.0,-56.97,0 45.0,-56.44,0 45.8,-56.0,0 46.0,-55.89,0 47.0,-55.33,0 47.58,-55.0,0 48.0,-54.75,0 49.0,-54.16,0 49.27,-54.0,0 50.0,-53.56,0 50.9,-53.0,0 51.0,-52.94,0 52.0,-52.31,0 52.47,-52.0,0 53.0,-51.66,0 54.0,-51.01,0 54.01,-51.0,0 55.0,-50.34,0 55.51,-50.0,0 56.0,-49.67,0 56.98,-49.0,0 57.0,-48.99,0 58.0,-48.3,0 58.44,-48.0,0 59.0,-47.61,0 59.88,-47.0,0 60.0,-46.92,0 61.0,-46.22,0 61.31,-46.0,0 62.0,-45.52,0 62.75,-45.0,0 63.0,-44.83,0 64.0,-44.13,0 64.19,-44.0,0 65.0,-43.44,0 65.64,-43.0,0 66.0,-42.75,0 67.0,-42.07,0 67.11,-42.0,0 68.0,-41.4,0 68.59,-41.0,0 69.0,-40.73,0 70.0,-40.07,0 70.1,-40.0,0 71.0,-39.42,0 71.65,-39.0,0 72.0,-38.77,0 73.0,-38.14,0 73.22,-38.0,0 74.0,-37.52,0 74.84,-37.0,0 75.0,-36.9,0 76.0,-36.3,0 76.51,-36.0,0 77.0,-35.71,0 78.0,-35.13,0 78.23,-35.0,0 79.0,-34.56,0 80.0,-34.0,0 80.0,-34.0,0 81.0,-33.46,0 81.85,-33.0,0 82.0,-32.92,0 83.0,-32.4,0</coordinates></LineString></Placemark>
</Folder><Folder><name>Visibility</name>
<Placemark><name>sees the occultation</name><styleUrl>#region</styleUrl><Polygon><outerBoundaryIs><LinearRing><coordinates>-180.0,-80.0,0 -179.0,-80.0,0 -178.0,-80.0,0 -177.0,-80.0,0 -176.0,-80.0,0 -175.0,-80.0,0 -174.0,-80.0,0 -173.0,-80.0,0 -172.0,-80.0,0 -171.0,-80.0,0 -170.0,-80.0,0 -169.0,-80.0,0 -168.0,-80.0,0 -167.0,-80.0,0 -166.0,-80.0,0 -165.0,-80.0,0 -164.0,-80.0,0 -163.0,-80.0,0 -162.0,-80.0,0 -161.0,-80.0,0 -160.0,-80.0,0 -159.0,-80.0,0 -158.0,-80.0,0 -157.0,-80.0,0 -156.0,-80.0,0 -155.0,-80.0,0 -154.0,-80.0,0 -153.0,-80.0,0 -152.0,-80.0,0 -151.0,-80.0,0 -150.0,-80.0,0 -149.0,-80.0,0 -148.0,-80.0,0 -147.0,-80.0,0 -146.0,-80.0,0 -145.0,-80.0,0 -144.0,-80.0,0 -143.0,-80.0,0 -142.0,-80.0,0 -141.0,-80.0,0 -140.0,-80.0,0 -139.0,-80.0,0 -138.0,-80.0,0 -137.0,-80.0,0 -136.0,-80.0,0 -135.0,-80.0,0 -134.0,-80.0,0 -133.0,-80.0,0 -132.0,-80.0,0 -131.0,-80.0,0 -130.0,-80.0,0 -129.0,-80.0,0 -128.0,-80.0,0 -127.0,-80.0,0 -126.0,-80.0,0 -125.0,-80.0,0 -124.0,-80.0,0 -123.0,-80.0,0 -122.0,-80.0,0 -121.0,-80.0,0 -120.0,-80.0,0 -119.0,-80.0,0 -118.0,-80.0,0 -117.0,-80.0,0 -116.0,-80.0,0 -115.0,-80.0,0 -114.0,-80.0,0 -113.0,-80.0,0 -112.0,-80.0,0 -111.0,-80.0,0 -110.0,-80.0,0 -109.0,-80.0,0 -108.0,-80.0,0 -107.0,-80.0,0 -106.0,-80.0,0 -105.0,-80.0,0 -104.0,-80.0,0 -103.0,-80.0,0 -102.0,-80.0,0 -101.0,-80.0,0 -100.0,-80.0,0 -99.0,-80.0,0 -98.0,-80.0,0 -97.0,-80.0,0 -96.0,-80.0,0 -95.0,-80.0,0 -94.0,-80.0,0 -93.0,-80.0,0 -92.0,-80.0,0 -91.0,-80.0,0 -90.0,-80.0,0 -89.0,-80.0,0 -88.0,-80.0,0 -87.0,-80.0,0 -86.0,-80.0,0 -85.0,-80.0,0 -84.0,-80.0,0 -83.0,-80.0,0 -82.0,-80.0,0 -81.0,-80.0,0 -80.0,-80.0,0 -79.0,-80.0,0 -78.0,-80.0,0 -77.0,-80.0,0 -76.0,-80.0,0 -75.0,-80.0,0 -74.0,-80.0,0 -73.0,-80.0,0 -72.0,-80.0,0 -71.0,-80.0,0 -70.0,-80.0,0 -69.0,-80.0,0 -68.0,-80.0,0 -67.0,-80.0,0 -66.0,-80.0,0 -65.0,-80.0,0 -64.0,-80.0,0 -63.0,-80.0,0 -62.0,-80.0,0 -61.0,-80.0,0 -60.0,-80.0,0 -59.0,-80.0,0 -58.0,-80.0,0 -57.0,-80.0,0 -56.0,-80.0,0 -55.0,-80.0,0 -54.0,-80.0,0 -53.0,-80.0,0 -52.0,-80.0,0 -51.0,-80.0,0 -50.0,-80.0,0 -49.0,-80.0,0 -48.0,-80.0,0 -47.0,-80.0,0 -46.0,-80.0,0 -45.0,-80.0,0 -44.0,-80.0,0 -43.0,-80.0,0 -42.0,-80.0,0 -41.0,-80.0,0 -40.0,-80.0,0 -39.0,-80.0,0 -38.0,-80.0,0 -37.0,-80.0,0 -36.0,-80.0,0 -35.0,-80.0,0 -34.0,-80.0,0 -33.0,-80.0,0 -32.0,-80.0,0 -31.0,-80.0,0 -30.0,-80.0,0 -29.0,-80.0,0 -28.0,-80.0,0 -27.0,-80.0,0 -26.0,-80.0,0 -25.0,-80.0,0 -24.0,-80.0,0 -23.0,-80.0,0 -22.0,-80.0,0 -21.0,-80.0,0 -20.0,-80.0,0 -19.0,-80.0,0 -18.0,-80.0,0 -17.0,-80.0,0 -16.0,-80.0,0 -15.0,-80.0,0 -14.0,-80.0,0 -13.0,-80.0,0 -12.0,-80.0,0 -11.0,-80.0,0 -10.0,-80.0,0 -9.0,-80.0,0 -8.0,-80.0,0 -7.0,-80.0,0 -6.0,-80.0,0 -5.0,-80.0,0 -4.0,-80.0,0 -3.0,-80.0,0 -2.0,-80.0,0 -1.0,-80.0,0 0.0,-80.0,0 1.0,-80.0,0 2.0,-80.0,0 3.0,-80.0,0 4.0,-80.0,0 5.0,-80.0,0 6.0,-80.0,0 7.0,-80.0,0 8.0,-80.0,0 9.0,-80.0,0 10.0,-80.0,0 11.0,-80.0,0 12.0,-80.0,0 13.0,-80.0,0 14.0,-80.0,0 15.0,-80.0,0 16.0,-80.0,0 17.0,-80.0,0 18.0,-80.0,0 19.0,-80.0,0 20.0,-80.0,0 21.0,-80.0,0 22.0,-80.0,0 23.0,-80.0,0 24.0,-80.0,0 25.0,-80.0,0 26.0,-80.0,0 27.0,-80.0,0 28.0,-80.0,0 29.0,-80.0,0 30.0,-80.0,0 31.0,-80.0,0 32.0,-80.0,0 33.0,-80.0,0 34.0,-80.0,0 35.0,-80.0,0 36.0,-80.0,0 37.0,-80.0,0 38.0,-80.0,0 39.0,-80.0,0 40.0,-80.0,0 41.0,-80.0,0 42.0,-80.0,0 43.0,-80.0,0 44.0,-80.0,0 45.0,-80.0,0 46.0,-80.0,0 47.0,-80.0,0 48.0,-80.0,0 49.0,-80.0,0 50.0,-80.0,0 51.0,-80.0,0 52.0,-80.0,0 53.0,-80.0,0 54.0,-80.0,0 55.0,-80.0,0 56.0,-80.0,0 57.0,-80.0,0 58.0,-80.0,0 59.0,-80.0,0 60.0,-80.0,0 61.0,-80.0,0 62.0,-80.0,0 63.0,-80.0,0 64.0,-80.0,0 65.0,-80.0,0 66.0,-80.0,0 67.0,-80.0,0 68.0,-80.0,0 69.0,-80.0,0 70.0,-80.0,0 71.0,-80.0,0 72.0,-80.0,0 73.0,-80.0,0 74.0,-80.0,0 75.0,-80.0,0 76.0,-80.0,0 77.0,-80.0,0 78.0,-80.0,0 79.0,-80.0,0 80.0,-80.0,0 81.0,-80.0,0 82.0,-80.0,0 83.0,-80.0,0 84.0,-80.0,0 85.0,-80.0,0 86.0,-80.0,0 87.0,-80.0,0 88.0,-80.0,0 89.0,-80.0,0 90.0,-80.0,0 91.0,-80.0,0 92.0,-80.0,0 93.0,-80.0,0 94.0,-80.0,0 95.0,-80.0,0 96.0,-80.0,0 97.0,-80.0,0 98.0,-80.0,0 99.0,-80.0,0 100.0,-80.0,0 101.0,-80.0,0 102.0,-80.0,0 103.0,-80.0,0 104.0,-80.0,0 105.0,-80.0,0 106.0,-80.0,0 107.0,-80.0,0 108.0,-80.0,0 109.0,-80.0,0 110.0,-80.0,0 111.0,-80.0,0 112.0,-80.0,0 113.0,-80.0,0 114.0,-80.0,0 115.0,-80.0,0 116.0,-80.0,0 117.0,-80.0,0 118.0,-80.0,0 119.0,-80.0,0 120.0,-80.0,0 121.0,-80.0,0 122.0,-80.0,0 123.0,-80.0,0 124.0,-80.0,0 125.0,-80.0,0 126.0,-80.0,0 127.0,-80.0,0 128.0,-80.0,0 129.0,-80.0,0 130.0,-80.0,0 131.0,-80.0,0 132.0,-80.0,0 133.0,-80.0,0 134.0,-80.0,0 135.0,-80.0,0 136.0,-80.0,0 137.0,-80.0,0 138.0,-80.0,0 139.0,-80.0,0 140.0,-80.0,0 141.0,-80.0,0 142.0,-80.0,0 143.0,-80.0,0 144.0,-80.0,0 145.0,-80.0,0 146.0,-80.0,0 147.0,-80.0,0 148.0,-80.0,0 149.0,-80.0,0 150.0,-80.0,0 151.0,-80.0,0 152.0,-80.0,0 153.0,-80.0,0 154.0,-80.0,0 155.0,-80.0,0 156.0,-80.0,0 157.0,-80.0,0 158.0,-80.0,0 159.0,-80.0,0 160.0,-80.0,0 161.0,-80.0,0 162.0,-80.0,0 163.0,-80.0,0 164.0,-80.0,0 165.0,-80.0,0 166.0,-80.0,0 167.0,-80.0,0 168.0,-80.0,0 169.0,-80.0,0 170.0,-80.0,0 171.0,-80.0,0 172.0,-80.0,0 173.0,-80.0,0 174.0,-80.0,0 175.0,-80.0,0 176.0,-80.0,0 177.0,-80.0,0 178.0,-80.0,0 179.0,-80.0,0 180.0,-80.0,0 180.0,-79.0,0 180.0,-78.0,0 180.0,-77.0,0 180.0,-76.0,0 180.0,-75.0,0 180.0,-74.0,0 180.0,-73.0,0 180.0,-72.0,0 180.0,-71.0,0 180.0,-70.0,0 180.0,-69.0,0 180.0,-68.0,0 180.0,-67.0,0 180.0,-66.0,0 180.0,-65.0,0 180.0,-64.68,0 179.0,-64.58,0 178.0,-64.53,0 177.0,-64.44,0 176.0,-64.4,0 175.0,-64.35,0 174.0,-64.23,0 173.0,-64.17,0 172.0,-64.09,0 171.6,-64.0,0 171.0,-63.89,0 170.0,-63.78,0 169.0,-63.69,0 168.0,-63.53,0 167.0,-63.38,0 166.0,-63.29,0 165.0,-63.18,0 164.12,-63.0,0 164.0,-62.97,0 163.0,-62.84,0 162.0,-62.72,0 161.0,-62.52,0 160.0,-62.32,0 159.0,-62.2,0 158.33,-62.0,0 158.0,-61.91,0 157.0,-61.75,0 156.0,-61.6,0 155.0,-61.39,0 154.0,-61.12,0 153.19,-61.0,0 153.0,-60.97,0 152.0,-60.79,0 151.0,-60.49,0 150.0,-60.2,0 149.0,-60.01,0 148.92,-60.0,0 148.0,-59.84,0 147.0,-59.43,0 146.0,-59.25,0 145.4,-59.0,0 145.0,-58.84,0 144.0,-58.66,0 143.0,-58.32,0 142.0,-58.07,0 141.83,-58.0,0 141.0,-57.66,0 140.0,-57.33,0 139.0,-57.1,0 138.58,-57.0,0 138.0,-56.81,0 137.0,-56.34,0 136.0,-56.11,0 135.8,-56.0,0 135.0,-55.58,0 134.0,-55.35,0 133.34,-55.0,0 133.0,-54.82,0 132.0,-54.42,0 131.0,-54.1,0 130.71,-54.0,0 130.0,-53.77,0 129.0,-53.31,0 128.4,-53.0,0 128.0,-52.7,0 127.0,-52.38,0 126.0,-52.04,0 125.92,-52.0,0 125.0,-51.32,0 124.0,-51.0,0 124.0,-51.0,0 123.0,-50.27,0 122.16,-50.0,0 122.0,-49.95,0 121.0,-49.37,0 120.31,-49.0,0 120.0,-48.9,0 119.0,-48.29,0 118.45,-48.0,0 118.0,-47.86,0 117.0,-47.23,0 116.56,-47.0,0 116.0,-46.7,0 115.0,-46.11,0 114.66,-46.0,0 114.0,-45.66,0 113.0,-45.08,0 112.88,-45.0,0 112.0,-44.37,0 111.47,-44.0,0 111.0,-43.67,0 110.05,-43.0,0 110.0,-42.96,0 109.0,-42.44,0 108.11,-42.0,0 108.0,-41.94,0 107.0,-41.46,0 106.6,-41.0,0 106.0,-40.59,0 105.14,-40.0,0 105.0,-39.84,0 104.0,-39.38,0 103.19,-39.0,0 103.0,-38.91,0 102.16,-38.0,0 102.0,-37.89,0 101.0,-37.39,0 100.12,-37.0,0 100.0,-36.95,0 99.08,-36.0,0 99.0,-35.91,0 98.0,-35.51,0 97.0,-35.11,0 96.89,-35.0,0 96.0,-34.14,0 95.62,-34.0,0 95.0,-33.78,0 94.0,-33.43,0 93.49,-33.0,0 93.0,-32.56,0 92.0,-32.26,0 91.64,-32.0,0 91.0,-31.5,0 90.0,-31.28,0 89.0,-31.09,0 88.78,-31.0,0 88.0,-30.63,0 87.0,-30.67,0 86.0,-30.89,0 85.76,-31.0,0 85.0,-31.38,0 84.0,-31.88,0 83.76,-32.0,0 83.0,-32.4,0 82.0,-32.92,0 81.85,-33.0,0 81.0,-33.46,0 80.0,-34.0,0 80.0,-34.0,0 79.0,-34.56,0 78.23,-35.0,0 78.0,-35.13,0 77.0,-35.71,0 76.51,-36.0,0 76.0,-36.3,0 75.0,-36.9,0 74.84,-37.0,0 74.0,-37.52,0 73.22,-38.0,0 73.0,-38.14,0 72.0,-38.77,0 71.65,-39.0,0 71.0,-39.42,0 70.1,-40.0,0 70.0,-40.07,0 69.0,-40.73,0 68.59,-41.0,0 68.0,-41.4,0 67.11,-42.0,0 67.0,-42.07,0 66.0,-42.75,0 65.64,-43.0,0 65.0,-43.44,0 64.19,-44.0,0 64.0,-44.13,0 63.0,-44.83,0 62.75,-45.0,0 62.0,-45.52,0 61.31,-46.0,0 61.0,-46.22,0 60.0,-46.92,0 59.88,-47.0,0 59.0,-47.61,0 58.44,-48.0,0 58.0,-48.3,0 57.0,-48.99,0 56.98,-49.0,0 56.0,-49.67,0 55.51,-50.0,0 55.0,-50.34,0 54.01,-51.0,0 54.0,-51.01,0 53.0,-51.66,0 52.47,-52.0,0 52.0,-52.31,0 51.0,-52.94,0 50.9,-53.0,0 50.0,-53.56,0 49.27,-54.0,0 49.0,-54.16,0 48.0,-54.75,0 47.58,-55.0,0 47.0,-55.33,0 46.0,-55.89,0 45.8,-56.0,0 45.0,-56.44,0 44.0,-56.97,0 43.94,-57.0,0 43.0,-57.48,0 42.0,-57.98,0 41.96,-58.0,0 41.0,-58.46,0 40.0,-58.93,0 39.84,-59.0,0 39.0,-59.38,0 38.0,-59.81,0 37.56,-60.0,0 37.0,-60.23,0 36.0,-60.64,0 35.06,-61.0,0 35.0,-61.02,0 34.0,-61.4,0 33.0,-61.76,0 32.31,-62.0,0 32.0,-62.11,0 31.0,-62.44,0 30.0,-62.76,0 29.22,-63.0,0 29.0,-63.07,0 28.0,-63.36,0 27.0,-63.64,0 26.0,-63.91,0 25.67,-64.0,0 25.0,-64.17,0 24.0,-64.42,0 23.0,-64.66,0 22.0,-64.89,0 21.49,-65.0,0 21.0,-65.11,0 20.0,-65.31,0 19.0,-65.51,0 18.0,-65.7,0 17.0,-65.88,0 16.29,-66.0,0 16.0,-66.05,0 15.0,-66.21,0 14.0,-66.37,0 13.0,-66.51,0 12.0,-66.65,0 11.0,-66.78,0 10.0,-66.9,0 9.15,-67.0,0 9.0,-67.02,0 8.0,-67.13,0 7.0,-67.23,0 6.0,-67.32,0 5.0,-67.41,0 4.0,-67.49,0 3.0,-67.56,0 2.0,-67.63,0 1.0,-67.69,0 0.0,-67.74,0 -1.0,-67.79,0 -2.0,-67.83,0 -3.0,-67.86,0 -4.0,-67.89,0 -5.0,-67.92,0 -6.0,-67.93,0 -7.0,-67.94,0 -8.0,-67.95,0 -9.0,-67.95,0 -10.0,-67.94,0 -11.0,-67.93,0 -12.0,-67.91,0 -13.0,-67.88,0 -14.0,-67.85,0 -15.0,-67.82,0 -16.0,-67.77,0 -17.0,-67.72,0 -18.0,-67.67,0 -19.0,-67.61,0 -20.0,-67.54,0 -21.0,-67.47,0 -22.0,-67.39,0 -23.0,-67.3,0 -24.0,-67.21,0 -25.0,-67.11,0 -26.0,-67.0,0 -26.04,-67.0,0 -27.0,-66.89,0 -28.0,-66.77,0 -29.0,-66.65,0 -30.0,-66.52,0 -31.0,-66.38,0 -32.0,-66.23,0 -33.0,-66.07,0 -33.46,-66.0,0 -34.0,-65.91,0 -35.0,-65.74,0 -36.0,-65.57,0 -37.0,-65.38,0 -38.0,-65.19,0 -38.95,-65.0,0 -39.0,-64.99,0 -40.0,-64.78,0 -41.0,-64.56,0 -42.0,-64.34,0 -43.0,-64.1,0 -43.43,-64.0,0 -44.0,-63.86,0 -45.0,-63.61,0 -46.0,-63.35,0 -47.0,-63.08,0 -47.28,-63.0,0 -48.0,-62.8,0 -49.0,-62.51,0 -50.0,-62.21,0 -50.7,-62.0,0 -51.0,-61.91,0 -52.0,-61.59,0 -53.0,-61.26,0 -53.78,-61.0,0 -54.0,-60.93,0 -55.0,-60.58,0 -56.0,-60.22,0 -56.61,-60.0,0 -57.0,-59.86,0 -58.0,-59.48,0 -59.0,-59.1,0 -59.25,-59.0,0 -60.0,-58.71,0 -61.0,-58.3,0 -61.73,-58.0,0 -62.0,-57.89,0 -63.0,-57.47,0 -64.0,-57.03,0 -64.08,-57.0,0 -65.0,-56.6,0 -66.0,-56.15,0 -66.32,-56.0,0 -67.0,-55.69,0 -68.0,-55.23,0 -68.48,-55.0,0 -69.0,-54.76,0 -70.0,-54.28,0 -70.58,-54.0,0 -71.0,-53.8,0 -72.0,-53.3,0 -72.61,-53.0,0 -73.0,-52.81,0 -74.0,-52.31,0 -74.61,-52.0,0 -75.0,-51.8,0 -76.0,-51.29,0 -76.56,-51.0,0 -77.0,-50.78,0 -78.0,-50.26,0 -78.5,-50.0,0 -79.0,-49.74,0 -80.0,-49.22,0 -80.41,-49.0,0 -81.0,-48.69,0 -82.0,-48.17,0 -82.32,-48.0,0 -83.0,-47.64,0 -84.0,-47.12,0 -84.22,-47.0,0 -85.0,-46.59,0 -86.0,-46.07,0 -86.13,-46.0,0 -87.0,-45.54,0 -88.0,-45.02,0 -88.04,-45.0,0 -89.0,-44.5,0 -90.0,-44.11,0 -90.79,-44.0,0 -91.0,-43.98,0 -91.39,-44.0,0 -92.0,-44.03,0 -93.0,-44.47,0 -94.0,-44.83,0 -94.71,-45.0,0 -95.0,-45.07,0 -96.0,-45.61,0 -97.0,-45.79,0 -97.36,-46.0,0 -98.0,-46.38,0 -99.0,-46.91,0 -99.23,-47.0,0 -100.0,-47.19,0 -101.0,-47.68,0 -101.8,-48.0,0 -102.0,-48.05,0 -103.0,-48.7,0 -104.0,-48.95,0 -104.07,-49.0,0 -105.0,-49.62,0 -106.0,-49.88,0 -106.18,-50.0,0 -107.0,-50.56,0 -108.0,-50.83,0 -108.59,-51.0,0 -109.0,-51.12,0 -110.0,-51.8,0 -110.68,-52.0,0 -111.0,-52.09,0 -112.0,-52.57,0 -112.87,-53.0,0 -113.0,-53.07,0 -114.0,-53.39,0 -115.0,-53.78,0 -115.43,-54.0,0 -116.0,-54.29,0 -117.0,-54.51,0 -117.97,-55.0,0 -118.0,-55.01,0 -119.0,-55.33,0 -120.0,-55.75,0 -121.0,-55.97,0 -121.06,-56.0,0 -122.0,-56.49,0 -123.0,-56.71,0 -123.55,-57.0,0 -124.0,-57.18,0 -125.0,-57.46,0 -126.0,-57.69,0 -127.0,-57.93,0 -127.17,-58.0,0 -128.0,-58.34,0 -129.0,-58.67,0 -130.0,-58.92,0 -130.44,-59.0,0 -131.0,-59.1,0 -132.0,-59.51,0 -133.0,-59.69,0 -133.77,-60.0,0 -134.0,-60.08,0 -135.0,-60.22,0 -136.0,-60.45,0 -137.0,-60.7,0 -137.89,-61.0,0 -138.0,-61.03,0 -139.0,-61.18,0 -140.0,-61.33,0 -141.0,-61.56,0 -142.0,-61.81,0 -143.0,-61.97,0 -143.11,-62.0,0 -144.0,-62.22,0 -145.0,-62.32,0 -146.0,-62.5,0 -147.0,-62.68,0 -148.0,-62.91,0 -148.74,-63.0,0 -149.0,-63.02,0 -150.0,-63.22,0 -151.0,-63.3,0 -152.0,-63.43,0 -153.0,-63.58,0 -154.0,-63.74,0 -155.0,-63.85,0 -156.0,-63.94,0 -156.32,-64.0,0 -157.0,-64.13,0 -158.0,-64.2,0 -159.0,-64.32,0 -160.0,-64.36,0 -161.0,-64.44,0 -162.0,-64.48,0 -163.0,-64.56,0 -164.0,-64.64,0 -165.0,-64.74,0 -166.0,-64.81,0 -167.0,-64.92,0 -168.0,-64.97,0 -168.24,-65.0,0 -169.0,-65.15,0 -170.0,-65.22,0 -171.0,-65.34,0 -172.0,-65.33,0 -173.0,-65.28,0 -174.0,-65.14,0 -175.0,-65.06,0 -175.6,-65.0,0 -176.0,-64.98,0 -177.0,-64.92,0 -178.0,-64.8,0 -179.0,-64.75,0 -180.0,-64.68,0 -180.0,-65.0,0 -180.0,-66.0,0 -180.0,-67.0,0 -180.0,-68.0,0 -180.0,-69.0,0 -180.0,-70.0,0 -180.0,-71.0,0 -180.0,-72.0,0 -180.0,-73.0,0 -180.0,-74.0,0 -180.0,-75.0,0 -180.0,-76.0,0 -180.0,-77.0,0 -180.0,-78.0,0 -180.0,-79.0,0 -180.0,-80.0,0</coordinates></LinearRing></outerBoundaryIs></Polygon></Placemark>
<Placemark><name>after sunset</name><styleUrl>#night</styleUrl><Polygon><outerBoundaryIs><LinearRing><coordinates>138.41,-62.0,0 139.0,-62.04,0 140.0,-62.06,0 141.0,-62.12,0 142.0,-62.18,0 143.0,-62.21,0 144.0,-62.21,0 145.0,-62.22,0 146.0,-62.23,0 147.0,-62.23,0 148.0,-62.23,0 149.0,-62.24,0 150.0,-62.24,0 151.0,-62.23,0 152.0,-62.22,0 153.0,-62.18,0 154.0,-62.15,0 155.0,-62.13,0 156.0,-62.07,0 157.0,-62.05,0 158.0,-62.02,0 158.33,-62.0,0 158.0,-61.91,0 157.0,-61.75,0 156.0,-61.6,0 155.0,-61.39,0 154.0,-61.12,0 153.19,-61.0,0 153.0,-60.97,0 152.0,-60.79,0 151.0,-60.49,0 150.0,-60.2,0 149.0,-60.01,0 148.92,-60.0,0 148.0,-59.84,0 147.0,-59.43,0 146.0,-59.25,0 145.4,-59.0,0 145.0,-58.84,0 144.0,-58.66,0 143.0,-58.32,0 142.0,-58.07,0 141.83,-58.0,0 141.0,-57.66,0 140.0,-57.33,0 139.0,-57.1,0 138.58,-57.0,0 138.0,-56.81,0 137.0,-56.34,0 136.0,-56.11,0 135.8,-56.0,0 135.0,-55.58,0 134.0,-55.35,0 133.34,-55.0,0 133.0,-54.82,0 132.0,-54.42,0 131.0,-54.1,0 130.71,-54.0,0 130.0,-53.77,0 129.0,-53.31,0 128.4,-53.0,0 128.0,-52.7,0 127.0,-52.38,0 126.0,-52.04,0 125.92,-52.0,0 125.0,-51.32,0 124.0,-51.0,0 124.0,-51.0,0 123.0,-50.27,0 122.16,-50.0,0 122.0,-49.95,0 121.0,-49.37,0 120.31,-49.0,0 120.0,-48.9,0 119.0,-48.29,0 118.45,-48.0,0 118.0,-47.86,0 117.0,-47.23,0 116.56,-47.0,0 116.0,-46.7,0 115.0,-46.11,0 114.66,-46.0,0 114.0,-45.66,0 113.0,-45.08,0 112.88,-45.0,0 112.0,-44.37,0 111.47,-44.0,0 111.0,-43.67,0 110.05,-43.0,0 110.0,-42.96,0 109.0,-42.44,0 108.11,-42.0,0 108.0,-41.94,0 107.0,-41.46,0 106.6,-41.0,0 106.0,-40.59,0 105.14,-40.0,0 105.0,-39.84,0 104.0,-39.38,0 103.19,-39.0,0 103.0,-38.91,0 102.16,-38.0,0 102.0,-37.89,0 101.0,-37.39,0 100.12,-37.0,0 100.0,-36.95,0 99.08,-36.0,0 99.0,-35.91,0 98.0,-35.51,0 97.0,-35.11,0 96.89,-35.0,0 96.0,-34.14,0 95.62,-34.0,0 95.0,-33.78,0 94.0,-33.43,0 93.49,-33.0,0 93.0,-32.56,0 92.0,-32.26,0 91.64,-32.0,0 91.0,-31.5,0 90.0,-31.28,0 89.0,-31.09,0 88.78,-31.0,0 88.0,-30.63,0 87.0,-30.67,0 86.0,-30.89,0 85.76,-31.0,0 85.0,-31.38,0 84.0,-31.88,0 83.76,-32.0,0 83.0,-32.4,0 82.0,-32.92,0 81.85,-33.0,0 81.0,-33.46,0 80.0,-34.0,0 80.0,-34.0,0 79.0,-34.56,0 78.23,-35.0,0 78.0,-35.13,0 77.0,-35.71,0 76.51,-36.0,0 76.0,-36.3,0 75.0,-36.9,0 74.84,-37.0,0 74.0,-37.52,0 73.22,-38.0,0 73.0,-38.14,0 72.0,-38.77,0 71.65,-39.0,0 71.0,-39.42,0 70.86,-40.0,0 71.0,-40.01,0 71.96,-41.0,0 72.0,-41.02,0 73.0,-41.08,0 73.89,-42.0,0 74.0,-42.11,0 74.86,-43.0,0 75.0,-43.06,0 76.0,-43.24,0 76.72,-44.0,0 77.0,-44.09,0 78.0,-44.45,0 78.51,-45.0,0 79.0,-45.31,0 80.0,-45.67,0 80.3,-46.0,0 81.0,-46.36,0 81.62,-47.0,0 82.0,-47.13,0 83.0,-47.36,0 83.62,-48.0,0 84.0,-48.14,0 85.0,-48.32,0 85.66,-49.0,0 86.0,-49.22,0 87.0,-49.27,0 87.77,-50.0,0 88.0,-50.15,0 89.0,-50.48,0 89.5,-51.0,0 90.0,-51.17,0 91.0,-51.32,0 91.81,-52.0,0 92.0,-52.07,0 93.0,-52.23,0 94.0,-52.52,0 94.47,-53.0,0 95.0,-53.18,0 96.0,-53.3,0 97.0,-53.76,0 97.24,-54.0,0 98.0,-54.21,0 99.0,-54.34,0 100.0,-54.85,0 100.15,-55.0,0 101.0,-55.22,0 102.0,-55.33,0 103.0,-55.7,0 103.29,-56.0,0 104.0,-56.21,0 105.0,-56.3,0 106.0,-56.5,0 106.74,-57.0,0 107.0,-57.07,0 108.0,-57.25,0 109.0,-57.35,0 110.0,-57.61,0 110.58,-58.0,0 111.0,-58.1,0 112.0,-58.26,0 113.0,-58.35,0 114.0,-58.54,0 114.91,-59.0,0 115.0,-59.02,0 116.0,-59.09,0 117.0,-59.29,0 118.0,-59.39,0 119.0,-59.42,0 120.0,-59.63,0 120.75,-60.0,0 121.0,-60.05,0 122.0,-60.22,0 123.0,-60.27,0 124.0,-60.33,0 125.0,-60.42,0 126.0,-60.59,0 127.0,-60.65,0 127.87,-61.0,0 128.0,-61.02,0 129.0,-61.16,0 130.0,-61.23,0 131.0,-61.26,0 132.0,-61.3,0 133.0,-61.35,0 134.0,-61.41,0 135.0,-61.43,0 136.0,-61.53,0 137.0,-61.67,0 138.0,-61.88,0 138.41,-62.0,0</coordinates></LinearRing></outerBoundaryIs></Polygon></Placemark>
</Folder><Folder><name>Cities</name>
<Placemark><name>Kinshasa, CD</name><styleUrl>#city</styleUrl><description>near miss: Venus passes 48.1′ from the limb (UTC)</description><Point><coordinates>15.31357,-4.32758,0</coordinates></Point></Placemark>
<Placemark><name>Istanbul, TR</name><styleUrl>#city</styleUrl><description>near miss: Venus passes 75.7′ from the limb (UTC)</description><Point><coordinates>28.94966,41.01384,0</coordinates></Point></Placemark>
<Placemark><name>Lagos, NG</name><styleUrl>#city</styleUrl><description>near miss: Venus passes 63.2′ from the limb (UTC)</description><Point><coordinates>3.39467,6.45407,0</coordinates></Point></Placemark>
<Placemark><name>São Paulo, BR</name><styleUrl>#city</styleUrl><description>near miss: Venus passes 27.5′ from the limb (UTC)</description><Point><coordinates>-46.63611,-23.5475,0</coordinates></Point></Placemark>
<Placemark><name>Cairo, EG</name><styleUrl>#city</styleUrl><description>near miss: Venus passes 66.9′ from the limb (UTC)</description><Point><coordinates>31.24967,30.06263,0</coordinates></Point></Placemark>
<Placemark><name>Johannesburg, ZA</name><styleUrl>#city</styleUrl><description>near miss: Venus passes 24.9′ from the limb (UTC)</description><Point><coordinates>28.04363,-26.20227,0</coordinates></Point></Placemark>
<Placemark><name>London, GB</name><styleUrl>#city</styleUrl><description>near miss: Venus passes 89.6′ from the limb (UTC)</description><Point><coordinates>-0.12574,51.50853,0</coordinates></Point></Placemark>
<Placemark><name>Rio de Janeiro, BR</name><styleUrl>#city</styleUrl><description>near miss: Venus passes 29.4′ from the limb (UTC)</description><Point><coordinates>-43.18223,-22.90642,0</coordinates></Point></Placemark>
<Placemark><name>Abidjan, CI</name><styleUrl>#city</styleUrl><description>near miss: Venus passes 65.7′ from the limb (UTC)</description><Point><coordinates>-4.00167,5.35444,0</coordinates></Point></Placemark>
<Placemark><name>Dar es Salaam, TZ</name><styleUrl>#city</styleUrl><description>near miss: Venus passes 33.5′ from the limb (UTC)</description><Point><coordinates>39.26951,-6.82349,0</coordinates></Point></Placemark>
<Placemark><name>Alexandria, EG</name><styleUrl>#city</styleUrl><description>near miss: Venus passes 68.3′ from the limb (UTC)</description><Point><coordinates>29.91582,31.20176,0</coordinates></Point></Placemark>
<Placemark><name>Kano, NG</name><styleUrl>#city</styleUrl><description>near miss: Venus passes 64.6′ from the limb (UTC)</description><Point><coordinates>8.51672,12.00012,0</coordinates></Point></Placemark>
<Placemark><name>Santiago, CL</name><styleUrl>#city</styleUrl><description>near miss: Venus passes 11.8′ from the limb (UTC)</description><Point><coordinates>-70.64827,-33.45694,0</coordinates></Point></Placemark>
<Placemark><name>Cape Town, ZA</name><styleUrl>#city</styleUrl><description>near miss: Venus passes 23.6′ from the limb (UTC)</description><Point><coordinates>18.42322,-33.92584,0</coordinates></Point></Placemark>
<Placemark><name>Jeddah, SA</name><styleUrl>#city</styleUrl><description>near miss: Venus passes 56.5′ from the limb (UTC)</description><Point><coordinates>39.18624,21.49012,0</coordinates></Point></Placemark>
<Placemark><name>Nairobi, KE</name><styleUrl>#city</styleUrl><description>near miss: Venus passes 39.0′ from the limb (UTC)</description><Point><coordinates>36.81667,-1.28333,0</coordinates></Point></Placemark>
<Placemark><name>Giza, EG</name><styleUrl>#city</styleUrl><description>near miss: Venus passes 66.9′ from the limb (UTC)</description><Point><coordinates>31.20861,30.00944,0</coordinates></Point></Placemark>
<Placemark><name>Bamako, ML</name><styleUrl>#city</styleUrl><description>near miss: Venus passes 71.9′ from the limb (UTC)</description><Point><coordinates>-7.97522,12.60915,0</coordinates></Point></Placemark>
<Placemark><name>Addis Ababa, ET</name><styleUrl>#city</styleUrl><description>near miss: Venus passes 46.4′ from the limb (UTC)</description><Point><coordinates>38.74689,9.02497,0</coordinates></Point></Placemark>
<Placemark><name>Casablanca, MA</name><styleUrl>#city</styleUrl><description>near miss: Venus passes 84.7′ from the limb (UTC)</description><Point><coordinates>-7.61138,33.58831,0</coordinates></Point></Placemark>
<Placemark><name>Ibadan, NG</name><styleUrl>#city</styleUrl><description>near miss: Venus passes 63.6′ from the limb (UTC)</description><Point><coordinates>3.90591,7.37756,0</coordinates></Point></Placemark>
<Placemark><name>Ankara, TR</name><styleUrl>#city</styleUrl><description>near miss: Venus passes 73.4′ from the limb (UTC)</description><Point><coordinates>32.85427,39.91987,0</coordinates></Point></Placemark>
<Placemark><name>Berlin, DE</name><styleUrl>#city</styleUrl><description>near miss: Venus passes 86.8′ from the limb (UTC)</description><Point><coordinates>13.41053,52.52437,0</coordinates></Point></Placemark>
<Placemark><name>Durban, ZA</name><styleUrl>#city</styleUrl><description>near miss: Venus passes 20.9′ from the limb (UTC)</description><Point><coordinates>31.0292,-29.8579,0</coordinates></Point></Placemark>
<Placemark><name>Madrid, ES</name><styleUrl>#city</styleUrl><description>near miss: Venus passes 86.9′ from the limb (UTC)</description><Point><coordinates>-3.70256,40.4165,0</coordinates></Point></Placemark>
<Placemark><name>Bursa, TR</name><styleUrl>#city</styleUrl><description>near miss: Venus passes 75.1′ from the limb (UTC)</description><Point><coordinates>29.06013,40.19559,0</coordinates></Point></Placemark>
<Placemark><name>İzmir, TR</name><styleUrl>#city</styleUrl><description>near miss: Venus passes 74.7′ from the limb (UTC)</description><Point><coordinates>27.13838,38.41273,0</coordinates></Point></Placemark>
<Placemark><name>Buenos Aires, AR</name><styleUrl>#city</styleUrl><description>near miss: Venus passes 15.1′ from the limb (UTC)</description><Point><coordinates>-58.37723,-34.61315,0</coordinates></Point></Placemark>
<Placemark><name>Luanda, AO</name><styleUrl>#city</styleUrl><description>near miss: Venus passes 45.7′ from the limb (UTC)</description><Point><coordinates>13.23432,-8.83682,0</coordinates></Point></Placemark>
<Placemark><name>Belo Horizonte, BR</name><styleUrl>#city</styleUrl><description>near miss: Venus passes 31.5′ from the limb (UTC)</description><Point><coordinates>-43.93778,-19.92083,0</coordinates></Point></Placemark>
<Placemark><name>Salvador, BR</name><styleUrl>#city</styleUrl><description>near miss: Venus passes 39.5′ from the limb (UTC)</description><Point><coordinates>-38.49096,-12.97563,0</coordinates></Point></Placemark>
<Placemark><name>Abuja, NG</name><styleUrl>#city</styleUrl><description>near miss: Venus passes 62.9′ from the limb (UTC)</description><Point><coordinates>7.49508,9.05785,0</coordinates></Point></Placemark>
<Placemark><name>Dakar, SN</name><styleUrl>#city</styleUrl><description>near miss: Venus passes 71.3′ from the limb (UTC)</description><Point><coordinates>-17.44406,14.6937,0</coordinates></Point></Placemark>
<Placemark><name>Mogadishu, SO</name><styleUrl>#city</styleUrl><description>near miss: Venus passes 37.6′ from the limb (UTC)</description><Point><coordinates>45.34375,2.03711,0</coordinates></Point></Placemark>
<Placemark><name>Kumasi, GH</name><styleUrl>#city</styleUrl><description>near miss: Venus passes 65.8′ from the limb (UTC)</description><Point><coordinates>-1.62443,6.68848,0</coordinates></Point></Placemark>
<Placemark><name>Ouagadougou, BF</name><styleUrl>#city</styleUrl><description>near miss: Venus passes 70.0′ from the limb (UTC)</description><Point><coordinates>-1.53388,12.36566,0</coordinates></Point></Placemark>
<Placemark><name>Fortaleza, BR</name><styleUrl>#city</styleUrl><description>near miss: Venus passes 47.3′ from the limb (UTC)</description><Point><coordinates>-38.54306,-3.71722,0</coordinates></Point></Placemark>
<Placemark><name>Algiers, DZ</name><styleUrl>#city</styleUrl><description>near miss: Venus passes 83.4′ from the limb (UTC)</description><Point><coordinates>3.08746,36.73225,0</coordinates></Point></Placemark>
<Placemark><name>Rome, IT</name><styleUrl>#city</styleUrl><description>near miss: Venus passes 82.5′ from the limb (UTC)</description><Point><coordinates>12.51133,41.89193,0</coordinates></Point></Placemark>
<Placemark><name>Gaziantep, TR</name><styleUrl>#city</styleUrl><description>near miss: Venus passes 69.6′ from the limb (UTC)</description><Point><coordinates>37.3825,37.05944,0</coordinates></Point></Placemark>
<Placemark><name>Lubumbashi, CD</name><styleUrl>#city</styleUrl><description>near miss: Venus passes 35.8′ from the limb (UTC)</description><Point><coordinates>27.47938,-11.66089,0</coordinates></Point></Placemark>
<Placemark><name>Lusaka, ZM</name><styleUrl>#city</styleUrl><description>near miss: Venus passes 32.6′ from the limb (UTC)</description><Point><coordinates>28.28713,-15.40669,0</coordinates></Point></Placemark>
<Placemark><name>Brasília, BR</name><styleUrl>#city</styleUrl><description>near miss: Venus passes 33.3′ from the limb (UTC)</description><Point><coordinates>-47.92972,-15.77972,0</coordinates></Point></Placemark>
<Placemark><name>Lomé, TG</name><styleUrl>#city</styleUrl><description>near miss: Venus passes 64.0′ from the limb (UTC)</description><Point><coordinates>1.22154,6.12874,0</coordinates></Point></Placemark>
<Placemark><name>Paris, FR</name><styleUrl>#city</styleUrl><description>near miss: Venus passes 88.4′ from the limb (UTC)</description><Point><coordinates>2.3488,48.85341,0</coordinates></Point></Placemark>
<Placemark><name>Port Harcourt, NG</name><styleUrl>#city</styleUrl><description>near miss: Venus passes 59.9′ from the limb (UTC)</description><Point><coordinates>7.0134,4.77742,0</coordinates></Point></Placemark>
<Placemark><name>Pretoria, ZA</name><styleUrl>#city</styleUrl><description>near miss: Venus passes 25.1′ from the limb (UTC)</description><Point><coordinates>28.18783,-25.74486,0</coordinates></Point></Placemark>
<Placemark><name>Córdoba, AR</name><styleUrl>#city</styleUrl><description>near miss: Venus passes 15.4′ from the limb (UTC)</description><Point><coordinates>-64.18853,-31.40648,0</coordinates></Point></Placemark>
<Placemark><name>Mbuji-Mayi, CD</name><styleUrl>#city</styleUrl><description>near miss: Venus passes 42.1′ from the limb (UTC)</description><Point><coordinates>23.58979,-6.13603,0</coordinates></Point></Placemark>
<Placemark><name>Aleppo, SY</name><styleUrl>#city</styleUrl><description>near miss: Venus passes 69.1′ from the limb (UTC)</description><Point><coordinates>37.16117,36.20124,0</coordinates></Point></Placemark>
<Placemark><name>Brazzaville, CG</name><styleUrl>#city</styleUrl><description>near miss: Venus passes 48.2′ from the limb (UTC)</description><Point><coordinates>15.28318,-4.26613,0</coordinates></Point></Placemark>
<Placemark><name>Khartoum, SD</name><styleUrl>#city</styleUrl><description>near miss: Venus passes 54.7′ from the limb (UTC)</description><Point><coordinates>32.53241,15.55177,0</coordinates></Point></Placemark>
<Placemark><name>Hamburg, DE</name><styleUrl>#city</styleUrl><description>near miss: Venus passes 88.0′ from the limb (UTC)</description><Point><coordinates>9.99302,53.55073,0</coordinates></Point></Placemark>
<Placemark><name>Accra, GH</name><styleUrl>#city</styleUrl><description>near miss: Venus passes 64.3′ from the limb (UTC)</description><Point><coordinates>-0.1969,5.55602,0</coordinates></Point></Placemark>
<Placemark><name>Curitiba, BR</name><styleUrl>#city</styleUrl><description>near miss: Venus passes 25.1′ from the limb (UTC)</description><Point><coordinates>-49.27306,-25.42778,0</coordinates></Point></Placemark>
<Placemark><name>Sanaa, YE</name><styleUrl>#city</styleUrl><description>near miss: Venus passes 49.2′ from the limb (UTC)</description><Point><coordinates>44.20646,15.35452,0</coordinates></Point></Placemark>
<Placemark><name>Conakry, GN</name><styleUrl>#city</styleUrl><description>near miss: Venus passes 68.4′ from the limb (UTC)</description><Point><coordinates>-13.67729,9.53795,0</coordinates></Point></Placemark>
<Placemark><name>Beirut, LB</name><styleUrl>#city</styleUrl><description>near miss: Venus passes 68.0′ from the limb (UTC)</description><Point><coordinates>35.50157,33.89332,0</coordinates></Point></Placemark>
<Placemark><name>Bucharest, RO</name><styleUrl>#city</styleUrl><description>near miss: Venus passes 78.9′ from the limb (UTC)</description><Point><coordinates>26.10626,44.43225,0</coordinates></Point></Placemark>
<Placemark><name>Camayenne, GN</name><styleUrl>#city</styleUrl><description>near miss: Venus passes 68.4′ from the limb (UTC)</description><Point><coordinates>-13.68778,9.535,0</coordinates></Point></Placemark>
<Placemark><name>Kakamega, KE</name><styleUrl>#city</styleUrl><description>near miss: Venus passes 41.2′ from the limb (UTC)</description><Point><coordinates>34.75229,0.28422,0</coordinates></Point></Placemark>
<Placemark><name>Kaduna, NG</name><styleUrl>#city</styleUrl><description>near miss: Venus passes 64.1′ from the limb (UTC)</description><Point><coordinates>7.43879,10.52641,0</coordinates></Point></Placemark>
<Placemark><name>Omdurman, SD</name><styleUrl>#city</styleUrl><description>near miss: Venus passes 54.8′ from the limb (UTC)</description><Point><coordinates>32.47773,15.64453,0</coordinates></Point></Placemark>
<Placemark><name>Adana, TR</name><styleUrl>#city</styleUrl><description>near miss: Venus passes 70.4′ from the limb (UTC)</description><Point><coordinates>35.32531,36.98615,0</coordinates></Point></Placemark>
<Placemark><name>Benin City, NG</name><styleUrl>#city</styleUrl><description>near miss: Venus passes 61.9′ from the limb (UTC)</description><Point><coordinates>5.62575,6.33815,0</coordinates></Point></Placemark>
<Placemark><name>Budapest, HU</name><styleUrl>#city</styleUrl><description>near miss: Venus passes 83.0′ from the limb (UTC)</description><Point><coordinates>19.04045,47.49835,0</coordinates></Point></Placemark>
<Placemark><name>Warsaw, PL</name><styleUrl>#city</styleUrl><description>near miss: Venus passes 84.5′ from the limb (UTC)</description><Point><coordinates>21.01178,52.22977,0</coordinates></Point></Placemark>
<Placemark><name>Soweto, ZA</name><styleUrl>#city</styleUrl><description>near miss: Venus passes 24.9′ from the limb (UTC)</description><Point><coordinates>27.85849,-26.26781,0</coordinates></Point></Placemark>
<Placemark><name>Vienna, AT</name><styleUrl>#city</styleUrl><description>near miss: Venus passes 84.2′ from the limb (UTC)</description><Point><coordinates>16.37208,48.20849,0</coordinates></Point></Placemark>
<Placemark><name>Barcelona, ES</name><styleUrl>#city</styleUrl><description>near miss: Venus passes 85.8′ from the limb (UTC)</description><Point><coordinates>2.15899,41.38879,0</coordinates></Point></Placemark>
<Placemark><name>Kampala, UG</name><styleUrl>#city</styleUrl><description>near miss: Venus passes 42.4′ from the limb (UTC)</description><Point><coordinates>32.58219,0.31628,0</coordinates></Point></Placemark>
<Placemark><name>Rabat, MA</name><styleUrl>#city</styleUrl><description>near miss: Venus passes 84.8′ from the limb (UTC)</description><Point><coordinates>-6.83255,34.01325,0</coordinates></Point></Placemark>
<Placemark><name>Recife, BR</name><styleUrl>#city</styleUrl><description>near miss: Venus passes 45.1′ from the limb (UTC)</description><Point><coordinates>-34.88111,-8.05389,0</coordinates></Point></Placemark>
<Placemark><name>Makkah, SA</name><styleUrl>#city</styleUrl><description>near miss: Venus passes 56.2′ from the limb (UTC)</description><Point><coordinates>39.82563,21.42664,0</coordinates></Point></Placemark>
<Placemark><name>Damascus, SY</name><styleUrl>#city</styleUrl><description>near miss: Venus passes 67.4′ from the limb (UTC)</description><Point><coordinates>36.29128,33.5102,0</coordinates></Point></Placemark>
<Placemark><name>Onitsha, NG</name><styleUrl>#city</styleUrl><description>near miss: Venus passes 61.1′ from the limb (UTC)</description><Point><coordinates>6.78569,6.14978,0</coordinates></Point></Placemark>
<Placemark><name>Harare, ZW</name><styleUrl>#city</styleUrl><description>near miss: Venus passes 29.4′ from the limb (UTC)</description><Point><coordinates>31.05337,-17.82772,0</coordinates></Point></Placemark>
<Placemark><name>Monrovia, LR</name><styleUrl>#city</styleUrl><description>near miss: Venus passes 66.6′ from the limb (UTC)</description><Point><coordinates>-10.7969,6.30054,0</coordinates></Point></Placemark>
<Placemark><name>Goiânia, BR</name><styleUrl>#city</styleUrl><description>near miss: Venus passes 32.0′ from the limb (UTC)</description><Point><coordinates>-49.25389,-16.67861,0</coordinates></Point></Placemark>
<Placemark><name>Stockholm, SE</name><styleUrl>#city</styleUrl><description>near miss: Venus passes 87.6′ from the limb (UTC)</description><Point><coordinates>18.06871,59.32938,0</coordinates></Point></Placemark>
<Placemark><name>Munich, DE</name><styleUrl>#city</styleUrl><description>near miss: Venus passes 85.7′ from the limb (UTC)</description><Point><coordinates>11.57549,48.13743,0</coordinates></Point></Placemark>
<Placemark><name>Belém, BR</name><styleUrl>#city</styleUrl><description>near miss: Venus passes 45.1′ from the limb (UTC)</description><Point><coordinates>-48.50444,-1.45583,0</coordinates></Point></Placemark>
<Placemark><name>Porto Alegre, BR</name><styleUrl>#city</styleUrl><description>near miss: Venus passes 20.9′ from the limb (UTC)</description><Point><coordinates>-51.23019,-30.03283,0</coordinates></Point></Placemark>
<Placemark><name>Asunción, PY</name><styleUrl>#city</styleUrl><description>near miss: Venus passes 22.1′ from the limb (UTC)</description><Point><coordinates>-57.647,-25.28646,0</coordinates></Point></Placemark>
<Placemark><name>Kayseri, TR</name><styleUrl>#city</styleUrl><description>near miss: Venus passes 71.6′ from the limb (UTC)</description><Point><coordinates>35.48528,38.73222,0</coordinates></Point></Placemark>
<Placemark><name>Konya, TR</name><styleUrl>#city</styleUrl><description>near miss: Venus passes 72.2′ from the limb (UTC)</description><Point><coordinates>32.48464,37.87135,0</coordinates></Point></Placemark>
<Placemark><name>Milan, IT</name><styleUrl>#city</styleUrl><description>near miss: Venus passes 85.3′ from the limb (UTC)</description><Point><coordinates>9.18951,45.46427,0</coordinates></Point></Placemark>
<Placemark><name>N&#x27;Djamena, TD</name><styleUrl>#city</styleUrl><description>near miss: Venus passes 61.1′ from the limb (UTC)</description><Point><coordinates>15.0444,12.10672,0</coordinates></Point></Placemark>
<Placemark><name>Antananarivo, MG</name><styleUrl>#city</styleUrl><description>near miss: Venus passes 20.8′ from the limb (UTC)</description><Point><coordinates>47.53613,-18.91368,0</coordinates></Point></Placemark>
<Placemark><name>Abobo, CI</name><styleUrl>#city</styleUrl><description>near miss: Venus passes 65.8′ from the limb (UTC)</description><Point><coordinates>-4.0159,5.41613,0</coordinates></Point></Placemark>
<Placemark><name>Douala, CM</name><styleUrl>#city</styleUrl><description>near miss: Venus passes 57.8′ from the limb (UTC)</description><Point><coordinates>9.70428,4.04827,0</coordinates></Point></Placemark>
<Placemark><name>Antalya, TR</name><styleUrl>#city</styleUrl><description>near miss: Venus passes 72.2′ from the limb (UTC)</description><Point><coordinates>30.69556,36.90812,0</coordinates></Point></Placemark>
<Placemark><name>Niamey, NE</name><styleUrl>#city</styleUrl><description>near miss: Venus passes 69.1′ from the limb (UTC)</description><Point><coordinates>2.1098,13.51366,0</coordinates></Point></Placemark>
<Placemark><name>Tripoli, LY</name><styleUrl>#city</styleUrl><description>near miss: Venus passes 77.0′ from the limb (UTC)</description><Point><coordinates>13.18733,32.88743,0</coordinates></Point></Placemark>
<Placemark><name>Madinah, SA</name><styleUrl>#city</styleUrl><description>near miss: Venus passes 58.8′ from the limb (UTC)</description><Point><coordinates>39.61417,24.46861,0</coordinates></Point></Placemark>
<Placemark><name>Yaoundé, CM</name><styleUrl>#city</styleUrl><description>near miss: Venus passes 56.7′ from the limb (UTC)</description><Point><coordinates>11.51667,3.86667,0</coordinates></Point></Placemark>
</Folder></Document></kml>
