<?xml version="1.0" encoding="UTF-8"?>
<kml xmlns="http://www.opengis.net/kml/2.2"><Document><name>The Moon occults Venus — 2028-03-30</name>
<description>Graze limits and visibility from https://occult.alokm.com/venus-2028-03-30. Solid limits are traced against the real lunar limb (LRO LOLA); the dotted line is the mean-sphere limit. Times in the city placemarks are UTC, real limb.</description>
<Style id="exact"><LineStyle><color>ff06b6d9</color><width>4</width></LineStyle></Style>
<Style id="mean"><LineStyle><color>8006b6d9</color><width>2</width></LineStyle></Style>
<Style id="region"><LineStyle><color>80e6c07d</color><width>1</width></LineStyle><PolyStyle><color>3fe6c07d</color></PolyStyle></Style>
<Style id="night"><LineStyle><width>0</width></LineStyle><PolyStyle><color>3fed3ac4</color></PolyStyle></Style>
<Style id="city"><IconStyle><scale>0.8</scale></IconStyle></Style>
<Folder><name>Graze limits (real lunar limb)</name>
<Placemark><name>south limit — real limb</name><styleUrl>#exact</styleUrl><LineString><tessellate>1</tessellate><coordinates>180.0,70.9497,0 179.0,70.9714,0 178.0,70.9923,0 177.0,71.0064,0 176.0,71.0173,0 175.0,71.0231,0 174.18,71.026,0 174.0,71.026,0 173.85,71.0255,0 173.0,71.0236,0 172.0,71.0216,0 171.0,71.011,0 170.0,70.9965,0 169.0,70.9768,0 168.0,70.9531,0 167.0,70.9237,0 166.0,70.8837,0 165.0,70.8391,0 164.0,70.7906,0 163.0,70.7386,0 162.0,70.6773,0 161.0,70.61,0 160.0,70.5377,0 159.0,70.4611,0 158.0,70.3777,0 157.0,70.2886,0 156.0,70.1982,0 155.0,70.1022,0 154.21,70.0204,0 154.0,69.9973,0 153.0,69.8804,0 152.0,69.7637,0 151.0,69.6394,0 150.0,69.5068,0 149.0,69.3726,0 148.0,69.2321,0 147.0,69.0864,0 146.54,69.0167,0 146.0,68.9323,0 145.0,68.7601,0 144.0,68.5823,0 143.0,68.3986,0 142.0,68.2171,0 141.0,68.0197,0 140.96,68.0117,0 140.0,67.8147,0 139.0,67.5986,0 138.0,67.3734,0 137.0,67.1422,0 136.48,67.0208,0 136.0,66.9029,0 135.0,66.6474,0 134.0,66.3821,0 133.0,66.11,0 132.71,66.0299,0 132.0,65.8249,0 131.0,65.5262,0 130.0,65.2114,0 129.43,65.0228,0 129.0,64.8796,0 128.0,64.5409,0 127.0,64.1896,0 126.53,64.0213,0 126.0,63.8241,0 125.0,63.4565,0 124.0,63.0695,0 123.91,63.0331,0 123.0,62.6588,0 122.0,62.2393,0 121.53,62.0401,0 121.0,61.8067,0 120.0,61.3565,0 119.34,61.0494,0 119.0,60.8869,0 118.0,60.4021,0 117.29,60.049,0 117.0,59.9031,0 116.0,59.3787,0 115.38,59.0488,0 115.0,58.8428,0 114.0,58.2738,0 113.57,58.0253,0 113.0,57.689,0 112.0,57.0837,0 111.85,56.9934,0 111.0,56.4766,0 110.21,55.9949,0 110.0,55.8651,0 109.0,55.2403,0 108.62,54.9986,0 108.0,54.602,0 107.09,54.0228,0 107.0,53.9644,0 106.0,53.3125,0 105.59,53.0381,0 105.0,52.6399,0 104.13,52.0359,0 104.0,51.9467,0 103.0,51.2556,0 102.69,51.0386,0 102.0,50.5582,0 101.27,50.0455,0 101.0,49.8543,0 100.0,49.1459,0 99.86,49.0461,0 99.0,48.4359,0 98.46,48.0512,0 98.0,47.7254,0 97.05,47.0503,0 97.0,47.0149,0 96.0,46.307,0 95.64,46.0529,0 95.0,45.6023,0 94.21,45.0491,0 94.0,44.9026,0 93.0,44.2069,0 92.77,44.0486,0 92.0,43.5188,0 91.3,43.0437,0 91.0,42.8409,0 90.0,42.1713,0 89.8,42.0381,0 89.0,41.5107,0 88.27,41.0352,0 88.0,40.8613,0 87.0,40.2234,0 86.7,40.0372,0 86.0,39.6015,0 85.08,39.0311,0 85.0,38.9809,0 84.0,38.3648,0 83.4,38.0011,0 83.0,37.7632,0 82.0,37.1821,0 81.67,36.9937,0 81.0,36.617,0 80.0,36.0623,0 79.86,35.986,0 79.0,35.5249,0 78.0,35.0075,0 77.98,34.9987,0 77.0,34.5101,0 76.01,34.0254,0 76.0,34.0205,0 75.0,33.5462,0</coordinates></LineString></Placemark>
<Placemark><name>south limit — real limb</name><styleUrl>#exact</styleUrl><LineString><tessellate>1</tessellate><coordinates>-108.0,52.4649,0 -109.0,52.9475,0 -109.13,53.0103,0 -110.0,53.4312,0 -111.0,53.9096,0 -111.21,54.009,0 -112.0,54.3866,0 -113.0,54.8599,0 -113.32,55.0124,0 -114.0,55.3313,0 -115.0,55.7978,0 -115.47,56.0155,0 -116.0,56.2604,0 -117.0,56.7179,0 -117.66,57.0181,0 -118.0,57.171,0 -119.0,57.6168,0 -119.91,58.0198,0 -120.0,58.0587,0 -121.0,58.4992,0 -122.0,58.9299,0 -122.23,59.0278,0 -123.0,59.3502,0 -124.0,59.7613,0 -124.65,60.0241,0 -125.0,60.1656,0 -126.0,60.563,0 -127.0,60.9542,0 -127.18,61.0245,0 -128.0,61.3382,0 -129.0,61.7106,0 -129.85,62.0224,0 -130.0,62.0772,0 -131.0,62.4362,0 -132.0,62.7833,0 -132.7,63.0213,0 -133.0,63.123,0 -134.0,63.4628,0 -135.0,63.786,0 -135.75,64.025,0 -136.0,64.103,0 -137.0,64.4117,0 -138.0,64.7113,0 -139.0,64.9998,0 -139.09,65.0254,0 -140.0,65.2832,0 -141.0,65.5543,0 -142.0,65.8217,0 -142.78,66.0267,0 -143.0,66.0836,0 -144.0,66.3363,0 -145.0,66.5805,0 -146.0,66.8147,0 -146.95,67.0264,0 -147.0,67.0375,0 -148.0,67.2587,0 -149.0,67.4725,0 -150.0,67.6792,0 -151.0,67.8755,0 -151.81,68.029,0 -152.0,68.0651,0 -153.0,68.248,0 -154.0,68.4207,0 -155.0,68.5858,0 -156.0,68.7536,0 -157.0,68.916,0 -157.76,69.0349,0 -158.0,69.0702,0 -159.0,69.2172,0 -160.0,69.3577,0 -161.0,69.4899,0 -162.0,69.6166,0 -163.0,69.7343,0 -164.0,69.8447,0 -165.0,69.9508,0 -165.78,70.028,0 -166.0,70.0492,0 -167.0,70.1457,0 -168.0,70.2373,0 -169.0,70.3256,0 -170.0,70.4065,0 -171.0,70.4816,0 -172.0,70.5507,0 -173.0,70.6175,0 -174.0,70.6781,0 -175.0,70.7386,0 -176.0,70.7923,0 -177.0,70.8396,0 -178.0,70.8805,0 -179.0,70.917,0 -180.0,70.9497,0</coordinates></LineString></Placemark>
</Folder><Folder><name>Mean-sphere limits</name>
<Placemark><name>south limit — mean sphere</name><styleUrl>#mean</styleUrl><LineString><tessellate>1</tessellate><coordinates>180.0,70.92,0 179.0,70.94,0 178.0,70.96,0 177.0,70.98,0 176.0,70.99,0 175.0,71.0,0 174.18,71.0,0 174.0,71.0,0 173.85,71.0,0 173.0,71.0,0 172.0,70.99,0 171.0,70.98,0 170.0,70.96,0 169.0,70.94,0 168.0,70.91,0 167.0,70.88,0 166.0,70.84,0 165.0,70.8,0 164.0,70.75,0 163.0,70.7,0 162.0,70.64,0 161.0,70.58,0 160.0,70.51,0 159.0,70.44,0 158.0,70.36,0 157.0,70.27,0 156.0,70.18,0 155.0,70.08,0 154.21,70.0,0 154.0,69.98,0 153.0,69.87,0 152.0,69.75,0 151.0,69.63,0 150.0,69.5,0 149.0,69.37,0 148.0,69.22,0 147.0,69.07,0 146.54,69.0,0 146.0,68.92,0 145.0,68.75,0 144.0,68.58,0 143.0,68.4,0 142.0,68.21,0 141.0,68.01,0 140.96,68.0,0 140.0,67.8,0 139.0,67.59,0 138.0,67.36,0 137.0,67.13,0 136.48,67.0,0 136.0,66.88,0 135.0,66.63,0 134.0,66.36,0 133.0,66.08,0 132.71,66.0,0 132.0,65.8,0 131.0,65.5,0 130.0,65.18,0 129.43,65.0,0 129.0,64.86,0 128.0,64.52,0 127.0,64.17,0 126.53,64.0,0 126.0,63.81,0 125.0,63.43,0 124.0,63.03,0 123.91,63.0,0 123.0,62.63,0 122.0,62.2,0 121.53,62.0,0 121.0,61.77,0 120.0,61.31,0 119.34,61.0,0 119.0,60.84,0 118.0,60.36,0 117.29,60.0,0 117.0,59.85,0 116.0,59.33,0 115.38,59.0,0 115.0,58.8,0 114.0,58.24,0 113.57,58.0,0 113.0,57.67,0 112.0,57.09,0 111.85,57.0,0 111.0,56.49,0 110.21,56.0,0 110.0,55.87,0 109.0,55.24,0 108.62,55.0,0 108.0,54.6,0 107.09,54.0,0 107.0,53.94,0 106.0,53.28,0 105.59,53.0,0 105.0,52.6,0 104.13,52.0,0 104.0,51.91,0 103.0,51.22,0 102.69,51.0,0 102.0,50.51,0 101.27,50.0,0 101.0,49.81,0 100.0,49.1,0 99.86,49.0,0 99.0,48.39,0 98.46,48.0,0 98.0,47.68,0 97.05,47.0,0 97.0,46.96,0 96.0,46.26,0 95.64,46.0,0 95.0,45.55,0 94.21,45.0,0 94.0,44.85,0 93.0,44.16,0 92.77,44.0,0 92.0,43.48,0 91.3,43.0,0 91.0,42.8,0 90.0,42.13,0 89.8,42.0,0 89.0,41.47,0 88.27,41.0,0 88.0,40.83,0 87.0,40.19,0 86.7,40.0,0 86.0,39.57,0 85.08,39.0,0 85.0,38.95,0 84.0,38.35,0 83.4,38.0,0 83.0,37.76,0 82.0,37.19,0 81.67,37.0,0 81.0,36.63,0 80.0,36.07,0 79.86,36.0,0 79.0,35.54,0 78.0,35.01,0 77.98,35.0,0 77.0,34.5,0 76.01,34.0,0 76.0,34.0,0 75.0,33.51,0</coordinates></LineString></Placemark>
<Placemark><name>south limit — mean sphere</name><styleUrl>#mean</styleUrl><LineString><tessellate>1</tessellate><coordinates>-108.0,52.45,0 -109.0,52.94,0 -109.13,53.0,0 -110.0,53.42,0 -111.0,53.9,0 -111.21,54.0,0 -112.0,54.38,0 -113.0,54.85,0 -113.32,55.0,0 -114.0,55.32,0 -115.0,55.79,0 -115.47,56.0,0 -116.0,56.25,0 -117.0,56.7,0 -117.66,57.0,0 -118.0,57.16,0 -119.0,57.6,0 -119.91,58.0,0 -120.0,58.04,0 -121.0,58.48,0 -122.0,58.9,0 -122.23,59.0,0 -123.0,59.32,0 -124.0,59.74,0 -124.65,60.0,0 -125.0,60.14,0 -126.0,60.54,0 -127.0,60.93,0 -127.18,61.0,0 -128.0,61.31,0 -129.0,61.69,0 -129.85,62.0,0 -130.0,62.05,0 -131.0,62.41,0 -132.0,62.76,0 -132.7,63.0,0 -133.0,63.1,0 -134.0,63.44,0 -135.0,63.76,0 -135.75,64.0,0 -136.0,64.08,0 -137.0,64.39,0 -138.0,64.69,0 -139.0,64.98,0 -139.09,65.0,0 -140.0,65.26,0 -141.0,65.53,0 -142.0,65.8,0 -142.78,66.0,0 -143.0,66.06,0 -144.0,66.31,0 -145.0,66.55,0 -146.0,66.79,0 -146.95,67.0,0 -147.0,67.01,0 -148.0,67.23,0 -149.0,67.44,0 -150.0,67.65,0 -151.0,67.85,0 -151.81,68.0,0 -152.0,68.04,0 -153.0,68.22,0 -154.0,68.4,0 -155.0,68.57,0 -156.0,68.73,0 -157.0,68.89,0 -157.76,69.0,0 -158.0,69.04,0 -159.0,69.18,0 -160.0,69.32,0 -161.0,69.45,0 -162.0,69.58,0 -163.0,69.7,0 -164.0,69.81,0 -165.0,69.92,0 -165.78,70.0,0 -166.0,70.02,0 -167.0,70.12,0 -168.0,70.21,0 -169.0,70.3,0 -170.0,70.38,0 -171.0,70.46,0 -172.0,70.53,0 -173.0,70.6,0 -174.0,70.66,0 -175.0,70.71,0 -176.0,70.76,0 -177.0,70.81,0 -178.0,70.85,0 -179.0,70.88,0 -180.0,70.92,0</coordinates></LineString></Placemark>
</Folder><Folder><name>Visibility</name>
<Placemark><name>sees the occultation</name><styleUrl>#region</styleUrl><Polygon><outerBoundaryIs><LinearRing><coordinates>67.94,32.0,0 68.0,31.95,0 69.0,31.81,0 70.0,31.59,0 71.0,31.71,0 71.74,32.0,0 72.0,32.12,0 73.0,32.57,0 73.93,33.0,0 74.0,33.03,0 75.0,33.51,0 76.0,34.0,0 76.01,34.0,0 77.0,34.5,0 77.98,35.0,0 78.0,35.01,0 79.0,35.54,0 79.86,36.0,0 80.0,36.07,0 81.0,36.63,0 81.67,37.0,0 82.0,37.19,0 83.0,37.76,0 83.4,38.0,0 84.0,38.35,0 85.0,38.95,0 85.08,39.0,0 86.0,39.57,0 86.7,40.0,0 87.0,40.19,0 88.0,40.83,0 88.27,41.0,0 89.0,41.47,0 89.8,42.0,0 90.0,42.13,0 91.0,42.8,0 91.3,43.0,0 92.0,43.48,0 92.77,44.0,0 93.0,44.16,0 94.0,44.85,0 94.21,45.0,0 95.0,45.55,0 95.64,46.0,0 96.0,46.26,0 97.0,46.96,0 97.05,47.0,0 98.0,47.68,0 98.46,48.0,0 99.0,48.39,0 99.86,49.0,0 100.0,49.1,0 101.0,49.81,0 101.27,50.0,0 102.0,50.51,0 102.69,51.0,0 103.0,51.22,0 104.0,51.91,0 104.13,52.0,0 105.0,52.6,0 105.59,53.0,0 106.0,53.28,0 107.0,53.94,0 107.09,54.0,0 108.0,54.6,0 108.62,55.0,0 109.0,55.24,0 110.0,55.87,0 110.21,56.0,0 111.0,56.49,0 111.85,57.0,0 112.0,57.09,0 113.0,57.67,0 113.57,58.0,0 114.0,58.24,0 115.0,58.8,0 115.38,59.0,0 116.0,59.33,0 117.0,59.85,0 117.29,60.0,0 118.0,60.36,0 119.0,60.84,0 119.34,61.0,0 120.0,61.31,0 121.0,61.77,0 121.53,62.0,0 122.0,62.2,0 123.0,62.63,0 123.91,63.0,0 124.0,63.03,0 125.0,63.43,0 126.0,63.81,0 126.53,64.0,0 127.0,64.17,0 128.0,64.52,0 129.0,64.86,0 129.43,65.0,0 130.0,65.18,0 131.0,65.5,0 132.0,65.8,0 132.71,66.0,0 133.0,66.08,0 134.0,66.36,0 135.0,66.63,0 136.0,66.88,0 136.48,67.0,0 137.0,67.13,0 138.0,67.36,0 139.0,67.59,0 140.0,67.8,0 140.96,68.0,0 141.0,68.01,0 142.0,68.21,0 143.0,68.4,0 144.0,68.58,0 145.0,68.75,0 146.0,68.92,0 146.54,69.0,0 147.0,69.07,0 148.0,69.22,0 149.0,69.37,0 150.0,69.5,0 151.0,69.63,0 152.0,69.75,0 153.0,69.87,0 154.0,69.98,0 154.21,70.0,0 155.0,70.08,0 156.0,70.18,0 157.0,70.27,0 158.0,70.36,0 159.0,70.44,0 160.0,70.51,0 161.0,70.58,0 162.0,70.64,0 163.0,70.7,0 164.0,70.75,0 165.0,70.8,0 166.0,70.84,0 167.0,70.88,0 168.0,70.91,0 169.0,70.94,0 170.0,70.96,0 171.0,70.98,0 172.0,70.99,0 173.0,71.0,0 173.85,71.0,0 174.0,71.0,0 174.18,71.0,0 175.0,71.0,0 176.0,70.99,0 177.0,70.98,0 178.0,70.96,0 179.0,70.94,0 180.0,70.92,0 180.0,71.0,0 180.0,72.0,0 180.0,73.0,0 180.0,74.0,0 180.0,75.0,0 180.0,76.0,0 180.0,77.0,0 180.0,78.0,0 180.0,79.0,0 180.0,80.0,0 179.0,80.0,0 178.0,80.0,0 177.0,80.0,0 176.0,80.0,0 175.0,80.0,0 174.0,80.0,0 173.0,80.0,0 172.0,80.0,0 171.0,80.0,0 170.0,80.0,0 169.0,80.0,0 168.0,80.0,0 167.0,80.0,0 166.0,80.0,0 165.0,80.0,0 164.0,80.0,0 163.0,80.0,0 162.0,80.0,0 161.0,80.0,0 160.0,80.0,0 159.0,80.0,0 158.0,80.0,0 157.0,80.0,0 156.0,80.0,0 155.0,80.0,0 154.0,80.0,0 153.0,80.0,0 152.0,80.0,0 151.0,80.0,0 150.0,80.0,0 149.0,80.0,0 148.0,80.0,0 147.0,80.0,0 146.0,80.0,0 145.0,80.0,0 144.0,80.0,0 143.0,80.0,0 142.0,80.0,0 141.0,80.0,0 140.0,80.0,0 139.0,80.0,0 138.0,80.0,0 137.0,80.0,0 136.0,80.0,0 135.0,80.0,0 134.0,80.0,0 133.0,80.0,0 132.0,80.0,0 131.0,80.0,0 130.0,80.0,0 129.0,80.0,0 128.0,80.0,0 127.0,80.0,0 126.0,80.0,0 125.0,80.0,0 124.0,80.0,0 123.0,80.0,0 122.0,80.0,0 121.0,80.0,0 120.0,80.0,0 119.0,80.0,0 118.0,80.0,0 117.0,80.0,0 116.0,80.0,0 115.0,80.0,0 114.0,80.0,0 113.0,80.0,0 112.0,80.0,0 111.0,80.0,0 110.0,80.0,0 109.0,80.0,0 108.0,80.0,0 107.0,80.0,0 106.0,80.0,0 105.0,80.0,0 104.0,80.0,0 103.0,80.0,0 102.0,80.0,0 101.0,80.0,0 100.0,80.0,0 99.0,80.0,0 98.0,80.0,0 97.0,80.0,0 96.0,80.0,0 95.0,80.0,0 94.0,80.0,0 93.0,80.0,0 92.0,80.0,0 91.0,80.0,0 90.0,80.0,0 89.0,80.0,0 88.0,80.0,0 87.0,80.0,0 86.0,80.0,0 85.0,80.0,0 84.0,80.0,0 83.0,80.0,0 82.0,80.0,0 81.0,80.0,0 80.0,80.0,0 79.0,80.0,0 78.0,80.0,0 77.0,80.0,0 76.0,80.0,0 75.0,80.0,0 74.0,80.0,0 73.0,80.0,0 72.0,80.0,0 71.0,80.0,0 70.0,80.0,0 69.0,80.0,0 68.0,80.0,0 67.0,80.0,0 66.0,80.0,0 65.0,80.0,0 64.0,80.0,0 63.0,80.0,0 62.0,80.0,0 61.0,80.0,0 60.0,80.0,0 59.0,80.0,0 58.0,80.0,0 57.0,80.0,0 56.0,80.0,0 55.0,80.0,0 54.0,80.0,0 53.0,80.0,0 52.0,80.0,0 51.0,80.0,0 50.0,80.0,0 49.0,80.0,0 48.0,80.0,0 47.0,80.0,0 46.0,80.0,0 45.0,80.0,0 44.0,80.0,0 43.0,80.0,0 42.0,80.0,0 41.0,80.0,0 40.0,80.0,0 39.0,80.0,0 38.0,80.0,0 37.0,80.0,0 36.0,80.0,0 35.0,80.0,0 34.0,80.0,0 33.0,80.0,0 32.0,80.0,0 31.0,80.0,0 30.0,80.0,0 29.0,80.0,0 28.0,80.0,0 27.0,80.0,0 26.0,80.0,0 25.0,80.0,0 24.0,80.0,0 23.0,80.0,0 22.0,80.0,0 21.0,80.0,0 20.0,80.0,0 19.0,80.0,0 18.0,80.0,0 17.0,80.0,0 16.0,80.0,0 15.0,80.0,0 14.0,80.0,0 13.0,80.0,0 12.0,80.0,0 11.0,80.0,0 10.0,80.0,0 9.0,80.0,0 8.0,80.0,0 7.0,80.0,0 6.0,80.0,0 5.0,80.0,0 4.0,80.0,0 3.0,80.0,0 2.0,80.0,0 1.0,80.0,0 0.0,80.0,0 -1.0,80.0,0 -2.0,80.0,0 -3.0,80.0,0 -4.0,80.0,0 -5.0,80.0,0 -6.0,80.0,0 -7.0,80.0,0 -8.0,80.0,0 -9.0,80.0,0 -10.0,80.0,0 -11.0,80.0,0 -12.0,80.0,0 -13.0,80.0,0 -14.0,80.0,0 -15.0,80.0,0 -16.0,80.0,0 -17.0,80.0,0 -18.0,80.0,0 -19.0,80.0,0 -20.0,80.0,0 -21.0,80.0,0 -22.0,80.0,0 -23.0,80.0,0 -24.0,80.0,0 -25.0,80.0,0 -26.0,80.0,0 -27.0,80.0,0 -28.0,80.0,0 -29.0,80.0,0 -30.0,80.0,0 -31.0,80.0,0 -32.0,80.0,0 -33.0,80.0,0 -34.0,80.0,0 -35.0,80.0,0 -36.0,80.0,0 -37.0,80.0,0 -38.0,80.0,0 -39.0,80.0,0 -40.0,80.0,0 -41.0,80.0,0 -42.0,80.0,0 -43.0,80.0,0 -44.0,80.0,0 -45.0,80.0,0 -46.0,80.0,0 -47.0,80.0,0 -48.0,80.0,0 -49.0,80.0,0 -50.0,80.0,0 -51.0,80.0,0 -52.0,80.0,0 -53.0,80.0,0 -54.0,80.0,0 -55.0,80.0,0 -56.0,80.0,0 -57.0,80.0,0 -58.0,80.0,0 -59.0,80.0,0 -60.0,80.0,0 -61.0,80.0,0 -62.0,80.0,0 -63.0,80.0,0 -64.0,80.0,0 -65.0,80.0,0 -66.0,80.0,0 -67.0,80.0,0 -68.0,80.0,0 -69.0,80.0,0 -70.0,80.0,0 -71.0,80.0,0 -72.0,80.0,0 -73.0,80.0,0 -74.0,80.0,0 -75.0,80.0,0 -76.0,80.0,0 -77.0,80.0,0 -78.0,80.0,0 -79.0,80.0,0 -80.0,80.0,0 -81.0,80.0,0 -82.0,80.0,0 -83.0,80.0,0 -84.0,80.0,0 -85.0,80.0,0 -86.0,80.0,0 -87.0,80.0,0 -88.0,80.0,0 -89.0,80.0,0 -90.0,80.0,0 -91.0,80.0,0 -92.0,80.0,0 -93.0,80.0,0 -94.0,80.0,0 -95.0,80.0,0 -96.0,80.0,0 -97.0,80.0,0 -98.0,80.0,0 -99.0,80.0,0 -100.0,80.0,0 -101.0,80.0,0 -102.0,80.0,0 -103.0,80.0,0 -104.0,80.0,0 -105.0,80.0,0 -106.0,80.0,0 -107.0,80.0,0 -108.0,80.0,0 -109.0,80.0,0 -110.0,80.0,0 -111.0,80.0,0 -112.0,80.0,0 -113.0,80.0,0 -114.0,80.0,0 -115.0,80.0,0 -116.0,80.0,0 -117.0,80.0,0 -118.0,80.0,0 -119.0,80.0,0 -120.0,80.0,0 -121.0,80.0,0 -122.0,80.0,0 -123.0,80.0,0 -124.0,80.0,0 -125.0,80.0,0 -126.0,80.0,0 -127.0,80.0,0 -128.0,80.0,0 -129.0,80.0,0 -130.0,80.0,0 -131.0,80.0,0 -132.0,80.0,0 -133.0,80.0,0 -134.0,80.0,0 -135.0,80.0,0 -136.0,80.0,0 -137.0,80.0,0 -138.0,80.0,0 -139.0,80.0,0 -140.0,80.0,0 -141.0,80.0,0 -142.0,80.0,0 -143.0,80.0,0 -144.0,80.0,0 -145.0,80.0,0 -146.0,80.0,0 -147.0,80.0,0 -148.0,80.0,0 -149.0,80.0,0 -150.0,80.0,0 -151.0,80.0,0 -152.0,80.0,0 -153.0,80.0,0 -154.0,80.0,0 -155.0,80.0,0 -156.0,80.0,0 -157.0,80.0,0 -158.0,80.0,0 -159.0,80.0,0 -160.0,80.0,0 -161.0,80.0,0 -162.0,80.0,0 -163.0,80.0,0 -164.0,80.0,0 -165.0,80.0,0 -166.0,80.0,0 -167.0,80.0,0 -168.0,80.0,0 -169.0,80.0,0 -170.0,80.0,0 -171.0,80.0,0 -172.0,80.0,0 -173.0,80.0,0 -174.0,80.0,0 -175.0,80.0,0 -176.0,80.0,0 -177.0,80.0,0 -178.0,80.0,0 -179.0,80.0,0 -180.0,80.0,0 -180.0,79.0,0 -180.0,78.0,0 -180.0,77.0,0 -180.0,76.0,0 -180.0,75.0,0 -180.0,74.0,0 -180.0,73.0,0 -180.0,72.0,0 -180.0,71.0,0 -180.0,70.92,0 -179.0,70.88,0 -178.0,70.85,0 -177.0,70.81,0 -176.0,70.76,0 -175.0,70.71,0 -174.0,70.66,0 -173.0,70.6,0 -172.0,70.53,0 -171.0,70.46,0 -170.0,70.38,0 -169.0,70.3,0 -168.0,70.21,0 -167.0,70.12,0 -166.0,70.02,0 -165.78,70.0,0 -165.0,69.92,0 -164.0,69.81,0 -163.0,69.7,0 -162.0,69.58,0 -161.0,69.45,0 -160.0,69.32,0 -159.0,69.18,0 -158.0,69.04,0 -157.76,69.0,0 -157.0,68.89,0 -156.0,68.73,0 -155.0,68.57,0 -154.0,68.4,0 -153.0,68.22,0 -152.0,68.04,0 -151.81,68.0,0 -151.0,67.85,0 -150.0,67.65,0 -149.0,67.44,0 -148.0,67.23,0 -147.0,67.01,0 -146.95,67.0,0 -146.0,66.79,0 -145.0,66.55,0 -144.0,66.31,0 -143.0,66.06,0 -142.78,66.0,0 -142.0,65.8,0 -141.0,65.53,0 -140.0,65.26,0 -139.09,65.0,0 -139.0,64.98,0 -138.0,64.69,0 -137.0,64.39,0 -136.0,64.08,0 -135.75,64.0,0 -135.0,63.76,0 -134.0,63.44,0 -133.0,63.1,0 -132.7,63.0,0 -132.0,62.76,0 -131.0,62.41,0 -130.0,62.05,0 -129.85,62.0,0 -129.0,61.69,0 -128.0,61.31,0 -127.18,61.0,0 -127.0,60.93,0 -126.0,60.54,0 -125.0,60.14,0 -124.65,60.0,0 -124.0,59.74,0 -123.0,59.32,0 -122.23,59.0,0 -122.0,58.9,0 -121.0,58.48,0 -120.0,58.04,0 -119.91,58.0,0 -119.0,57.6,0 -118.0,57.16,0 -117.66,57.0,0 -117.0,56.7,0 -116.0,56.25,0 -115.47,56.0,0 -115.0,55.79,0 -114.0,55.32,0 -113.32,55.0,0 -113.0,54.85,0 -112.0,54.38,0 -111.21,54.0,0 -111.0,53.9,0 -110.0,53.42,0 -109.13,53.0,0 -109.0,52.94,0 -108.0,52.45,0 -107.07,52.0,0 -107.0,51.97,0 -106.0,51.48,0 -105.02,51.0,0 -105.0,50.99,0 -104.0,50.8,0 -103.0,50.77,0 -102.32,51.0,0 -102.0,51.13,0 -101.0,51.28,0 -100.0,51.62,0 -99.0,51.94,0 -98.67,52.0,0 -98.0,52.22,0 -97.0,52.74,0 -96.0,52.95,0 -95.92,53.0,0 -95.0,53.58,0 -94.0,53.82,0 -93.25,54.0,0 -93.0,54.07,0 -92.0,54.72,0 -91.0,54.98,0 -90.97,55.0,0 -90.0,55.48,0 -89.0,55.92,0 -88.72,56.0,0 -88.0,56.16,0 -87.0,56.5,0 -86.0,56.85,0 -85.69,57.0,0 -85.0,57.35,0 -84.0,57.56,0 -83.1,58.0,0 -83.0,58.05,0 -82.0,58.28,0 -81.0,58.78,0 -80.0,58.99,0 -79.95,59.0,0 -79.0,59.22,0 -78.0,59.73,0 -77.0,59.95,0 -76.75,60.0,0 -76.0,60.17,0 -75.0,60.54,0 -74.0,60.91,0 -73.62,61.0,0 -73.0,61.11,0 -72.0,61.29,0 -71.0,61.69,0 -70.0,61.87,0 -69.67,62.0,0 -69.0,62.23,0 -68.0,62.38,0 -67.0,62.64,0 -66.0,62.85,0 -65.0,62.99,0 -64.98,63.0,0 -64.0,63.28,0 -63.0,63.48,0 -62.0,63.68,0 -61.0,63.96,0 -60.71,64.0,0 -60.0,64.08,0 -59.0,64.22,0 -58.0,64.43,0 -57.0,64.63,0 -56.0,64.78,0 -55.0,64.89,0 -54.55,65.0,0 -54.0,65.12,0 -53.0,65.2,0 -52.0,65.39,0 -51.0,65.48,0 -50.0,65.67,0 -49.0,65.75,0 -48.0,65.94,0 -47.34,66.0,0 -47.0,66.03,0 -46.0,66.21,0 -45.0,66.27,0 -44.0,66.31,0 -43.0,66.41,0 -42.0,66.44,0 -41.0,66.53,0 -40.0,66.58,0 -39.0,66.7,0 -38.0,66.75,0 -37.0,66.87,0 -36.0,66.92,0 -35.32,67.0,0 -35.0,67.06,0 -34.0,67.22,0 -33.0,67.27,0 -32.0,67.37,0 -31.0,67.36,0 -30.0,67.26,0 -29.0,67.2,0 -28.0,67.14,0 -27.0,67.06,0 -26.29,67.0,0 -26.0,66.98,0 -25.0,66.86,0 -24.0,66.8,0 -23.0,66.75,0 -22.0,66.67,0 -21.0,66.56,0 -20.0,66.51,0 -19.0,66.41,0 -18.0,66.35,0 -17.0,66.31,0 -16.0,66.19,0 -15.0,66.13,0 -14.0,66.05,0 -13.74,66.0,0 -13.0,65.86,0 -12.0,65.74,0 -11.0,65.65,0 -10.0,65.55,0 -9.0,65.33,0 -8.0,65.24,0 -7.0,65.14,0 -6.0,65.04,0 -5.78,65.0,0 -5.0,64.81,0 -4.0,64.65,0 -3.0,64.52,0 -2.0,64.34,0 -1.0,64.11,0 -0.11,64.0,0 0.0,63.98,0 1.0,63.83,0 2.0,63.5,0 3.0,63.35,0 4.0,63.2,0 4.59,63.0,0 5.0,62.86,0 6.0,62.65,0 7.0,62.46,0 8.0,62.23,0 8.67,62.0,0 9.0,61.86,0 10.0,61.68,0 11.0,61.5,0 12.0,61.09,0 12.48,61.0,0 13.0,60.88,0 14.0,60.64,0 15.0,60.31,0 15.76,60.0,0 16.0,59.9,0 17.0,59.64,0 18.0,59.4,0 18.76,59.0,0 19.0,58.87,0 20.0,58.64,0 21.0,58.4,0 21.76,58.0,0 22.0,57.87,0 23.0,57.64,0 24.0,57.16,0 24.48,57.0,0 25.0,56.83,0 26.0,56.35,0 27.0,56.12,0 27.23,56.0,0 28.0,55.43,0 29.0,55.1,0 29.3,55.0,0 30.0,54.77,0 31.0,54.03,0 31.09,54.0,0 32.0,53.71,0 33.0,53.38,0 33.52,53.0,0 34.0,52.64,0 35.0,52.32,0 35.44,52.0,0 36.0,51.59,0 37.0,51.27,0 37.37,51.0,0 38.0,50.54,0 39.0,50.22,0 39.3,50.0,0 40.0,49.49,0 41.0,49.17,0 41.24,49.0,0 42.0,48.45,0 42.63,48.0,0 43.0,47.73,0 44.0,47.03,0 44.05,47.0,0 45.0,46.5,0 45.97,46.0,0 46.0,45.98,0 47.0,45.47,0 47.92,45.0,0 48.0,44.96,0 48.82,44.0,0 49.0,43.87,0 50.0,43.29,0 50.58,43.0,0 51.0,42.79,0 52.0,42.3,0 52.27,42.0,0 53.0,41.17,0 53.35,41.0,0 54.0,40.69,0 55.0,40.22,0 55.2,40.0,0 56.0,39.13,0 56.28,39.0,0 57.0,38.67,0 58.0,38.23,0 58.22,38.0,0 59.0,37.18,0 59.43,37.0,0 60.0,36.76,0 60.77,36.0,0 61.0,35.76,0 62.0,35.37,0 62.95,35.0,0 63.0,34.98,0 64.0,34.07,0 64.2,34.0,0 65.0,33.74,0 65.89,33.0,0 66.0,32.91,0 67.0,32.65,0 67.94,32.0,0</coordinates></LinearRing></outerBoundaryIs></Polygon></Placemark>
<Placemark><name>after sunset</name><styleUrl>#night</styleUrl><Polygon><outerBoundaryIs><LinearRing><coordinates>-105.02,51.0,0 -105.0,50.99,0 -104.0,50.8,0 -103.0,50.77,0 -102.32,51.0,0 -102.0,51.13,0 -101.0,51.28,0 -100.0,51.62,0 -99.0,51.94,0 -98.67,52.0,0 -98.0,52.22,0 -97.0,52.74,0 -96.0,52.95,0 -95.92,53.0,0 -95.0,53.58,0 -94.0,53.82,0 -93.25,54.0,0 -93.0,54.07,0 -92.0,54.72,0 -91.0,54.98,0 -90.97,55.0,0 -90.0,55.48,0 -89.0,55.92,0 -88.72,56.0,0 -88.0,56.16,0 -87.0,56.5,0 -86.0,56.85,0 -85.69,57.0,0 -85.0,57.35,0 -84.0,57.56,0 -83.1,58.0,0 -83.0,58.05,0 -82.0,58.28,0 -81.0,58.78,0 -80.0,58.99,0 -79.95,59.0,0 -79.0,59.22,0 -78.0,59.73,0 -77.0,59.95,0 -76.75,60.0,0 -76.0,60.17,0 -75.0,60.54,0 -74.0,60.91,0 -73.62,61.0,0 -73.0,61.11,0 -72.0,61.29,0 -71.0,61.69,0 -70.0,61.87,0 -69.67,62.0,0 -69.0,62.23,0 -68.0,62.38,0 -67.0,62.64,0 -66.0,62.85,0 -65.0,62.99,0 -64.98,63.0,0 -64.0,63.28,0 -63.0,63.48,0 -62.0,63.68,0 -61.0,63.96,0 -60.71,64.0,0 -60.0,64.08,0 -59.0,64.22,0 -58.0,64.43,0 -57.0,64.63,0 -56.0,64.78,0 -55.0,64.89,0 -54.55,65.0,0 -54.0,65.12,0 -53.0,65.2,0 -52.0,65.39,0 -51.0,65.48,0 -50.0,65.67,0 -49.0,65.75,0 -48.0,65.94,0 -47.34,66.0,0 -47.0,66.03,0 -46.0,66.21,0 -45.0,66.27,0 -44.0,66.31,0 -43.0,66.41,0 -42.0,66.44,0 -41.0,66.53,0 -40.0,66.58,0 -39.0,66.7,0 -38.0,66.75,0 -37.0,66.87,0 -36.0,66.92,0 -35.32,67.0,0 -35.0,67.06,0 -34.0,67.22,0 -33.0,67.27,0 -32.0,67.37,0 -31.0,67.36,0 -30.0,67.26,0 -29.0,67.2,0 -28.0,67.14,0 -27.0,67.06,0 -26.29,67.0,0 -26.0,66.98,0 -25.0,66.86,0 -24.0,66.8,0 -23.0,66.75,0 -22.0,66.67,0 -21.0,66.56,0 -20.0,66.51,0 -19.0,66.41,0 -18.0,66.35,0 -17.0,66.31,0 -16.0,66.19,0 -15.0,66.13,0 -14.0,66.05,0 -13.74,66.0,0 -13.0,65.97,0 -12.0,65.95,0 -11.0,65.94,0 -10.0,65.93,0 -9.0,65.88,0 -8.0,65.87,0 -7.0,65.87,0 -6.0,65.85,0 -5.0,65.84,0 -4.05,66.0,0 -5.0,66.79,0 -5.21,67.0,0 -6.0,67.62,0 -7.0,67.78,0 -7.21,68.0,0 -8.0,68.57,0 -8.61,69.0,0 -9.0,69.26,0 -10.0,69.83,0 -10.68,70.0,0 -11.0,70.05,0 -12.0,70.57,0 -12.68,71.0,0 -13.0,71.17,0 -14.0,71.59,0 -15.0,71.7,0 -15.42,72.0,0 -16.0,72.27,0 -17.0,72.6,0 -17.7,73.0,0 -18.0,73.12,0 -19.0,73.35,0 -20.0,73.51,0 -21.0,73.92,0 -21.1,74.0,0 -22.0,74.31,0 -23.0,74.51,0 -24.0,74.85,0 -24.87,75.0,0 -25.0,75.01,0 -26.0,75.29,0 -27.0,75.45,0 -28.0,75.66,0 -28.73,76.0,0 -29.0,76.07,0 -30.0,76.3,0 -31.0,76.4,0 -32.0,76.53,0 -33.0,76.58,0 -34.0,76.91,0 -34.16,77.0,0 -35.0,77.16,0 -36.0,77.31,0 -37.0,77.37,0 -38.0,77.46,0 -39.0,77.6,0 -40.0,77.88,0 -41.0,77.98,0 -41.03,78.0,0 -42.0,78.13,0 -43.0,78.26,0 -44.0,78.3,0 -45.0,78.34,0 -46.0,78.4,0 -47.0,78.47,0 -48.0,78.58,0 -49.0,78.75,0 -49.87,79.0,0 -50.0,79.01,0 -51.0,79.04,0 -52.0,79.13,0 -53.0,79.2,0 -54.0,79.24,0 -55.0,79.26,0 -56.0,79.27,0 -57.0,79.3,0 -58.0,79.32,0 -59.0,79.35,0 -60.0,79.38,0 -61.0,79.41,0 -62.0,79.45,0 -63.0,79.49,0 -64.0,79.5,0 -65.0,79.54,0 -66.0,79.59,0 -67.0,79.65,0 -68.0,79.71,0 -69.0,79.78,0 -70.0,79.85,0 -71.0,79.92,0 -72.0,79.99,0 -72.11,80.0,0 -73.0,80.0,0 -74.0,80.0,0 -75.0,80.0,0 -76.0,80.0,0 -77.0,80.0,0 -78.0,80.0,0 -79.0,80.0,0 -80.0,80.0,0 -81.0,80.0,0 -81.32,80.0,0 -82.0,79.95,0 -83.0,79.88,0 -84.0,79.8,0 -85.0,79.73,0 -86.0,79.66,0 -87.0,79.59,0 -88.0,79.53,0 -89.0,79.48,0 -90.0,79.43,0 -91.0,79.39,0 -92.0,79.38,0 -93.0,79.34,0 -94.0,79.31,0 -95.0,79.28,0 -96.0,79.26,0 -97.0,79.24,0 -98.0,79.22,0 -99.0,79.2,0 -100.0,79.18,0 -101.0,79.17,0 -102.0,79.13,0 -103.0,79.05,0 -103.59,79.0,0 -104.0,78.82,0 -105.0,78.56,0 -106.0,78.42,0 -107.0,78.33,0 -108.0,78.27,0 -109.0,78.23,0 -110.0,78.2,0 -111.0,78.17,0 -112.0,78.06,0 -112.44,78.0,0 -113.0,77.67,0 -114.0,77.58,0 -115.0,77.38,0 -116.0,77.28,0 -117.0,77.21,0 -118.0,77.17,0 -119.0,77.06,0 -119.31,77.0,0 -120.0,76.54,0 -121.0,76.32,0 -122.0,76.22,0 -123.0,76.17,0 -124.0,76.14,0 -124.71,76.0,0 -125.0,75.7,0 -126.0,75.32,0 -127.0,75.2,0 -128.0,75.15,0 -128.5,75.0,0 -129.0,74.48,0 -130.0,74.23,0 -131.0,74.15,0 -132.0,74.1,0 -132.37,74.0,0 -133.0,73.36,0 -134.0,73.17,0 -135.0,73.11,0 -135.57,73.0,0 -136.0,72.54,0 -137.0,72.12,0 -138.0,72.02,0 -138.05,72.0,0 -139.0,71.17,0 -140.0,71.09,0 -140.16,71.0,0 -141.0,70.13,0 -142.0,70.06,0 -142.22,70.0,0 -143.0,69.16,0 -144.0,69.05,0 -144.08,69.0,0 -145.0,68.05,0 -146.0,68.02,0 -146.04,68.0,0 -146.95,67.0,0 -146.0,66.79,0 -145.0,66.55,0 -144.0,66.31,0 -143.0,66.06,0 -142.78,66.0,0 -142.0,65.8,0 -141.0,65.53,0 -140.0,65.26,0 -139.09,65.0,0 -139.0,64.98,0 -138.0,64.69,0 -137.0,64.39,0 -136.0,64.08,0 -135.75,64.0,0 -135.0,63.76,0 -134.0,63.44,0 -133.0,63.1,0 -132.7,63.0,0 -132.0,62.76,0 -131.0,62.41,0 -130.0,62.05,0 -129.85,62.0,0 -129.0,61.69,0 -128.0,61.31,0 -127.18,61.0,0 -127.0,60.93,0 -126.0,60.54,0 -125.0,60.14,0 -124.65,60.0,0 -124.0,59.74,0 -123.0,59.32,0 -122.23,59.0,0 -122.0,58.9,0 -121.0,58.48,0 -120.0,58.04,0 -119.91,58.0,0 -119.0,57.6,0 -118.0,57.16,0 -117.66,57.0,0 -117.0,56.7,0 -116.0,56.25,0 -115.47,56.0,0 -115.0,55.79,0 -114.0,55.32,0 -113.32,55.0,0 -113.0,54.85,0 -112.0,54.38,0 -111.21,54.0,0 -111.0,53.9,0 -110.0,53.42,0 -109.13,53.0,0 -109.0,52.94,0 -108.0,52.45,0 -107.07,52.0,0 -107.0,51.97,0 -106.0,51.48,0 -105.02,51.0,0</coordinates></LinearRing></outerBoundaryIs></Polygon></Placemark>
</Folder><Folder><name>Cities</name>
<Placemark><name>Shanghai, CN</name><styleUrl>#city</styleUrl><description>near miss: Venus passes 17.6′ from the limb (UTC)</description><Point><coordinates>121.45806,31.22222,0</coordinates></Point></Placemark>
<Placemark><name>Beijing, CN</name><styleUrl>#city</styleUrl><description>near miss: Venus passes 10.3′ from the limb (UTC)</description><Point><coordinates>116.39723,39.9075,0</coordinates></Point></Placemark>
<Placemark><name>Shenzhen, CN</name><styleUrl>#city</styleUrl><description>near miss: Venus passes 20.0′ from the limb (UTC)</description><Point><coordinates>114.0683,22.54554,0</coordinates></Point></Placemark>
<Placemark><name>Guangzhou, CN</name><styleUrl>#city</styleUrl><description>near miss: Venus passes 19.2′ from the limb (UTC)</description><Point><coordinates>113.25,23.11667,0</coordinates></Point></Placemark>
<Placemark><name>Ho Chi Minh City, VN</name><styleUrl>#city</styleUrl><description>near miss: Venus passes 25.1′ from the limb (UTC)</description><Point><coordinates>106.62965,10.82302,0</coordinates></Point></Placemark>
<Placemark><name>Chengdu, CN</name><styleUrl>#city</styleUrl><description>near miss: Venus passes 10.8′ from the limb (UTC)</description><Point><coordinates>104.06667,30.66667,0</coordinates></Point></Placemark>
<Placemark><name>Lahore, PK</name><styleUrl>#city</styleUrl><description>near miss: Venus passes 1.1′ from the limb (UTC)</description><Point><coordinates>74.35071,31.558,0</coordinates></Point></Placemark>
<Placemark><name>Tianjin, CN</name><styleUrl>#city</styleUrl><description>near miss: Venus passes 11.0′ from the limb (UTC)</description><Point><coordinates>117.17667,39.14222,0</coordinates></Point></Placemark>
<Placemark><name>Delhi, IN</name><styleUrl>#city</styleUrl><description>near miss: Venus passes 3.4′ from the limb (UTC)</description><Point><coordinates>77.23149,28.65195,0</coordinates></Point></Placemark>
<Placemark><name>Wuhan, CN</name><styleUrl>#city</styleUrl><description>near miss: Venus passes 14.9′ from the limb (UTC)</description><Point><coordinates>114.26667,30.58333,0</coordinates></Point></Placemark>
<Placemark><name>Moscow, RU</name><styleUrl>#city</styleUrl><description>D1 03:39:03 · D2 03:39:46 · R1 04:31:16 · R2 04:32:00 (UTC)</description><Point><coordinates>37.61781,55.75204,0</coordinates></Point></Placemark>
<Placemark><name>Dhaka, BD</name><styleUrl>#city</styleUrl><description>near miss: Venus passes 10.2′ from the limb (UTC)</description><Point><coordinates>90.40744,23.7104,0</coordinates></Point></Placemark>
<Placemark><name>Seoul, KR</name><styleUrl>#city</styleUrl><description>near miss: Venus passes 16.0′ from the limb (UTC)</description><Point><coordinates>126.9784,37.566,0</coordinates></Point></Placemark>
<Placemark><name>Tokyo, JP</name><styleUrl>#city</styleUrl><description>near miss: Venus passes 22.7′ from the limb (UTC)</description><Point><coordinates>139.69171,35.6895,0</coordinates></Point></Placemark>
<Placemark><name>Dongguan, CN</name><styleUrl>#city</styleUrl><description>near miss: Venus passes 19.5′ from the limb (UTC)</description><Point><coordinates>113.74866,23.01797,0</coordinates></Point></Placemark>
<Placemark><name>Xi’an, CN</name><styleUrl>#city</styleUrl><description>near miss: Venus passes 10.6′ from the limb (UTC)</description><Point><coordinates>108.92861,34.25833,0</coordinates></Point></Placemark>
<Placemark><name>Nanjing, CN</name><styleUrl>#city</styleUrl><description>near miss: Venus passes 15.9′ from the limb (UTC)</description><Point><coordinates>118.77778,32.06167,0</coordinates></Point></Placemark>
<Placemark><name>Hangzhou, CN</name><styleUrl>#city</styleUrl><description>near miss: Venus passes 17.7′ from the limb (UTC)</description><Point><coordinates>120.16142,30.29365,0</coordinates></Point></Placemark>
<Placemark><name>Foshan, CN</name><styleUrl>#city</styleUrl><description>near miss: Venus passes 19.2′ from the limb (UTC)</description><Point><coordinates>113.13148,23.02677,0</coordinates></Point></Placemark>
<Placemark><name>Jakarta, ID</name><styleUrl>#city</styleUrl><description>near miss: Venus passes 38.9′ from the limb (UTC)</description><Point><coordinates>106.84513,-6.21462,0</coordinates></Point></Placemark>
<Placemark><name>Hanoi, VN</name><styleUrl>#city</styleUrl><description>near miss: Venus passes 17.5′ from the limb (UTC)</description><Point><coordinates>105.84117,21.0245,0</coordinates></Point></Placemark>
<Placemark><name>Taipei, TW</name><styleUrl>#city</styleUrl><description>near miss: Venus passes 21.7′ from the limb (UTC)</description><Point><coordinates>121.52639,25.05306,0</coordinates></Point></Placemark>
<Placemark><name>Chongqing, CN</name><styleUrl>#city</styleUrl><description>near miss: Venus passes 12.4′ from the limb (UTC)</description><Point><coordinates>106.55771,29.56026,0</coordinates></Point></Placemark>
<Placemark><name>Hong Kong, HK</name><styleUrl>#city</styleUrl><description>near miss: Venus passes 20.2′ from the limb (UTC)</description><Point><coordinates>114.17469,22.27832,0</coordinates></Point></Placemark>
<Placemark><name>Wuzhong, CN</name><styleUrl>#city</styleUrl><description>near miss: Venus passes 7.5′ from the limb (UTC)</description><Point><coordinates>106.201,37.9867,0</coordinates></Point></Placemark>
<Placemark><name>Qingdao, CN</name><styleUrl>#city</styleUrl><description>near miss: Venus passes 14.2′ from the limb (UTC)</description><Point><coordinates>120.38042,36.06488,0</coordinates></Point></Placemark>
<Placemark><name>Shenyang, CN</name><styleUrl>#city</styleUrl><description>near miss: Venus passes 11.9′ from the limb (UTC)</description><Point><coordinates>123.43278,41.79222,0</coordinates></Point></Placemark>
<Placemark><name>Suzhou, CN</name><styleUrl>#city</styleUrl><description>near miss: Venus passes 17.2′ from the limb (UTC)</description><Point><coordinates>120.59538,31.30408,0</coordinates></Point></Placemark>
<Placemark><name>Pudong, CN</name><styleUrl>#city</styleUrl><description>near miss: Venus passes 17.6′ from the limb (UTC)</description><Point><coordinates>121.50094,31.23995,0</coordinates></Point></Placemark>
<Placemark><name>Singapore, SG</name><styleUrl>#city</styleUrl><description>near miss: Venus passes 31.4′ from the limb (UTC)</description><Point><coordinates>103.85007,1.28967,0</coordinates></Point></Placemark>
<Placemark><name>Sydney, AU</name><styleUrl>#city</styleUrl><description>near miss: Venus passes 81.5′ from the limb (UTC)</description><Point><coordinates>151.20732,-33.86785,0</coordinates></Point></Placemark>
<Placemark><name>Saint Petersburg, RU</name><styleUrl>#city</styleUrl><description>D1 03:48:08 · D2 03:48:51 · R1 04:40:56 · R2 04:41:41 (UTC)</description><Point><coordinates>30.31413,59.93863,0</coordinates></Point></Placemark>
<Placemark><name>Melbourne, AU</name><styleUrl>#city</styleUrl><description>near miss: Venus passes 81.2′ from the limb (UTC)</description><Point><coordinates>144.96332,-37.814,0</coordinates></Point></Placemark>
<Placemark><name>Harbin, CN</name><styleUrl>#city</styleUrl><description>near miss: Venus passes 10.7′ from the limb (UTC)</description><Point><coordinates>126.65,45.75,0</coordinates></Point></Placemark>
<Placemark><name>Bangkok, TH</name><styleUrl>#city</styleUrl><description>near miss: Venus passes 20.5′ from the limb (UTC)</description><Point><coordinates>100.50144,13.75398,0</coordinates></Point></Placemark>
<Placemark><name>Hefei, CN</name><styleUrl>#city</styleUrl><description>near miss: Venus passes 15.4′ from the limb (UTC)</description><Point><coordinates>117.28083,31.86389,0</coordinates></Point></Placemark>
<Placemark><name>Dalian, CN</name><styleUrl>#city</styleUrl><description>near miss: Venus passes 12.9′ from the limb (UTC)</description><Point><coordinates>121.60222,38.91222,0</coordinates></Point></Placemark>
<Placemark><name>Peshawar, PK</name><styleUrl>#city</styleUrl><description>D1 03:06:59 · D2 03:09:20 · R1 03:24:51 · R2 03:27:03 (UTC)</description><Point><coordinates>71.57849,34.008,0</coordinates></Point></Placemark>
<Placemark><name>Changchun, CN</name><styleUrl>#city</styleUrl><description>near miss: Venus passes 11.4′ from the limb (UTC)</description><Point><coordinates>125.32278,43.88,0</coordinates></Point></Placemark>
<Placemark><name>Kolkata, IN</name><styleUrl>#city</styleUrl><description>near miss: Venus passes 10.2′ from the limb (UTC)</description><Point><coordinates>88.36304,22.56263,0</coordinates></Point></Placemark>
<Placemark><name>Xiamen, CN</name><styleUrl>#city</styleUrl><description>near miss: Venus passes 20.5′ from the limb (UTC)</description><Point><coordinates>118.08187,24.47979,0</coordinates></Point></Placemark>
<Placemark><name>Yangon, MM</name><styleUrl>#city</styleUrl><description>near miss: Venus passes 16.7′ from the limb (UTC)</description><Point><coordinates>96.15611,16.80528,0</coordinates></Point></Placemark>
<Placemark><name>Bao&#x27;an, CN</name><styleUrl>#city</styleUrl><description>near miss: Venus passes 19.9′ from the limb (UTC)</description><Point><coordinates>113.88288,22.55213,0</coordinates></Point></Placemark>
<Placemark><name>Kabul, AF</name><styleUrl>#city</styleUrl><description>D1 03:06:01 · D2 03:07:37 · R1 03:30:21 · R2 03:31:57 (UTC)</description><Point><coordinates>69.17233,34.52813,0</coordinates></Point></Placemark>
<Placemark><name>Wuxi, CN</name><styleUrl>#city</styleUrl><description>near miss: Venus passes 16.9′ from the limb (UTC)</description><Point><coordinates>120.28857,31.56887,0</coordinates></Point></Placemark>
<Placemark><name>Jinan, CN</name><styleUrl>#city</styleUrl><description>near miss: Venus passes 12.4′ from the limb (UTC)</description><Point><coordinates>116.99722,36.66833,0</coordinates></Point></Placemark>
<Placemark><name>Taiyuan, CN</name><styleUrl>#city</styleUrl><description>near miss: Venus passes 10.0′ from the limb (UTC)</description><Point><coordinates>112.56028,37.86944,0</coordinates></Point></Placemark>
<Placemark><name>Zhengzhou, CN</name><styleUrl>#city</styleUrl><description>near miss: Venus passes 12.2′ from the limb (UTC)</description><Point><coordinates>113.64861,34.75778,0</coordinates></Point></Placemark>
<Placemark><name>New Taipei City, TW</name><styleUrl>#city</styleUrl><description>near miss: Venus passes 21.7′ from the limb (UTC)</description><Point><coordinates>121.45703,25.06199,0</coordinates></Point></Placemark>
<Placemark><name>New Territories, HK</name><styleUrl>#city</styleUrl><description>near miss: Venus passes 20.1′ from the limb (UTC)</description><Point><coordinates>114.11095,22.42441,0</coordinates></Point></Placemark>
<Placemark><name>Shijiazhuang, CN</name><styleUrl>#city</styleUrl><description>near miss: Venus passes 10.6′ from the limb (UTC)</description><Point><coordinates>114.47861,38.04139,0</coordinates></Point></Placemark>
<Placemark><name>Chattogram, BD</name><styleUrl>#city</styleUrl><description>near miss: Venus passes 11.5′ from the limb (UTC)</description><Point><coordinates>91.83168,22.3384,0</coordinates></Point></Placemark>
<Placemark><name>Kunming, CN</name><styleUrl>#city</styleUrl><description>near miss: Venus passes 13.7′ from the limb (UTC)</description><Point><coordinates>102.71833,25.03889,0</coordinates></Point></Placemark>
<Placemark><name>Zhongshan, CN</name><styleUrl>#city</styleUrl><description>near miss: Venus passes 19.7′ from the limb (UTC)</description><Point><coordinates>113.37912,22.52306,0</coordinates></Point></Placemark>
<Placemark><name>Nanning, CN</name><styleUrl>#city</styleUrl><description>near miss: Venus passes 17.4′ from the limb (UTC)</description><Point><coordinates>108.31667,22.81667,0</coordinates></Point></Placemark>
<Placemark><name>Shantou, CN</name><styleUrl>#city</styleUrl><description>near miss: Venus passes 20.6′ from the limb (UTC)</description><Point><coordinates>116.67876,23.35489,0</coordinates></Point></Placemark>
<Placemark><name>Faisalabad, PK</name><styleUrl>#city</styleUrl><description>near miss: Venus passes 0.8′ from the limb (UTC)</description><Point><coordinates>73.08969,31.41554,0</coordinates></Point></Placemark>
<Placemark><name>Yokohama, JP</name><styleUrl>#city</styleUrl><description>near miss: Venus passes 22.8′ from the limb (UTC)</description><Point><coordinates>139.65,35.43333,0</coordinates></Point></Placemark>
<Placemark><name>Fuzhou, CN</name><styleUrl>#city</styleUrl><description>near miss: Venus passes 20.0′ from the limb (UTC)</description><Point><coordinates>119.30611,26.06139,0</coordinates></Point></Placemark>
<Placemark><name>Ningbo, CN</name><styleUrl>#city</styleUrl><description>near miss: Venus passes 18.5′ from the limb (UTC)</description><Point><coordinates>121.54945,29.87819,0</coordinates></Point></Placemark>
<Placemark><name>Puyang, CN</name><styleUrl>#city</styleUrl><description>near miss: Venus passes 18.1′ from the limb (UTC)</description><Point><coordinates>119.88872,29.45679,0</coordinates></Point></Placemark>
<Placemark><name>Shiyan, CN</name><styleUrl>#city</styleUrl><description>near miss: Venus passes 12.3′ from the limb (UTC)</description><Point><coordinates>110.77806,32.6475,0</coordinates></Point></Placemark>
<Placemark><name>Tangshan, CN</name><styleUrl>#city</styleUrl><description>near miss: Venus passes 11.1′ from the limb (UTC)</description><Point><coordinates>118.18319,39.64381,0</coordinates></Point></Placemark>
<Placemark><name>Rawalpindi, PK</name><styleUrl>#city</styleUrl><description>D1 03:08:38 · D2 03:13:08 · R1 03:18:10 · R2 03:22:40 (UTC)</description><Point><coordinates>73.0479,33.59733,0</coordinates></Point></Placemark>
<Placemark><name>Lüliang, CN</name><styleUrl>#city</styleUrl><description>near miss: Venus passes 9.6′ from the limb (UTC)</description><Point><coordinates>111.14436,37.5192,0</coordinates></Point></Placemark>
<Placemark><name>Changzhou, CN</name><styleUrl>#city</styleUrl><description>near miss: Venus passes 16.6′ from the limb (UTC)</description><Point><coordinates>119.95401,31.77359,0</coordinates></Point></Placemark>
<Placemark><name>Busan, KR</name><styleUrl>#city</styleUrl><description>near miss: Venus passes 18.5′ from the limb (UTC)</description><Point><coordinates>129.03004,35.10168,0</coordinates></Point></Placemark>
<Placemark><name>Pyongyang, KP</name><styleUrl>#city</styleUrl><description>near miss: Venus passes 14.6′ from the limb (UTC)</description><Point><coordinates>125.75432,39.03385,0</coordinates></Point></Placemark>
<Placemark><name>Zibo, CN</name><styleUrl>#city</styleUrl><description>near miss: Venus passes 12.8′ from the limb (UTC)</description><Point><coordinates>118.06333,36.79056,0</coordinates></Point></Placemark>
<Placemark><name>Changsha, CN</name><styleUrl>#city</styleUrl><description>near miss: Venus passes 15.8′ from the limb (UTC)</description><Point><coordinates>112.97087,28.19874,0</coordinates></Point></Placemark>
<Placemark><name>Quezon City, PH</name><styleUrl>#city</styleUrl><description>near miss: Venus passes 28.8′ from the limb (UTC)</description><Point><coordinates>121.0509,14.6488,0</coordinates></Point></Placemark>
<Placemark><name>Jaipur, IN</name><styleUrl>#city</styleUrl><description>near miss: Venus passes 4.0′ from the limb (UTC)</description><Point><coordinates>75.78781,26.91962,0</coordinates></Point></Placemark>
<Placemark><name>Guiyang, CN</name><styleUrl>#city</styleUrl><description>near miss: Venus passes 14.3′ from the limb (UTC)</description><Point><coordinates>106.71667,26.58333,0</coordinates></Point></Placemark>
<Placemark><name>Ürümqi, CN</name><styleUrl>#city</styleUrl><description>D1 03:13:37 · D2 03:15:56 · R1 03:37:09 · R2 03:39:23 (UTC)</description><Point><coordinates>87.60046,43.80096,0</coordinates></Point></Placemark>
<Placemark><name>Surabaya, ID</name><styleUrl>#city</styleUrl><description>near miss: Venus passes 42.2′ from the limb (UTC)</description><Point><coordinates>112.75083,-7.24917,0</coordinates></Point></Placemark>
<Placemark><name>Incheon, KR</name><styleUrl>#city</styleUrl><description>near miss: Venus passes 15.9′ from the limb (UTC)</description><Point><coordinates>126.70515,37.45646,0</coordinates></Point></Placemark>
<Placemark><name>Lanzhou, CN</name><styleUrl>#city</styleUrl><description>near miss: Venus passes 7.7′ from the limb (UTC)</description><Point><coordinates>103.83987,36.05701,0</coordinates></Point></Placemark>
<Placemark><name>Huizhou, CN</name><styleUrl>#city</styleUrl><description>near miss: Venus passes 19.8′ from the limb (UTC)</description><Point><coordinates>114.41523,23.11147,0</coordinates></Point></Placemark>
<Placemark><name>Haikou, CN</name><styleUrl>#city</styleUrl><description>near miss: Venus passes 20.1′ from the limb (UTC)</description><Point><coordinates>110.34651,20.03421,0</coordinates></Point></Placemark>
<Placemark><name>Taichung, TW</name><styleUrl>#city</styleUrl><description>near miss: Venus passes 21.9′ from the limb (UTC)</description><Point><coordinates>120.6839,24.1469,0</coordinates></Point></Placemark>
<Placemark><name>Kanpur, IN</name><styleUrl>#city</styleUrl><description>near miss: Venus passes 5.5′ from the limb (UTC)</description><Point><coordinates>80.34975,26.46523,0</coordinates></Point></Placemark>
<Placemark><name>Brisbane, AU</name><styleUrl>#city</styleUrl><description>near miss: Venus passes 78.2′ from the limb (UTC)</description><Point><coordinates>153.02809,-27.46794,0</coordinates></Point></Placemark>
<Placemark><name>Osaka, JP</name><styleUrl>#city</styleUrl><description>near miss: Venus passes 21.6′ from the limb (UTC)</description><Point><coordinates>135.50107,34.69379,0</coordinates></Point></Placemark>
<Placemark><name>Linyi, CN</name><styleUrl>#city</styleUrl><description>near miss: Venus passes 13.9′ from the limb (UTC)</description><Point><coordinates>118.34278,35.06306,0</coordinates></Point></Placemark>
<Placemark><name>Baoding, CN</name><styleUrl>#city</styleUrl><description>near miss: Venus passes 10.5′ from the limb (UTC)</description><Point><coordinates>115.46246,38.87288,0</coordinates></Point></Placemark>
<Placemark><name>Kaohsiung, TW</name><styleUrl>#city</styleUrl><description>near miss: Venus passes 22.8′ from the limb (UTC)</description><Point><coordinates>120.31333,22.61626,0</coordinates></Point></Placemark>
<Placemark><name>Minhang, CN</name><styleUrl>#city</styleUrl><description>near miss: Venus passes 17.7′ from the limb (UTC)</description><Point><coordinates>121.37471,31.10881,0</coordinates></Point></Placemark>
<Placemark><name>Bazhong, CN</name><styleUrl>#city</styleUrl><description>near miss: Venus passes 11.1′ from the limb (UTC)</description><Point><coordinates>106.74432,31.8694,0</coordinates></Point></Placemark>
<Placemark><name>Gazipur, BD</name><styleUrl>#city</styleUrl><description>near miss: Venus passes 10.0′ from the limb (UTC)</description><Point><coordinates>90.42234,23.99844,0</coordinates></Point></Placemark>
<Placemark><name>Wenzhou, CN</name><styleUrl>#city</styleUrl><description>near miss: Venus passes 19.4′ from the limb (UTC)</description><Point><coordinates>120.66682,27.99942,0</coordinates></Point></Placemark>
<Placemark><name>Bekasi, ID</name><styleUrl>#city</styleUrl><description>near miss: Venus passes 38.9′ from the limb (UTC)</description><Point><coordinates>106.9896,-6.2349,0</coordinates></Point></Placemark>
<Placemark><name>Haiphong, VN</name><styleUrl>#city</styleUrl><description>near miss: Venus passes 18.0′ from the limb (UTC)</description><Point><coordinates>106.68345,20.86481,0</coordinates></Point></Placemark>
<Placemark><name>Yunfu, CN</name><styleUrl>#city</styleUrl><description>near miss: Venus passes 18.8′ from the limb (UTC)</description><Point><coordinates>112.03809,22.92787,0</coordinates></Point></Placemark>
<Placemark><name>Bandung, ID</name><styleUrl>#city</styleUrl><description>near miss: Venus passes 39.8′ from the limb (UTC)</description><Point><coordinates>107.60694,-6.92222,0</coordinates></Point></Placemark>
<Placemark><name>Gujranwala, PK</name><styleUrl>#city</styleUrl><description>near miss: Venus passes 0.7′ from the limb (UTC)</description><Point><coordinates>74.18705,32.15567,0</coordinates></Point></Placemark>
<Placemark><name>Huai&#x27;an, CN</name><styleUrl>#city</styleUrl><description>near miss: Venus passes 15.1′ from the limb (UTC)</description><Point><coordinates>119.01917,33.58861,0</coordinates></Point></Placemark>
<Placemark><name>Medan, ID</name><styleUrl>#city</styleUrl><description>near miss: Venus passes 27.6′ from the limb (UTC)</description><Point><coordinates>98.66667,3.58333,0</coordinates></Point></Placemark>
<Placemark><name>Lucknow, IN</name><styleUrl>#city</styleUrl><description>near miss: Venus passes 5.4′ from the limb (UTC)</description><Point><coordinates>80.92313,26.83928,0</coordinates></Point></Placemark>
<Placemark><name>Daegu, KR</name><styleUrl>#city</styleUrl><description>near miss: Venus passes 17.8′ from the limb (UTC)</description><Point><coordinates>128.59111,35.87028,0</coordinates></Point></Placemark>
<Placemark><name>Nanchang, CN</name><styleUrl>#city</styleUrl><description>near miss: Venus passes 16.8′ from the limb (UTC)</description><Point><coordinates>115.85306,28.68396,0</coordinates></Point></Placemark>
<Placemark><name>Hohhot, CN</name><styleUrl>#city</styleUrl><description>near miss: Venus passes 8.0′ from the limb (UTC)</description><Point><coordinates>111.65222,40.81056,0</coordinates></Point></Placemark>
<Placemark><name>Nagoya, JP</name><styleUrl>#city</styleUrl><description>near miss: Venus passes 21.9′ from the limb (UTC)</description><Point><coordinates>136.90641,35.18147,0</coordinates></Point></Placemark>
<Placemark><name>Perth, AU</name><styleUrl>#city</styleUrl><description>near miss: Venus passes 64.7′ from the limb (UTC)</description><Point><coordinates>115.8614,-31.95224,0</coordinates></Point></Placemark>
<Placemark><name>Shaoxing, CN</name><styleUrl>#city</styleUrl><description>near miss: Venus passes 18.0′ from the limb (UTC)</description><Point><coordinates>120.57864,30.00237,0</coordinates></Point></Placemark>
<Placemark><name>Nantong, CN</name><styleUrl>#city</styleUrl><description>near miss: Venus passes 16.9′ from the limb (UTC)</description><Point><coordinates>120.87472,32.03028,0</coordinates></Point></Placemark>
<Placemark><name>Baoshan, CN</name><styleUrl>#city</styleUrl><description>near miss: Venus passes 17.5′ from the limb (UTC)</description><Point><coordinates>121.48956,31.40845,0</coordinates></Point></Placemark>
<Placemark><name>Kowloon, HK</name><styleUrl>#city</styleUrl><description>near miss: Venus passes 20.2′ from the limb (UTC)</description><Point><coordinates>114.18333,22.31667,0</coordinates></Point></Placemark>
<Placemark><name>Yantai, CN</name><styleUrl>#city</styleUrl><description>near miss: Venus passes 13.7′ from the limb (UTC)</description><Point><coordinates>121.44081,37.47649,0</coordinates></Point></Placemark>
<Placemark><name>Zhuhai, CN</name><styleUrl>#city</styleUrl><description>near miss: Venus passes 19.9′ from the limb (UTC)</description><Point><coordinates>113.56778,22.27694,0</coordinates></Point></Placemark>
<Placemark><name>Depok, ID</name><styleUrl>#city</styleUrl><description>near miss: Venus passes 39.0′ from the limb (UTC)</description><Point><coordinates>106.81861,-6.4,0</coordinates></Point></Placemark>
<Placemark><name>Baotou, CN</name><styleUrl>#city</styleUrl><description>near miss: Venus passes 7.4′ from the limb (UTC)</description><Point><coordinates>109.84389,40.6516,0</coordinates></Point></Placemark>
<Placemark><name>Qingyang, CN</name><styleUrl>#city</styleUrl><description>near miss: Venus passes 9.3′ from the limb (UTC)</description><Point><coordinates>107.64455,35.70976,0</coordinates></Point></Placemark>
<Placemark><name>Kunshan, CN</name><styleUrl>#city</styleUrl><description>near miss: Venus passes 17.3′ from the limb (UTC)</description><Point><coordinates>120.95431,31.37762,0</coordinates></Point></Placemark>
<Placemark><name>Weifang, CN</name><styleUrl>#city</styleUrl><description>near miss: Venus passes 13.2′ from the limb (UTC)</description><Point><coordinates>119.10194,36.71,0</coordinates></Point></Placemark>
<Placemark><name>Zunyi, CN</name><styleUrl>#city</styleUrl><description>near miss: Venus passes 13.7′ from the limb (UTC)</description><Point><coordinates>106.90722,27.68667,0</coordinates></Point></Placemark>
<Placemark><name>Lianyungang, CN</name><styleUrl>#city</styleUrl><description>near miss: Venus passes 14.6′ from the limb (UTC)</description><Point><coordinates>119.21556,34.59845,0</coordinates></Point></Placemark>
<Placemark><name>Tashkent, UZ</name><styleUrl>#city</styleUrl><description>D1 03:07:53 · D2 03:08:58 · R1 03:47:32 · R2 03:48:39 (UTC)</description><Point><coordinates>69.21627,41.26465,0</coordinates></Point></Placemark>
<Placemark><name>Ganzhou, CN</name><styleUrl>#city</styleUrl><description>near miss: Venus passes 18.2′ from the limb (UTC)</description><Point><coordinates>114.9326,25.84664,0</coordinates></Point></Placemark>
<Placemark><name>Almaty, KZ</name><styleUrl>#city</styleUrl><description>D1 03:08:43 · D2 03:09:57 · R1 03:46:20 · R2 03:47:36 (UTC)</description><Point><coordinates>76.9115,43.25249,0</coordinates></Point></Placemark>
<Placemark><name>Sapporo, JP</name><styleUrl>#city</styleUrl><description>near miss: Venus passes 17.8′ from the limb (UTC)</description><Point><coordinates>141.35,43.06667,0</coordinates></Point></Placemark>
<Placemark><name>Songjiang, CN</name><styleUrl>#city</styleUrl><description>near miss: Venus passes 17.6′ from the limb (UTC)</description><Point><coordinates>121.22326,31.03443,0</coordinates></Point></Placemark>
<Placemark><name>Ordos, CN</name><styleUrl>#city</styleUrl><description>near miss: Venus passes 8.0′ from the limb (UTC)</description><Point><coordinates>109.78157,39.6086,0</coordinates></Point></Placemark>
<Placemark><name>Tangerang, ID</name><styleUrl>#city</styleUrl><description>near miss: Venus passes 38.8′ from the limb (UTC)</description><Point><coordinates>106.63,-6.17806,0</coordinates></Point></Placemark>
<Placemark><name>Jieyang, CN</name><styleUrl>#city</styleUrl><description>near miss: Venus passes 20.3′ from the limb (UTC)</description><Point><coordinates>116.36581,23.5418,0</coordinates></Point></Placemark>
<Placemark><name>Jilin, CN</name><styleUrl>#city</styleUrl><description>near miss: Venus passes 11.9′ from the limb (UTC)</description><Point><coordinates>126.5608,43.84652,0</coordinates></Point></Placemark>
<Placemark><name>Jiading, CN</name><styleUrl>#city</styleUrl><description>near miss: Venus passes 17.4′ from the limb (UTC)</description><Point><coordinates>121.24465,31.38575,0</coordinates></Point></Placemark>
<Placemark><name>Shangqiu, CN</name><styleUrl>#city</styleUrl><description>near miss: Venus passes 13.2′ from the limb (UTC)</description><Point><coordinates>115.65613,34.4143,0</coordinates></Point></Placemark>
<Placemark><name>Nanchong, CN</name><styleUrl>#city</styleUrl><description>near miss: Venus passes 11.5′ from the limb (UTC)</description><Point><coordinates>106.08473,30.79508,0</coordinates></Point></Placemark>
<Placemark><name>Tainan, TW</name><styleUrl>#city</styleUrl><description>near miss: Venus passes 22.5′ from the limb (UTC)</description><Point><coordinates>120.21333,22.99083,0</coordinates></Point></Placemark>
<Placemark><name>Datong, CN</name><styleUrl>#city</styleUrl><description>near miss: Venus passes 9.0′ from the limb (UTC)</description><Point><coordinates>113.29139,40.09361,0</coordinates></Point></Placemark>
<Placemark><name>Davao, PH</name><styleUrl>#city</styleUrl><description>near miss: Venus passes 36.7′ from the limb (UTC)</description><Point><coordinates>125.61278,7.07306,0</coordinates></Point></Placemark>
<Placemark><name>Nanyang, CN</name><styleUrl>#city</styleUrl><description>near miss: Venus passes 12.8′ from the limb (UTC)</description><Point><coordinates>112.54659,33.00524,0</coordinates></Point></Placemark>
<Placemark><name>Palembang, ID</name><styleUrl>#city</styleUrl><description>near miss: Venus passes 35.2′ from the limb (UTC)</description><Point><coordinates>104.7458,-2.91673,0</coordinates></Point></Placemark>
<Placemark><name>Jiangmen, CN</name><styleUrl>#city</styleUrl><description>near miss: Venus passes 19.5′ from the limb (UTC)</description><Point><coordinates>113.08333,22.58333,0</coordinates></Point></Placemark>
<Placemark><name>Jiangyin, CN</name><styleUrl>#city</styleUrl><description>near miss: Venus passes 16.7′ from the limb (UTC)</description><Point><coordinates>120.26302,31.91102,0</coordinates></Point></Placemark>
<Placemark><name>Fuyang, CN</name><styleUrl>#city</styleUrl><description>near miss: Venus passes 14.2′ from the limb (UTC)</description><Point><coordinates>115.81667,32.9,0</coordinates></Point></Placemark>
<Placemark><name>Bayan Nur, CN</name><styleUrl>#city</styleUrl><description>near miss: Venus passes 6.5′ from the limb (UTC)</description><Point><coordinates>107.38599,40.74143,0</coordinates></Point></Placemark>
<Placemark><name>Chaozhou, CN</name><styleUrl>#city</styleUrl><description>near miss: Venus passes 20.4′ from the limb (UTC)</description><Point><coordinates>116.62262,23.65396,0</coordinates></Point></Placemark>
<Placemark><name>Qingyuan, CN</name><styleUrl>#city</styleUrl><description>near miss: Venus passes 18.8′ from the limb (UTC)</description><Point><coordinates>113.03333,23.7,0</coordinates></Point></Placemark>
<Placemark><name>Tai’an, CN</name><styleUrl>#city</styleUrl><description>near miss: Venus passes 12.7′ from the limb (UTC)</description><Point><coordinates>117.12,36.18528,0</coordinates></Point></Placemark>
<Placemark><name>Caloocan, PH</name><styleUrl>#city</styleUrl><description>near miss: Venus passes 28.7′ from the limb (UTC)</description><Point><coordinates>120.96788,14.64953,0</coordinates></Point></Placemark>
<Placemark><name>Semarang, ID</name><styleUrl>#city</styleUrl><description>near miss: Venus passes 41.0′ from the limb (UTC)</description><Point><coordinates>110.42083,-6.99306,0</coordinates></Point></Placemark>
<Placemark><name>Patna, IN</name><styleUrl>#city</styleUrl><description>near miss: Venus passes 7.4′ from the limb (UTC)</description><Point><coordinates>85.13563,25.59408,0</coordinates></Point></Placemark>
<Placemark><name>Xining, CN</name><styleUrl>#city</styleUrl><description>near miss: Venus passes 6.6′ from the limb (UTC)</description><Point><coordinates>101.75739,36.62554,0</coordinates></Point></Placemark>
<Placemark><name>Changshu, CN</name><styleUrl>#city</styleUrl><description>near miss: Venus passes 17.0′ from the limb (UTC)</description><Point><coordinates>120.74221,31.64615,0</coordinates></Point></Placemark>
<Placemark><name>Huainan, CN</name><styleUrl>#city</styleUrl><description>near miss: Venus passes 14.8′ from the limb (UTC)</description><Point><coordinates>116.99694,32.62639,0</coordinates></Point></Placemark>
<Placemark><name>Lu’an, CN</name><styleUrl>#city</styleUrl><description>near miss: Venus passes 15.2′ from the limb (UTC)</description><Point><coordinates>116.51688,31.73561,0</coordinates></Point></Placemark>
<Placemark><name>Ludhiana, IN</name><styleUrl>#city</styleUrl><description>near miss: Venus passes 1.8′ from the limb (UTC)</description><Point><coordinates>75.85379,30.91204,0</coordinates></Point></Placemark>
<Placemark><name>Yancheng, CN</name><styleUrl>#city</styleUrl><description>near miss: Venus passes 15.7′ from the limb (UTC)</description><Point><coordinates>120.1573,33.3575,0</coordinates></Point></Placemark>
<Placemark><name>Novosibirsk, RU</name><styleUrl>#city</styleUrl><description>D1 03:22:29 · D2 03:23:32 · R1 04:12:04 · R2 04:13:09 (UTC)</description><Point><coordinates>82.93175,55.02259,0</coordinates></Point></Placemark>
<Placemark><name>Fukuoka, JP</name><styleUrl>#city</styleUrl><description>near miss: Venus passes 20.1′ from the limb (UTC)</description><Point><coordinates>130.41667,33.6,0</coordinates></Point></Placemark>
<Placemark><name>Taizhou, CN</name><styleUrl>#city</styleUrl><description>near miss: Venus passes 16.1′ from the limb (UTC)</description><Point><coordinates>119.90812,32.49069,0</coordinates></Point></Placemark>
<Placemark><name>Daqing, CN</name><styleUrl>#city</styleUrl><description>near miss: Venus passes 9.6′ from the limb (UTC)</description><Point><coordinates>125.0,46.58333,0</coordinates></Point></Placemark>
<Placemark><name>Manila, PH</name><styleUrl>#city</styleUrl><description>near miss: Venus passes 28.8′ from the limb (UTC)</description><Point><coordinates>120.9822,14.6042,0</coordinates></Point></Placemark>
<Placemark><name>Wuhu, CN</name><styleUrl>#city</styleUrl><description>near miss: Venus passes 16.2′ from the limb (UTC)</description><Point><coordinates>118.42947,31.35259,0</coordinates></Point></Placemark>
<Placemark><name>Dazhou, CN</name><styleUrl>#city</styleUrl><description>near miss: Venus passes 11.8′ from the limb (UTC)</description><Point><coordinates>107.46308,31.2106,0</coordinates></Point></Placemark>
<Placemark><name>Yangzhou, CN</name><styleUrl>#city</styleUrl><description>near miss: Venus passes 16.0′ from the limb (UTC)</description><Point><coordinates>119.43583,32.39722,0</coordinates></Point></Placemark>
<Placemark><name>Phnom Penh, KH</name><styleUrl>#city</styleUrl><description>near miss: Venus passes 23.8′ from the limb (UTC)</description><Point><coordinates>104.91601,11.56245,0</coordinates></Point></Placemark>
<Placemark><name>Guilin, CN</name><styleUrl>#city</styleUrl><description>near miss: Venus passes 16.6′ from the limb (UTC)</description><Point><coordinates>110.29639,25.28022,0</coordinates></Point></Placemark>
<Placemark><name>Zhaoqing, CN</name><styleUrl>#city</styleUrl><description>near miss: Venus passes 18.9′ from the limb (UTC)</description><Point><coordinates>112.46091,23.04893,0</coordinates></Point></Placemark>
<Placemark><name>Mianyang, CN</name><styleUrl>#city</styleUrl><description>near miss: Venus passes 10.6′ from the limb (UTC)</description><Point><coordinates>104.68168,31.46784,0</coordinates></Point></Placemark>
<Placemark><name>Auckland, NZ</name><styleUrl>#city</styleUrl><description>near miss: Venus passes 90.0′ from the limb (UTC)</description><Point><coordinates>174.76349,-36.84853,0</coordinates></Point></Placemark>
<Placemark><name>Wanzhou, CN</name><styleUrl>#city</styleUrl><description>near miss: Venus passes 12.4′ from the limb (UTC)</description><Point><coordinates>108.39586,30.76451,0</coordinates></Point></Placemark>
<Placemark><name>Astana, KZ</name><styleUrl>#city</styleUrl><description>D1 03:17:30 · D2 03:18:23 · R1 04:07:26 · R2 04:08:26 (UTC)</description><Point><coordinates>71.44598,51.1801,0</coordinates></Point></Placemark>
<Placemark><name>Putian, CN</name><styleUrl>#city</styleUrl><description>near miss: Venus passes 20.3′ from the limb (UTC)</description><Point><coordinates>119.01028,25.43944,0</coordinates></Point></Placemark>
<Placemark><name>Kawasaki, JP</name><styleUrl>#city</styleUrl><description>near miss: Venus passes 22.8′ from the limb (UTC)</description><Point><coordinates>139.71722,35.52056,0</coordinates></Point></Placemark>
<Placemark><name>Kobe, JP</name><styleUrl>#city</styleUrl><description>near miss: Venus passes 21.5′ from the limb (UTC)</description><Point><coordinates>135.183,34.6913,0</coordinates></Point></Placemark>
<Placemark><name>Stockholm, SE</name><styleUrl>#city</styleUrl><description>D1 03:55:57 · D2 03:56:40 · R1 04:47:24 · R2 04:48:08 (UTC)</description><Point><coordinates>18.06871,59.32938,0</coordinates></Point></Placemark>
<Placemark><name>Cần Thơ, VN</name><styleUrl>#city</styleUrl><description>near miss: Venus passes 25.3′ from the limb (UTC)</description><Point><coordinates>105.78825,10.03711,0</coordinates></Point></Placemark>
<Placemark><name>Khulna, BD</name><styleUrl>#city</styleUrl><description>near miss: Venus passes 10.5′ from the limb (UTC)</description><Point><coordinates>89.56439,22.80979,0</coordinates></Point></Placemark>
<Placemark><name>Yekaterinburg, RU</name><styleUrl>#city</styleUrl><description>D1 03:28:27 · D2 03:29:16 · R1 04:22:39 · R2 04:23:29 (UTC)</description><Point><coordinates>60.61529,56.85733,0</coordinates></Point></Placemark>
<Placemark><name>Yinchuan, CN</name><styleUrl>#city</styleUrl><description>near miss: Venus passes 7.3′ from the limb (UTC)</description><Point><coordinates>106.27306,38.46806,0</coordinates></Point></Placemark>
<Placemark><name>Yiwu, CN</name><styleUrl>#city</styleUrl><description>near miss: Venus passes 18.2′ from the limb (UTC)</description><Point><coordinates>120.07676,29.31506,0</coordinates></Point></Placemark>
<Placemark><name>Makassar, ID</name><styleUrl>#city</styleUrl><description>near miss: Venus passes 43.5′ from the limb (UTC)</description><Point><coordinates>119.43194,-5.14861,0</coordinates></Point></Placemark>
<Placemark><name>Adelaide, AU</name><styleUrl>#city</styleUrl><description>near miss: Venus passes 76.5′ from the limb (UTC)</description><Point><coordinates>138.59863,-34.92866,0</coordinates></Point></Placemark>
<Placemark><name>Quanzhou, CN</name><styleUrl>#city</styleUrl><description>near miss: Venus passes 20.4′ from the limb (UTC)</description><Point><coordinates>118.58583,24.91389,0</coordinates></Point></Placemark>
<Placemark><name>Jinhua, CN</name><styleUrl>#city</styleUrl><description>near miss: Venus passes 18.2′ from the limb (UTC)</description><Point><coordinates>119.64421,29.10678,0</coordinates></Point></Placemark>
<Placemark><name>Kyoto, JP</name><styleUrl>#city</styleUrl><description>near miss: Venus passes 21.5′ from the limb (UTC)</description><Point><coordinates>135.75385,35.02107,0</coordinates></Point></Placemark>
<Placemark><name>Cixi, CN</name><styleUrl>#city</styleUrl><description>near miss: Venus passes 18.2′ from the limb (UTC)</description><Point><coordinates>121.2457,30.1764,0</coordinates></Point></Placemark>
<Placemark><name>Changde, CN</name><styleUrl>#city</styleUrl><description>near miss: Venus passes 14.8′ from the limb (UTC)</description><Point><coordinates>111.69844,29.03205,0</coordinates></Point></Placemark>
<Placemark><name>Kuala Lumpur, MY</name><styleUrl>#city</styleUrl><description>near miss: Venus passes 29.1′ from the limb (UTC)</description><Point><coordinates>101.68653,3.1412,0</coordinates></Point></Placemark>
<Placemark><name>Kaifeng, CN</name><styleUrl>#city</styleUrl><description>near miss: Venus passes 12.4′ from the limb (UTC)</description><Point><coordinates>114.30742,34.7986,0</coordinates></Point></Placemark>
<Placemark><name>Anshan, CN</name><styleUrl>#city</styleUrl><description>near miss: Venus passes 12.2′ from the limb (UTC)</description><Point><coordinates>122.99,41.12361,0</coordinates></Point></Placemark>
<Placemark><name>Kathmandu, NP</name><styleUrl>#city</styleUrl><description>near miss: Venus passes 6.2′ from the limb (UTC)</description><Point><coordinates>85.3206,27.70169,0</coordinates></Point></Placemark>
<Placemark><name>Daejeon, KR</name><styleUrl>#city</styleUrl><description>near miss: Venus passes 16.9′ from the limb (UTC)</description><Point><coordinates>127.38493,36.34913,0</coordinates></Point></Placemark>
<Placemark><name>Baoji, CN</name><styleUrl>#city</styleUrl><description>near miss: Venus passes 9.9′ from the limb (UTC)</description><Point><coordinates>107.23705,34.36775,0</coordinates></Point></Placemark>
<Placemark><name>Suqian, CN</name><styleUrl>#city</styleUrl><description>near miss: Venus passes 14.6′ from the limb (UTC)</description><Point><coordinates>118.29583,33.94917,0</coordinates></Point></Placemark>
<Placemark><name>Liuzhou, CN</name><styleUrl>#city</styleUrl><description>near miss: Venus passes 16.8′ from the limb (UTC)</description><Point><coordinates>109.40698,24.32405,0</coordinates></Point></Placemark>
<Placemark><name>Zhangjiagang, CN</name><styleUrl>#city</styleUrl><description>near miss: Venus passes 16.8′ from the limb (UTC)</description><Point><coordinates>120.53889,31.865,0</coordinates></Point></Placemark>
<Placemark><name>Agra, IN</name><styleUrl>#city</styleUrl><description>near miss: Venus passes 4.4′ from the limb (UTC)</description><Point><coordinates>78.01667,27.18333,0</coordinates></Point></Placemark>
<Placemark><name>South Tangerang, ID</name><styleUrl>#city</styleUrl><description>near miss: Venus passes 38.9′ from the limb (UTC)</description><Point><coordinates>106.71789,-6.28862,0</coordinates></Point></Placemark>
<Placemark><name>Jinjiang, CN</name><styleUrl>#city</styleUrl><description>near miss: Venus passes 20.5′ from the limb (UTC)</description><Point><coordinates>118.57415,24.81978,0</coordinates></Point></Placemark>
<Placemark><name>Faridabad, IN</name><styleUrl>#city</styleUrl><description>near miss: Venus passes 3.6′ from the limb (UTC)</description><Point><coordinates>77.31316,28.41124,0</coordinates></Point></Placemark>
<Placemark><name>Bozhou, CN</name><styleUrl>#city</styleUrl><description>near miss: Venus passes 13.6′ from the limb (UTC)</description><Point><coordinates>115.77028,33.87722,0</coordinates></Point></Placemark>
<Placemark><name>Qujing, CN</name><styleUrl>#city</styleUrl><description>near miss: Venus passes 13.8′ from the limb (UTC)</description><Point><coordinates>103.78333,25.48333,0</coordinates></Point></Placemark>
<Placemark><name>Gwangju, KR</name><styleUrl>#city</styleUrl><description>near miss: Venus passes 17.5′ from the limb (UTC)</description><Point><coordinates>126.91556,35.15472,0</coordinates></Point></Placemark>
<Placemark><name>Zhanjiang, CN</name><styleUrl>#city</styleUrl><description>near miss: Venus passes 19.3′ from the limb (UTC)</description><Point><coordinates>110.38749,21.23391,0</coordinates></Point></Placemark>
<Placemark><name>Fushun, CN</name><styleUrl>#city</styleUrl><description>near miss: Venus passes 12.1′ from the limb (UTC)</description><Point><coordinates>123.94363,41.88669,0</coordinates></Point></Placemark>
<Placemark><name>Luoyang, CN</name><styleUrl>#city</styleUrl><description>near miss: Venus passes 11.7′ from the limb (UTC)</description><Point><coordinates>112.43684,34.67345,0</coordinates></Point></Placemark>
<Placemark><name>Guankou, CN</name><styleUrl>#city</styleUrl><description>near miss: Venus passes 16.2′ from the limb (UTC)</description><Point><coordinates>113.62709,28.15861,0</coordinates></Point></Placemark>
<Placemark><name>Huế, VN</name><styleUrl>#city</styleUrl><description>near miss: Venus passes 21.4′ from the limb (UTC)</description><Point><coordinates>107.59546,16.4619,0</coordinates></Point></Placemark>
<Placemark><name>Najafgarh, IN</name><styleUrl>#city</styleUrl><description>near miss: Venus passes 3.3′ from the limb (UTC)</description><Point><coordinates>76.97982,28.60922,0</coordinates></Point></Placemark>
<Placemark><name>Handan, CN</name><styleUrl>#city</styleUrl><description>near miss: Venus passes 11.4′ from the limb (UTC)</description><Point><coordinates>114.48764,36.60999,0</coordinates></Point></Placemark>
<Placemark><name>Bannu, PK</name><styleUrl>#city</styleUrl><description>D1 03:07:43 · D2 03:10:45 · R1 03:21:43 · R2 03:24:47 (UTC)</description><Point><coordinates>70.60403,32.98527,0</coordinates></Point></Placemark>
<Placemark><name>Yichang, CN</name><styleUrl>#city</styleUrl><description>near miss: Venus passes 13.6′ from the limb (UTC)</description><Point><coordinates>111.28472,30.71444,0</coordinates></Point></Placemark>
<Placemark><name>Heze, CN</name><styleUrl>#city</styleUrl><description>near miss: Venus passes 12.6′ from the limb (UTC)</description><Point><coordinates>115.47358,35.23929,0</coordinates></Point></Placemark>
<Placemark><name>Jamshedpur, IN</name><styleUrl>#city</styleUrl><description>near miss: Venus passes 9.4′ from the limb (UTC)</description><Point><coordinates>86.18545,22.80278,0</coordinates></Point></Placemark>
<Placemark><name>Saitama, JP</name><styleUrl>#city</styleUrl><description>near miss: Venus passes 22.5′ from the limb (UTC)</description><Point><coordinates>139.65657,35.90807,0</coordinates></Point></Placemark>
<Placemark><name>Gorakhpur, IN</name><styleUrl>#city</styleUrl><description>near miss: Venus passes 2.5′ from the limb (UTC)</description><Point><coordinates>75.67206,29.44768,0</coordinates></Point></Placemark>
<Placemark><name>Liupanshui, CN</name><styleUrl>#city</styleUrl><description>near miss: Venus passes 13.5′ from the limb (UTC)</description><Point><coordinates>104.83333,26.59444,0</coordinates></Point></Placemark>
<Placemark><name>Taguig, PH</name><styleUrl>#city</styleUrl><description>near miss: Venus passes 28.9′ from the limb (UTC)</description><Point><coordinates>121.0792,14.5243,0</coordinates></Point></Placemark>
<Placemark><name>Maoming, CN</name><styleUrl>#city</styleUrl><description>near miss: Venus passes 19.2′ from the limb (UTC)</description><Point><coordinates>110.91364,21.66625,0</coordinates></Point></Placemark>
<Placemark><name>Calgary, CA</name><styleUrl>#city</styleUrl><description>near miss: Venus passes 2.3′ from the limb (UTC)</description><Point><coordinates>-114.08529,51.05011,0</coordinates></Point></Placemark>
<Placemark><name>Batam, ID</name><styleUrl>#city</styleUrl><description>near miss: Venus passes 31.6′ from the limb (UTC)</description><Point><coordinates>104.02491,1.14937,0</coordinates></Point></Placemark>
<Placemark><name>Qinzhou, CN</name><styleUrl>#city</styleUrl><description>near miss: Venus passes 18.0′ from the limb (UTC)</description><Point><coordinates>108.65061,21.98247,0</coordinates></Point></Placemark>
<Placemark><name>Luohe, CN</name><styleUrl>#city</styleUrl><description>near miss: Venus passes 13.0′ from the limb (UTC)</description><Point><coordinates>114.03261,33.57424,0</coordinates></Point></Placemark>
<Placemark><name>Xiangyang, CN</name><styleUrl>#city</styleUrl><description>near miss: Venus passes 13.2′ from the limb (UTC)</description><Point><coordinates>112.14479,32.0422,0</coordinates></Point></Placemark>
<Placemark><name>Yangjiang, CN</name><styleUrl>#city</styleUrl><description>near miss: Venus passes 19.5′ from the limb (UTC)</description><Point><coordinates>111.96272,21.85563,0</coordinates></Point></Placemark>
<Placemark><name>Yixing, CN</name><styleUrl>#city</styleUrl><description>near miss: Venus passes 16.8′ from the limb (UTC)</description><Point><coordinates>119.82016,31.36059,0</coordinates></Point></Placemark>
<Placemark><name>Da Nang, VN</name><styleUrl>#city</styleUrl><description>near miss: Venus passes 21.9′ from the limb (UTC)</description><Point><coordinates>108.22083,16.06778,0</coordinates></Point></Placemark>
</Folder></Document></kml>
