<?xml version="1.0" encoding="UTF-8"?>
<kml xmlns="http://www.opengis.net/kml/2.2"><Document><name>The Moon occults Venus — 2026-11-07</name>
<description>Graze limits and visibility from https://occult.alokm.com/venus-2026-11-07. Solid limits are traced against the real lunar limb (LRO LOLA); the dotted line is the mean-sphere limit. Times in the city placemarks are UTC, real limb.</description>
<Style id="exact"><LineStyle><color>ff06b6d9</color><width>4</width></LineStyle></Style>
<Style id="mean"><LineStyle><color>8006b6d9</color><width>2</width></LineStyle></Style>
<Style id="region"><LineStyle><color>80e6c07d</color><width>1</width></LineStyle><PolyStyle><color>3fe6c07d</color></PolyStyle></Style>
<Style id="night"><LineStyle><width>0</width></LineStyle><PolyStyle><color>3fed3ac4</color></PolyStyle></Style>
<Style id="city"><IconStyle><scale>0.8</scale></IconStyle></Style>
<Folder><name>Graze limits (real lunar limb)</name>
<Placemark><name>north limit — real limb</name><styleUrl>#exact</styleUrl><LineString><tessellate>1</tessellate><coordinates>-82.0,-22.7254,0 -81.0,-22.9853,0 -80.96,-22.9953,0 -80.0,-23.2519,0 -79.0,-23.5427,0 -78.0,-23.8449,0 -77.54,-23.9898,0 -77.0,-24.1688,0 -76.0,-24.5104,0 -75.0,-24.8689,0 -74.65,-24.9993,0 -74.0,-25.2514,0 -73.0,-25.6468,0 -72.12,-26.0098,0 -72.0,-26.0599,0 -71.0,-26.4923,0 -70.0,-26.9412,0 -69.87,-27.0021,0 -69.0,-27.4154,0 -68.0,-27.9151,0 -67.83,-28.0047,0 -67.0,-28.4413,0 -66.0,-28.9856,0 -65.97,-29.0024,0 -65.0,-29.5617,0 -64.26,-30.0033,0 -64.0,-30.1612,0 -63.0,-30.7854,0 -62.66,-31.0042,0 -62.0,-31.4301,0 -61.16,-32.0031,0 -61.0,-32.1144,0 -60.0,-32.8216,0 -59.76,-32.9927,0 -59.0,-33.555,0 -58.43,-33.9873,0 -58.0,-34.319,0 -57.16,-34.9912,0 -57.0,-35.1213,0 -56.0,-35.9465,0 -55.95,-35.9887,0 -55.0,-36.8022,0 -54.79,-36.9861,0 -54.0,-37.6877,0 -53.68,-37.9778,0 -53.0,-38.6056,0 -52.6,-38.9804,0 -52.0,-39.5481,0 -51.55,-39.9803,0 -51.0,-40.5156,0 -50.53,-40.9786,0 -50.0,-41.5076,0 -49.53,-41.9812,0 -49.0,-42.5199,0 -48.55,-42.9817,0 -48.0,-43.5496,0 -47.59,-43.976,0 -47.0,-44.5928,0 -46.63,-44.9813,0 -46.0,-45.6443,0 -45.68,-45.982,0 -45.0,-46.7002,0 -44.74,-46.9745,0 -44.0,-47.7572,0 -43.79,-47.9793,0 -43.0,-48.8098,0 -42.84,-48.9786,0 -42.0,-49.8527,0 -41.88,-49.9779,0 -41.0,-50.886,0 -40.91,-50.9774,0 -40.0,-51.9026,0 -39.92,-51.9832,0 -39.0,-52.9005,0 -38.91,-52.9889,0 -38.0,-53.8709,0 -37.88,-53.9863,0 -37.0,-54.8185,0 -36.81,-54.9954,0 -36.0,-55.7402,0 -35.72,-55.9939,0 -35.0,-56.6379,0 -34.58,-57.0012,0 -34.0,-57.4937,0 -33.39,-58.0016,0 -33.0,-58.3299,0 -32.15,-59.0102,0 -32.0,-59.1297,0 -31.0,-59.8994,0 -30.85,-60.01,0 -30.0,-60.6342,0 -29.48,-61.0041,0 -29.0,-61.3422,0 -28.02,-62.0106,0 -28.0,-62.0235,0 -27.0,-62.6669,0 -26.48,-62.9976,0 -26.0,-63.2966,0 -25.0,-63.8985,0 -24.82,-64.0052,0 -24.0,-64.4807,0 -23.04,-65.0112,0 -23.0,-65.0326,0 -22.0,-65.5646,0 -21.11,-66.0125,0 -21.0,-66.0666,0 -20.0,-66.5473,0 -19.01,-66.9965,0 -19.0,-67.001,0 -18.0,-67.4457,0 -17.0,-67.8709,0 -16.69,-67.9992,0 -16.0,-68.2747,0 -15.0,-68.6663,0 -14.14,-68.9929,0 -14.0,-69.0445,0 -13.0,-69.4052,0 -12.0,-69.7482,0 -11.27,-69.9958,0 -11.0,-70.0856,0 -10.0,-70.4033,0 -9.0,-70.7086,0 -8.02,-71.0008,0 -8.0,-71.0065,0 -7.0,-71.2865,0 -6.0,-71.5556,0 -5.0,-71.8115,0 -4.27,-71.9899,0 -4.0,-72.0573,0 -3.0,-72.2972,0 -2.0,-72.5239,0 -1.0,-72.7465,0 0.0,-72.9602,0 0.15,-72.9922,0 1.0,-73.1646,0 2.0,-73.359,0 3.0,-73.5471,0 4.0,-73.7269,0 5.0,-73.9016,0 5.54,-73.9914,0 6.0,-74.0678,0 7.0,-74.2256,0 8.0,-74.3783,0 9.0,-74.5264,0 10.0,-74.6661,0 11.0,-74.8009,0 12.0,-74.9298,0 12.48,-74.989,0 13.0,-75.0523,0 14.0,-75.1719,0 15.0,-75.2883,0 16.0,-75.3951,0 17.0,-75.4981,0 18.0,-75.5968,0 19.0,-75.6885,0 20.0,-75.7781,0 21.0,-75.864,0 22.0,-75.9442,0 22.6,-75.9912,0 23.0,-76.0204,0 24.0,-76.0899,0 25.0,-76.1566,0 26.0,-76.2225,0 27.0,-76.2812,0 28.0,-76.3378,0 29.0,-76.3907,0 30.0,-76.4401,0 31.0,-76.4857,0 32.0,-76.5277,0 33.0,-76.5658,0 34.0,-76.602,0 35.0,-76.632,0 36.0,-76.6619,0 37.0,-76.6914,0 38.0,-76.7162,0 39.0,-76.7339,0 40.0,-76.7528,0 41.0,-76.7669,0 42.0,-76.7751,0 43.0,-76.7787,0 44.0,-76.7774,0 45.0,-76.7755,0 46.0,-76.7723,0 47.0,-76.7642,0 48.0,-76.7555,0 49.0,-76.7451,0 50.0,-76.7292,0 51.0,-76.7104,0 52.0,-76.6881,0 53.0,-76.6654,0 54.0,-76.6412,0 55.0,-76.6116,0 56.0,-76.5834,0 57.0,-76.5459,0 58.0,-76.5042,0 59.0,-76.4599,0 60.0,-76.4139,0 61.0,-76.3633,0 62.0,-76.3073,0 63.0,-76.2452,0 64.0,-76.1814,0 65.0,-76.1145,0 66.0,-76.0419,0 66.56,-76.0006,0 67.0,-75.9682,0 68.0,-75.8891,0 69.0,-75.8102,0 70.0,-75.7264,0 71.0,-75.6376,0 72.0,-75.5477,0 73.0,-75.4539,0 74.0,-75.3572,0 75.0,-75.2559,0 76.0,-75.1473,0 77.0,-75.0336,0 77.11,-75.0203,0 78.0,-74.9129,0 79.0,-74.7896,0 80.0,-74.6604,0 81.0,-74.5289,0 82.0,-74.3886,0 83.0,-74.2469,0 84.0,-74.0946,0 84.51,-74.0172,0 85.0,-73.9405,0 86.0,-73.7815,0 87.0,-73.6185,0 88.0,-73.4525,0 89.0,-73.2785,0 90.0,-73.0888,0 90.39,-73.0151,0 91.0,-72.9001,0 92.0,-72.7095,0 93.0,-72.5123,0 94.0,-72.3057,0 95.0,-72.0913,0 95.33,-72.0217,0 96.0,-71.8732,0</coordinates></LineString></Placemark>
</Folder><Folder><name>Mean-sphere limits</name>
<Placemark><name>north limit — mean sphere</name><styleUrl>#mean</styleUrl><LineString><tessellate>1</tessellate><coordinates>-82.0,-22.73,0 -81.0,-22.99,0 -80.96,-23.0,0 -80.0,-23.26,0 -79.0,-23.55,0 -78.0,-23.86,0 -77.54,-24.0,0 -77.0,-24.18,0 -76.0,-24.52,0 -75.0,-24.87,0 -74.65,-25.0,0 -74.0,-25.25,0 -73.0,-25.64,0 -72.12,-26.0,0 -72.0,-26.05,0 -71.0,-26.49,0 -70.0,-26.94,0 -69.87,-27.0,0 -69.0,-27.42,0 -68.0,-27.91,0 -67.83,-28.0,0 -67.0,-28.44,0 -66.0,-28.98,0 -65.97,-29.0,0 -65.0,-29.56,0 -64.26,-30.0,0 -64.0,-30.16,0 -63.0,-30.78,0 -62.66,-31.0,0 -62.0,-31.43,0 -61.16,-32.0,0 -61.0,-32.11,0 -60.0,-32.82,0 -59.76,-33.0,0 -59.0,-33.56,0 -58.43,-34.0,0 -58.0,-34.33,0 -57.16,-35.0,0 -57.0,-35.13,0 -56.0,-35.96,0 -55.95,-36.0,0 -55.0,-36.82,0 -54.79,-37.0,0 -54.0,-37.71,0 -53.68,-38.0,0 -53.0,-38.62,0 -52.6,-39.0,0 -52.0,-39.57,0 -51.55,-40.0,0 -51.0,-40.54,0 -50.53,-41.0,0 -50.0,-41.53,0 -49.53,-42.0,0 -49.0,-42.54,0 -48.55,-43.0,0 -48.0,-43.57,0 -47.59,-44.0,0 -47.0,-44.61,0 -46.63,-45.0,0 -46.0,-45.67,0 -45.68,-46.0,0 -45.0,-46.72,0 -44.74,-47.0,0 -44.0,-47.78,0 -43.79,-48.0,0 -43.0,-48.83,0 -42.84,-49.0,0 -42.0,-49.87,0 -41.88,-50.0,0 -41.0,-50.9,0 -40.91,-51.0,0 -40.0,-51.92,0 -39.92,-52.0,0 -39.0,-52.91,0 -38.91,-53.0,0 -38.0,-53.88,0 -37.88,-54.0,0 -37.0,-54.83,0 -36.81,-55.0,0 -36.0,-55.74,0 -35.72,-56.0,0 -35.0,-56.63,0 -34.58,-57.0,0 -34.0,-57.49,0 -33.39,-58.0,0 -33.0,-58.32,0 -32.15,-59.0,0 -32.0,-59.12,0 -31.0,-59.89,0 -30.85,-60.0,0 -30.0,-60.63,0 -29.48,-61.0,0 -29.0,-61.34,0 -28.02,-62.0,0 -28.0,-62.02,0 -27.0,-62.67,0 -26.48,-63.0,0 -26.0,-63.3,0 -25.0,-63.9,0 -24.82,-64.0,0 -24.0,-64.47,0 -23.04,-65.0,0 -23.0,-65.02,0 -22.0,-65.55,0 -21.11,-66.0,0 -21.0,-66.05,0 -20.0,-66.54,0 -19.01,-67.0,0 -19.0,-67.0,0 -18.0,-67.45,0 -17.0,-67.87,0 -16.69,-68.0,0 -16.0,-68.28,0 -15.0,-68.68,0 -14.14,-69.0,0 -14.0,-69.05,0 -13.0,-69.41,0 -12.0,-69.76,0 -11.27,-70.0,0 -11.0,-70.09,0 -10.0,-70.41,0 -9.0,-70.71,0 -8.02,-71.0,0 -8.0,-71.01,0 -7.0,-71.29,0 -6.0,-71.56,0 -5.0,-71.82,0 -4.27,-72.0,0 -4.0,-72.07,0 -3.0,-72.31,0 -2.0,-72.54,0 -1.0,-72.76,0 0.0,-72.97,0 0.15,-73.0,0 1.0,-73.17,0 2.0,-73.37,0 3.0,-73.56,0 4.0,-73.74,0 5.0,-73.91,0 5.54,-74.0,0 6.0,-74.08,0 7.0,-74.24,0 8.0,-74.39,0 9.0,-74.54,0 10.0,-74.68,0 11.0,-74.81,0 12.0,-74.94,0 12.48,-75.0,0 13.0,-75.06,0 14.0,-75.18,0 15.0,-75.3,0 16.0,-75.41,0 17.0,-75.51,0 18.0,-75.61,0 19.0,-75.7,0 20.0,-75.79,0 21.0,-75.87,0 22.0,-75.95,0 22.6,-76.0,0 23.0,-76.03,0 24.0,-76.1,0 25.0,-76.17,0 26.0,-76.24,0 27.0,-76.3,0 28.0,-76.36,0 29.0,-76.41,0 30.0,-76.46,0 31.0,-76.5,0 32.0,-76.55,0 33.0,-76.59,0 34.0,-76.62,0 35.0,-76.65,0 36.0,-76.68,0 37.0,-76.71,0 38.0,-76.73,0 39.0,-76.75,0 40.0,-76.76,0 41.0,-76.78,0 42.0,-76.78,0 43.0,-76.79,0 44.0,-76.79,0 45.0,-76.79,0 46.0,-76.79,0 47.0,-76.78,0 48.0,-76.77,0 49.0,-76.76,0 50.0,-76.75,0 51.0,-76.73,0 52.0,-76.7,0 53.0,-76.68,0 54.0,-76.65,0 55.0,-76.62,0 56.0,-76.58,0 57.0,-76.54,0 58.0,-76.5,0 59.0,-76.46,0 60.0,-76.41,0 61.0,-76.36,0 62.0,-76.3,0 63.0,-76.24,0 64.0,-76.18,0 65.0,-76.11,0 66.0,-76.04,0 66.56,-76.0,0 67.0,-75.97,0 68.0,-75.89,0 69.0,-75.81,0 70.0,-75.73,0 71.0,-75.64,0 72.0,-75.54,0 73.0,-75.45,0 74.0,-75.34,0 75.0,-75.24,0 76.0,-75.13,0 77.0,-75.01,0 77.11,-75.0,0 78.0,-74.89,0 79.0,-74.77,0 80.0,-74.64,0 81.0,-74.51,0 82.0,-74.37,0 83.0,-74.23,0 84.0,-74.08,0 84.51,-74.0,0 85.0,-73.92,0 86.0,-73.77,0 87.0,-73.6,0 88.0,-73.43,0 89.0,-73.26,0 90.0,-73.07,0 90.39,-73.0,0 91.0,-72.89,0 92.0,-72.69,0 93.0,-72.49,0 94.0,-72.29,0 95.0,-72.07,0 95.33,-72.0,0 96.0,-71.85,0</coordinates></LineString></Placemark>
</Folder><Folder><name>Visibility</name>
<Placemark><name>sees the occultation</name><styleUrl>#region</styleUrl><Polygon><outerBoundaryIs><LinearRing><coordinates>-180.0,-80.0,0 -179.0,-80.0,0 -178.0,-80.0,0 -177.0,-80.0,0 -176.0,-80.0,0 -175.0,-80.0,0 -174.0,-80.0,0 -173.0,-80.0,0 -172.0,-80.0,0 -171.0,-80.0,0 -170.0,-80.0,0 -169.0,-80.0,0 -168.0,-80.0,0 -167.0,-80.0,0 -166.0,-80.0,0 -165.0,-80.0,0 -164.0,-80.0,0 -163.0,-80.0,0 -162.0,-80.0,0 -161.0,-80.0,0 -160.0,-80.0,0 -159.0,-80.0,0 -158.0,-80.0,0 -157.0,-80.0,0 -156.0,-80.0,0 -155.0,-80.0,0 -154.0,-80.0,0 -153.0,-80.0,0 -152.0,-80.0,0 -151.0,-80.0,0 -150.0,-80.0,0 -149.0,-80.0,0 -148.0,-80.0,0 -147.0,-80.0,0 -146.0,-80.0,0 -145.0,-80.0,0 -144.0,-80.0,0 -143.0,-80.0,0 -142.0,-80.0,0 -141.0,-80.0,0 -140.0,-80.0,0 -139.0,-80.0,0 -138.0,-80.0,0 -137.0,-80.0,0 -136.0,-80.0,0 -135.0,-80.0,0 -134.0,-80.0,0 -133.0,-80.0,0 -132.0,-80.0,0 -131.0,-80.0,0 -130.0,-80.0,0 -129.0,-80.0,0 -128.0,-80.0,0 -127.0,-80.0,0 -126.0,-80.0,0 -125.0,-80.0,0 -124.0,-80.0,0 -123.0,-80.0,0 -122.0,-80.0,0 -121.0,-80.0,0 -120.0,-80.0,0 -119.0,-80.0,0 -118.0,-80.0,0 -117.0,-80.0,0 -116.0,-80.0,0 -115.0,-80.0,0 -114.0,-80.0,0 -113.0,-80.0,0 -112.0,-80.0,0 -111.0,-80.0,0 -110.0,-80.0,0 -109.0,-80.0,0 -108.0,-80.0,0 -107.0,-80.0,0 -106.0,-80.0,0 -105.0,-80.0,0 -104.0,-80.0,0 -103.0,-80.0,0 -102.0,-80.0,0 -101.0,-80.0,0 -100.0,-80.0,0 -99.0,-80.0,0 -98.0,-80.0,0 -97.0,-80.0,0 -96.0,-80.0,0 -95.0,-80.0,0 -94.0,-80.0,0 -93.0,-80.0,0 -92.0,-80.0,0 -91.0,-80.0,0 -90.0,-80.0,0 -89.0,-80.0,0 -88.0,-80.0,0 -87.0,-80.0,0 -86.0,-80.0,0 -85.0,-80.0,0 -84.0,-80.0,0 -83.0,-80.0,0 -82.0,-80.0,0 -81.0,-80.0,0 -80.0,-80.0,0 -79.0,-80.0,0 -78.0,-80.0,0 -77.0,-80.0,0 -76.0,-80.0,0 -75.0,-80.0,0 -74.0,-80.0,0 -73.0,-80.0,0 -72.0,-80.0,0 -71.0,-80.0,0 -70.0,-80.0,0 -69.0,-80.0,0 -68.0,-80.0,0 -67.0,-80.0,0 -66.0,-80.0,0 -65.0,-80.0,0 -64.0,-80.0,0 -63.0,-80.0,0 -62.0,-80.0,0 -61.0,-80.0,0 -60.0,-80.0,0 -59.0,-80.0,0 -58.0,-80.0,0 -57.0,-80.0,0 -56.0,-80.0,0 -55.0,-80.0,0 -54.0,-80.0,0 -53.0,-80.0,0 -52.0,-80.0,0 -51.0,-80.0,0 -50.0,-80.0,0 -49.0,-80.0,0 -48.0,-80.0,0 -47.0,-80.0,0 -46.0,-80.0,0 -45.0,-80.0,0 -44.0,-80.0,0 -43.0,-80.0,0 -42.0,-80.0,0 -41.0,-80.0,0 -40.0,-80.0,0 -39.0,-80.0,0 -38.0,-80.0,0 -37.0,-80.0,0 -36.0,-80.0,0 -35.0,-80.0,0 -34.0,-80.0,0 -33.0,-80.0,0 -32.0,-80.0,0 -31.0,-80.0,0 -30.0,-80.0,0 -29.0,-80.0,0 -28.0,-80.0,0 -27.0,-80.0,0 -26.0,-80.0,0 -25.0,-80.0,0 -24.0,-80.0,0 -23.0,-80.0,0 -22.0,-80.0,0 -21.0,-80.0,0 -20.0,-80.0,0 -19.0,-80.0,0 -18.0,-80.0,0 -17.0,-80.0,0 -16.0,-80.0,0 -15.0,-80.0,0 -14.0,-80.0,0 -13.0,-80.0,0 -12.0,-80.0,0 -11.0,-80.0,0 -10.0,-80.0,0 -9.0,-80.0,0 -8.0,-80.0,0 -7.0,-80.0,0 -6.0,-80.0,0 -5.0,-80.0,0 -4.0,-80.0,0 -3.0,-80.0,0 -2.0,-80.0,0 -1.0,-80.0,0 0.0,-80.0,0 1.0,-80.0,0 2.0,-80.0,0 3.0,-80.0,0 4.0,-80.0,0 5.0,-80.0,0 6.0,-80.0,0 7.0,-80.0,0 8.0,-80.0,0 9.0,-80.0,0 10.0,-80.0,0 11.0,-80.0,0 12.0,-80.0,0 13.0,-80.0,0 14.0,-80.0,0 15.0,-80.0,0 16.0,-80.0,0 17.0,-80.0,0 18.0,-80.0,0 19.0,-80.0,0 20.0,-80.0,0 21.0,-80.0,0 22.0,-80.0,0 23.0,-80.0,0 24.0,-80.0,0 25.0,-80.0,0 26.0,-80.0,0 27.0,-80.0,0 28.0,-80.0,0 29.0,-80.0,0 30.0,-80.0,0 31.0,-80.0,0 32.0,-80.0,0 33.0,-80.0,0 34.0,-80.0,0 35.0,-80.0,0 36.0,-80.0,0 37.0,-80.0,0 38.0,-80.0,0 39.0,-80.0,0 40.0,-80.0,0 41.0,-80.0,0 42.0,-80.0,0 43.0,-80.0,0 44.0,-80.0,0 45.0,-80.0,0 46.0,-80.0,0 47.0,-80.0,0 48.0,-80.0,0 49.0,-80.0,0 50.0,-80.0,0 51.0,-80.0,0 52.0,-80.0,0 53.0,-80.0,0 54.0,-80.0,0 55.0,-80.0,0 56.0,-80.0,0 57.0,-80.0,0 58.0,-80.0,0 59.0,-80.0,0 60.0,-80.0,0 61.0,-80.0,0 62.0,-80.0,0 63.0,-80.0,0 64.0,-80.0,0 65.0,-80.0,0 66.0,-80.0,0 67.0,-80.0,0 68.0,-80.0,0 69.0,-80.0,0 70.0,-80.0,0 71.0,-80.0,0 72.0,-80.0,0 73.0,-80.0,0 74.0,-80.0,0 75.0,-80.0,0 76.0,-80.0,0 77.0,-80.0,0 78.0,-80.0,0 79.0,-80.0,0 80.0,-80.0,0 81.0,-80.0,0 82.0,-80.0,0 83.0,-80.0,0 84.0,-80.0,0 85.0,-80.0,0 86.0,-80.0,0 87.0,-80.0,0 88.0,-80.0,0 89.0,-80.0,0 90.0,-80.0,0 91.0,-80.0,0 92.0,-80.0,0 93.0,-80.0,0 94.0,-80.0,0 95.0,-80.0,0 96.0,-80.0,0 97.0,-80.0,0 98.0,-80.0,0 99.0,-80.0,0 100.0,-80.0,0 101.0,-80.0,0 102.0,-80.0,0 103.0,-80.0,0 104.0,-80.0,0 105.0,-80.0,0 106.0,-80.0,0 107.0,-80.0,0 108.0,-80.0,0 109.0,-80.0,0 110.0,-80.0,0 111.0,-80.0,0 112.0,-80.0,0 113.0,-80.0,0 114.0,-80.0,0 115.0,-80.0,0 116.0,-80.0,0 117.0,-80.0,0 118.0,-80.0,0 119.0,-80.0,0 120.0,-80.0,0 121.0,-80.0,0 122.0,-80.0,0 123.0,-80.0,0 124.0,-80.0,0 125.0,-80.0,0 126.0,-80.0,0 127.0,-80.0,0 128.0,-80.0,0 129.0,-80.0,0 130.0,-80.0,0 131.0,-80.0,0 132.0,-80.0,0 133.0,-80.0,0 134.0,-80.0,0 135.0,-80.0,0 136.0,-80.0,0 137.0,-80.0,0 138.0,-80.0,0 139.0,-80.0,0 140.0,-80.0,0 141.0,-80.0,0 142.0,-80.0,0 143.0,-80.0,0 144.0,-80.0,0 145.0,-80.0,0 146.0,-80.0,0 147.0,-80.0,0 148.0,-80.0,0 149.0,-80.0,0 150.0,-80.0,0 151.0,-80.0,0 152.0,-80.0,0 153.0,-80.0,0 154.0,-80.0,0 155.0,-80.0,0 156.0,-80.0,0 157.0,-80.0,0 158.0,-80.0,0 159.0,-80.0,0 160.0,-80.0,0 161.0,-80.0,0 162.0,-80.0,0 163.0,-80.0,0 164.0,-80.0,0 165.0,-80.0,0 166.0,-80.0,0 167.0,-80.0,0 168.0,-80.0,0 169.0,-80.0,0 170.0,-80.0,0 171.0,-80.0,0 172.0,-80.0,0 173.0,-80.0,0 174.0,-80.0,0 175.0,-80.0,0 176.0,-80.0,0 177.0,-80.0,0 178.0,-80.0,0 179.0,-80.0,0 180.0,-80.0,0 180.0,-79.0,0 180.0,-78.0,0 180.0,-77.0,0 180.0,-76.64,0 179.0,-76.7,0 178.0,-76.82,0 177.0,-76.89,0 176.0,-76.96,0 175.47,-77.0,0 175.0,-77.07,0 174.0,-77.19,0 173.0,-77.28,0 172.0,-77.36,0 171.0,-77.42,0 170.0,-77.52,0 169.0,-77.56,0 168.0,-77.59,0 167.0,-77.62,0 166.0,-77.65,0 165.0,-77.67,0 164.0,-77.69,0 163.0,-77.71,0 162.0,-77.73,0 161.0,-77.74,0 160.0,-77.76,0 159.0,-77.78,0 158.0,-77.79,0 157.0,-77.78,0 156.0,-77.76,0 155.0,-77.75,0 154.0,-77.72,0 153.0,-77.69,0 152.0,-77.64,0 151.0,-77.62,0 150.0,-77.55,0 149.0,-77.45,0 148.0,-77.39,0 147.0,-77.2,0 146.36,-77.0,0 146.0,-76.96,0 145.0,-76.87,0 144.0,-76.81,0 143.0,-76.75,0 142.0,-76.69,0 141.0,-76.67,0 140.0,-76.61,0 139.0,-76.52,0 138.0,-76.47,0 137.0,-76.31,0 136.0,-76.19,0 135.43,-76.0,0 135.0,-75.93,0 134.0,-75.86,0 133.0,-75.72,0 132.0,-75.63,0 131.0,-75.53,0 130.0,-75.47,0 129.0,-75.28,0 128.18,-75.0,0 128.0,-74.96,0 127.0,-74.86,0 126.0,-74.71,0 125.0,-74.56,0 124.0,-74.45,0 123.0,-74.21,0 122.0,-74.03,0 121.93,-74.0,0 121.0,-73.78,0 120.0,-73.68,0 119.0,-73.54,0 118.0,-73.32,0 117.0,-73.16,0 116.64,-73.0,0 116.0,-72.82,0 115.0,-72.71,0 114.0,-72.44,0 113.0,-72.29,0 112.36,-72.0,0 112.0,-71.88,0 111.0,-71.76,0 110.0,-71.45,0 109.0,-71.29,0 108.0,-71.06,0 107.88,-71.0,0 107.0,-70.79,0 106.0,-70.6,0 105.0,-70.5,0 104.0,-70.07,0 103.0,-70.13,0 102.0,-70.39,0 101.0,-70.65,0 100.0,-70.91,0 99.62,-71.0,0 99.0,-71.15,0 98.0,-71.4,0 97.0,-71.63,0 96.0,-71.85,0 95.33,-72.0,0 95.0,-72.07,0 94.0,-72.29,0 93.0,-72.49,0 92.0,-72.69,0 91.0,-72.89,0 90.39,-73.0,0 90.0,-73.07,0 89.0,-73.26,0 88.0,-73.43,0 87.0,-73.6,0 86.0,-73.77,0 85.0,-73.92,0 84.51,-74.0,0 84.0,-74.08,0 83.0,-74.23,0 82.0,-74.37,0 81.0,-74.51,0 80.0,-74.64,0 79.0,-74.77,0 78.0,-74.89,0 77.11,-75.0,0 77.0,-75.01,0 76.0,-75.13,0 75.0,-75.24,0 74.0,-75.34,0 73.0,-75.45,0 72.0,-75.54,0 71.0,-75.64,0 70.0,-75.73,0 69.0,-75.81,0 68.0,-75.89,0 67.0,-75.97,0 66.56,-76.0,0 66.0,-76.04,0 65.0,-76.11,0 64.0,-76.18,0 63.0,-76.24,0 62.0,-76.3,0 61.0,-76.36,0 60.0,-76.41,0 59.0,-76.46,0 58.0,-76.5,0 57.0,-76.54,0 56.0,-76.58,0 55.0,-76.62,0 54.0,-76.65,0 53.0,-76.68,0 52.0,-76.7,0 51.0,-76.73,0 50.0,-76.75,0 49.0,-76.76,0 48.0,-76.77,0 47.0,-76.78,0 46.0,-76.79,0 45.0,-76.79,0 44.0,-76.79,0 43.0,-76.79,0 42.0,-76.78,0 41.0,-76.78,0 40.0,-76.76,0 39.0,-76.75,0 38.0,-76.73,0 37.0,-76.71,0 36.0,-76.68,0 35.0,-76.65,0 34.0,-76.62,0 33.0,-76.59,0 32.0,-76.55,0 31.0,-76.5,0 30.0,-76.46,0 29.0,-76.41,0 28.0,-76.36,0 27.0,-76.3,0 26.0,-76.24,0 25.0,-76.17,0 24.0,-76.1,0 23.0,-76.03,0 22.6,-76.0,0 22.0,-75.95,0 21.0,-75.87,0 20.0,-75.79,0 19.0,-75.7,0 18.0,-75.61,0 17.0,-75.51,0 16.0,-75.41,0 15.0,-75.3,0 14.0,-75.18,0 13.0,-75.06,0 12.48,-75.0,0 12.0,-74.94,0 11.0,-74.81,0 10.0,-74.68,0 9.0,-74.54,0 8.0,-74.39,0 7.0,-74.24,0 6.0,-74.08,0 5.54,-74.0,0 5.0,-73.91,0 4.0,-73.74,0 3.0,-73.56,0 2.0,-73.37,0 1.0,-73.17,0 0.15,-73.0,0 0.0,-72.97,0 -1.0,-72.76,0 -2.0,-72.54,0 -3.0,-72.31,0 -4.0,-72.07,0 -4.27,-72.0,0 -5.0,-71.82,0 -6.0,-71.56,0 -7.0,-71.29,0 -8.0,-71.01,0 -8.02,-71.0,0 -9.0,-70.71,0 -10.0,-70.41,0 -11.0,-70.09,0 -11.27,-70.0,0 -12.0,-69.76,0 -13.0,-69.41,0 -14.0,-69.05,0 -14.14,-69.0,0 -15.0,-68.68,0 -16.0,-68.28,0 -16.69,-68.0,0 -17.0,-67.87,0 -18.0,-67.45,0 -19.0,-67.0,0 -19.01,-67.0,0 -20.0,-66.54,0 -21.0,-66.05,0 -21.11,-66.0,0 -22.0,-65.55,0 -23.0,-65.02,0 -23.04,-65.0,0 -24.0,-64.47,0 -24.82,-64.0,0 -25.0,-63.9,0 -26.0,-63.3,0 -26.48,-63.0,0 -27.0,-62.67,0 -28.0,-62.02,0 -28.02,-62.0,0 -29.0,-61.34,0 -29.48,-61.0,0 -30.0,-60.63,0 -30.85,-60.0,0 -31.0,-59.89,0 -32.0,-59.12,0 -32.15,-59.0,0 -33.0,-58.32,0 -33.39,-58.0,0 -34.0,-57.49,0 -34.58,-57.0,0 -35.0,-56.63,0 -35.72,-56.0,0 -36.0,-55.74,0 -36.81,-55.0,0 -37.0,-54.83,0 -37.88,-54.0,0 -38.0,-53.88,0 -38.91,-53.0,0 -39.0,-52.91,0 -39.92,-52.0,0 -40.0,-51.92,0 -40.91,-51.0,0 -41.0,-50.9,0 -41.88,-50.0,0 -42.0,-49.87,0 -42.84,-49.0,0 -43.0,-48.83,0 -43.79,-48.0,0 -44.0,-47.78,0 -44.74,-47.0,0 -45.0,-46.72,0 -45.68,-46.0,0 -46.0,-45.67,0 -46.63,-45.0,0 -47.0,-44.61,0 -47.59,-44.0,0 -48.0,-43.57,0 -48.55,-43.0,0 -49.0,-42.54,0 -49.53,-42.0,0 -50.0,-41.53,0 -50.53,-41.0,0 -51.0,-40.54,0 -51.55,-40.0,0 -52.0,-39.57,0 -52.6,-39.0,0 -53.0,-38.62,0 -53.68,-38.0,0 -54.0,-37.71,0 -54.79,-37.0,0 -55.0,-36.82,0 -55.95,-36.0,0 -56.0,-35.96,0 -57.0,-35.13,0 -57.16,-35.0,0 -58.0,-34.33,0 -58.43,-34.0,0 -59.0,-33.56,0 -59.76,-33.0,0 -60.0,-32.82,0 -61.0,-32.11,0 -61.16,-32.0,0 -62.0,-31.43,0 -62.66,-31.0,0 -63.0,-30.78,0 -64.0,-30.16,0 -64.26,-30.0,0 -65.0,-29.56,0 -65.97,-29.0,0 -66.0,-28.98,0 -67.0,-28.44,0 -67.83,-28.0,0 -68.0,-27.91,0 -69.0,-27.42,0 -69.87,-27.0,0 -70.0,-26.94,0 -71.0,-26.49,0 -72.0,-26.05,0 -72.12,-26.0,0 -73.0,-25.64,0 -74.0,-25.25,0 -74.65,-25.0,0 -75.0,-24.87,0 -76.0,-24.52,0 -77.0,-24.18,0 -77.54,-24.0,0 -78.0,-23.86,0 -79.0,-23.55,0 -80.0,-23.26,0 -80.96,-23.0,0 -81.0,-22.99,0 -82.0,-22.73,0 -83.0,-22.49,0 -84.0,-22.28,0 -85.0,-22.28,0 -86.0,-22.5,0 -87.0,-22.94,0 -87.07,-23.0,0 -88.0,-23.71,0 -88.33,-24.0,0 -89.0,-24.55,0 -89.48,-25.0,0 -90.0,-25.46,0 -90.55,-26.0,0 -91.0,-26.42,0 -91.57,-27.0,0 -92.0,-27.42,0 -92.55,-28.0,0 -93.0,-28.45,0 -93.51,-29.0,0 -94.0,-29.51,0 -94.44,-30.0,0 -95.0,-30.6,0 -95.36,-31.0,0 -96.0,-31.7,0 -96.26,-32.0,0 -97.0,-32.83,0 -97.15,-33.0,0 -98.0,-33.97,0 -98.06,-34.0,0 -98.78,-35.0,0 -99.0,-35.31,0 -99.47,-36.0,0 -100.0,-36.29,0 -100.6,-37.0,0 -101.0,-37.46,0 -101.45,-38.0,0 -102.0,-38.65,0 -102.29,-39.0,0 -103.0,-39.84,0 -103.28,-40.0,0 -103.93,-41.0,0 -104.0,-41.04,0 -104.79,-42.0,0 -105.0,-42.25,0 -106.0,-42.82,0 -106.15,-43.0,0 -106.95,-44.0,0 -107.0,-44.09,0 -107.56,-45.0,0 -108.0,-45.25,0 -108.61,-46.0,0 -109.0,-46.48,0 -109.91,-47.0,0 -110.0,-47.15,0 -110.51,-48.0,0 -111.0,-48.28,0 -111.58,-49.0,0 -112.0,-49.51,0 -112.84,-50.0,0 -113.0,-50.27,0 -113.43,-51.0,0 -114.0,-51.33,0 -114.54,-52.0,0 -115.0,-52.57,0 -115.73,-53.0,0 -116.0,-53.15,0 -116.68,-54.0,0 -117.0,-54.4,0 -118.0,-54.98,0 -118.03,-55.0,0 -119.0,-55.57,0 -119.35,-56.0,0 -120.0,-56.82,0 -120.31,-57.0,0 -121.0,-57.41,0 -122.0,-57.99,0 -122.01,-58.0,0 -123.0,-58.75,0 -123.33,-59.0,0 -124.0,-59.84,0 -124.27,-60.0,0 -125.0,-60.43,0 -125.96,-61.0,0 -126.0,-61.01,0 -127.0,-61.62,0 -127.64,-62.0,0 -128.0,-62.21,0 -129.0,-62.81,0 -129.32,-63.0,0 -130.0,-63.41,0 -130.99,-64.0,0 -131.0,-64.0,0 -132.0,-64.61,0 -132.65,-65.0,0 -133.0,-65.13,0 -134.0,-65.49,0 -134.67,-66.0,0 -135.0,-66.18,0 -136.0,-66.61,0 -137.0,-66.97,0 -137.07,-67.0,0 -138.0,-67.34,0 -139.0,-67.79,0 -139.39,-68.0,0 -140.0,-68.34,0 -141.0,-68.6,0 -141.74,-69.0,0 -142.0,-69.15,0 -143.0,-69.41,0 -144.0,-69.94,0 -144.17,-70.0,0 -145.0,-70.22,0 -146.0,-70.48,0 -147.0,-70.74,0 -147.99,-71.0,0 -148.0,-71.0,0 -149.0,-71.44,0 -150.0,-71.64,0 -150.84,-72.0,0 -151.0,-72.06,0 -152.0,-72.28,0 -153.0,-72.48,0 -154.0,-72.68,0 -155.0,-72.91,0 -155.26,-73.0,0 -156.0,-73.27,0 -157.0,-73.44,0 -158.0,-73.6,0 -159.0,-73.8,0 -159.66,-74.0,0 -160.0,-74.1,0 -161.0,-74.25,0 -162.0,-74.4,0 -163.0,-74.54,0 -164.0,-74.72,0 -165.0,-74.97,0 -165.2,-75.0,0 -166.0,-75.1,0 -167.0,-75.22,0 -168.0,-75.33,0 -169.0,-75.43,0 -170.0,-75.59,0 -171.0,-75.76,0 -172.0,-75.87,0 -173.0,-75.97,0 -173.26,-76.0,0 -174.0,-76.1,0 -175.0,-76.3,0 -176.0,-76.37,0 -177.0,-76.43,0 -178.0,-76.48,0 -179.0,-76.55,0 -180.0,-76.64,0 -180.0,-77.0,0 -180.0,-78.0,0 -180.0,-79.0,0 -180.0,-80.0,0</coordinates></LinearRing></outerBoundaryIs></Polygon></Placemark>
<Placemark><name>after sunset</name><styleUrl>#night</styleUrl><Polygon><outerBoundaryIs><LinearRing><coordinates>-120.31,-57.0,0 -120.0,-57.02,0 -119.0,-57.25,0 -118.0,-57.24,0 -117.0,-57.05,0 -116.0,-57.48,0 -115.0,-57.3,0 -114.0,-57.05,0 -113.79,-57.0,0 -113.0,-56.74,0 -112.0,-56.32,0 -111.0,-56.12,0 -110.8,-56.0,0 -110.0,-55.4,0 -109.0,-55.21,0 -108.53,-55.0,0 -108.0,-54.49,0 -107.2,-54.0,0 -107.0,-53.8,0 -106.0,-53.56,0 -105.09,-53.0,0 -105.0,-52.91,0 -104.0,-52.3,0 -103.12,-52.0,0 -103.0,-51.88,0 -102.0,-51.28,0 -101.26,-51.0,0 -101.0,-50.74,0 -100.1,-50.0,0 -100.0,-49.9,0 -99.0,-49.26,0 -98.41,-49.0,0 -98.0,-48.58,0 -97.0,-48.22,0 -96.6,-48.0,0 -96.0,-47.39,0 -95.64,-47.0,0 -95.0,-46.35,0 -94.0,-46.03,0 -93.95,-46.0,0 -93.0,-45.24,0 -92.55,-45.0,0 -92.0,-44.44,0 -91.66,-44.0,0 -91.0,-43.33,0 -90.06,-43.0,0 -90.0,-42.94,0 -89.53,-42.0,0 -89.0,-41.46,0 -88.0,-41.13,0 -87.81,-41.0,0 -87.0,-40.21,0 -86.64,-40.0,0 -86.0,-39.34,0 -85.79,-39.0,0 -85.0,-38.2,0 -84.65,-38.0,0 -84.0,-37.33,0 -83.82,-37.0,0 -83.0,-36.17,0 -82.72,-36.0,0 -82.0,-35.26,0 -81.29,-35.0,0 -81.0,-34.69,0 -80.81,-34.0,0 -80.0,-33.17,0 -79.67,-33.0,0 -79.0,-32.3,0 -78.88,-32.0,0 -78.0,-31.1,0 -77.85,-31.0,0 -77.0,-30.12,0 -76.94,-30.0,0 -76.0,-29.05,0 -75.94,-29.0,0 -75.87,-28.0,0 -75.0,-27.08,0 -74.67,-27.0,0 -74.0,-26.15,0 -73.99,-26.0,0 -74.0,-25.25,0 -74.65,-25.0,0 -75.0,-24.87,0 -76.0,-24.52,0 -77.0,-24.18,0 -77.54,-24.0,0 -78.0,-23.86,0 -79.0,-23.55,0 -80.0,-23.26,0 -80.96,-23.0,0 -81.0,-22.99,0 -82.0,-22.73,0 -83.0,-22.49,0 -84.0,-22.28,0 -85.0,-22.28,0 -86.0,-22.5,0 -87.0,-22.94,0 -87.07,-23.0,0 -88.0,-23.71,0 -88.33,-24.0,0 -89.0,-24.55,0 -89.48,-25.0,0 -90.0,-25.46,0 -90.55,-26.0,0 -91.0,-26.42,0 -91.57,-27.0,0 -92.0,-27.42,0 -92.55,-28.0,0 -93.0,-28.45,0 -93.51,-29.0,0 -94.0,-29.51,0 -94.44,-30.0,0 -95.0,-30.6,0 -95.36,-31.0,0 -96.0,-31.7,0 -96.26,-32.0,0 -97.0,-32.83,0 -97.15,-33.0,0 -98.0,-33.97,0 -98.06,-34.0,0 -98.78,-35.0,0 -99.0,-35.31,0 -99.47,-36.0,0 -100.0,-36.29,0 -100.6,-37.0,0 -101.0,-37.46,0 -101.45,-38.0,0 -102.0,-38.65,0 -102.29,-39.0,0 -103.0,-39.84,0 -103.28,-40.0,0 -103.93,-41.0,0 -104.0,-41.04,0 -104.79,-42.0,0 -105.0,-42.25,0 -106.0,-42.82,0 -106.15,-43.0,0 -106.95,-44.0,0 -107.0,-44.09,0 -107.56,-45.0,0 -108.0,-45.25,0 -108.61,-46.0,0 -109.0,-46.48,0 -109.91,-47.0,0 -110.0,-47.15,0 -110.51,-48.0,0 -111.0,-48.28,0 -111.58,-49.0,0 -112.0,-49.51,0 -112.84,-50.0,0 -113.0,-50.27,0 -113.43,-51.0,0 -114.0,-51.33,0 -114.54,-52.0,0 -115.0,-52.57,0 -115.73,-53.0,0 -116.0,-53.15,0 -116.68,-54.0,0 -117.0,-54.4,0 -118.0,-54.98,0 -118.03,-55.0,0 -119.0,-55.57,0 -119.35,-56.0,0 -120.0,-56.82,0 -120.31,-57.0,0</coordinates></LinearRing></outerBoundaryIs></Polygon></Placemark>
</Folder><Folder><name>Cities</name>
<Placemark><name>Kinshasa, CD</name><styleUrl>#city</styleUrl><description>near miss: Venus passes 59.5′ from the limb (UTC)</description><Point><coordinates>15.31357,-4.32758,0</coordinates></Point></Placemark>
<Placemark><name>Istanbul, TR</name><styleUrl>#city</styleUrl><description>near miss: Venus passes 91.2′ from the limb (UTC)</description><Point><coordinates>28.94966,41.01384,0</coordinates></Point></Placemark>
<Placemark><name>Lagos, NG</name><styleUrl>#city</styleUrl><description>near miss: Venus passes 59.4′ from the limb (UTC)</description><Point><coordinates>3.39467,6.45407,0</coordinates></Point></Placemark>
<Placemark><name>São Paulo, BR</name><styleUrl>#city</styleUrl><description>near miss: Venus passes 9.8′ from the limb (UTC)</description><Point><coordinates>-46.63611,-23.5475,0</coordinates></Point></Placemark>
<Placemark><name>Moscow, RU</name><styleUrl>#city</styleUrl><description>near miss: Venus passes 95.8′ from the limb (UTC)</description><Point><coordinates>37.61781,55.75204,0</coordinates></Point></Placemark>
<Placemark><name>Cairo, EG</name><styleUrl>#city</styleUrl><description>near miss: Venus passes 87.6′ from the limb (UTC)</description><Point><coordinates>31.24967,30.06263,0</coordinates></Point></Placemark>
<Placemark><name>Johannesburg, ZA</name><styleUrl>#city</styleUrl><description>near miss: Venus passes 43.9′ from the limb (UTC)</description><Point><coordinates>28.04363,-26.20227,0</coordinates></Point></Placemark>
<Placemark><name>London, GB</name><styleUrl>#city</styleUrl><description>near miss: Venus passes 84.5′ from the limb (UTC)</description><Point><coordinates>-0.12574,51.50853,0</coordinates></Point></Placemark>
<Placemark><name>Lima, PE</name><styleUrl>#city</styleUrl><description>near miss: Venus passes 8.0′ from the limb (UTC)</description><Point><coordinates>-77.02824,-12.04318,0</coordinates></Point></Placemark>
<Placemark><name>Baghdad, IQ</name><styleUrl>#city</styleUrl><description>near miss: Venus passes 90.8′ from the limb (UTC)</description><Point><coordinates>44.40088,33.34058,0</coordinates></Point></Placemark>
<Placemark><name>Tehran, IR</name><styleUrl>#city</styleUrl><description>near miss: Venus passes 91.7′ from the limb (UTC)</description><Point><coordinates>51.42151,35.69439,0</coordinates></Point></Placemark>
<Placemark><name>Rio de Janeiro, BR</name><styleUrl>#city</styleUrl><description>near miss: Venus passes 11.7′ from the limb (UTC)</description><Point><coordinates>-43.18223,-22.90642,0</coordinates></Point></Placemark>
<Placemark><name>Abidjan, CI</name><styleUrl>#city</styleUrl><description>near miss: Venus passes 53.5′ from the limb (UTC)</description><Point><coordinates>-4.00167,5.35444,0</coordinates></Point></Placemark>
<Placemark><name>Dar es Salaam, TZ</name><styleUrl>#city</styleUrl><description>near miss: Venus passes 62.5′ from the limb (UTC)</description><Point><coordinates>39.26951,-6.82349,0</coordinates></Point></Placemark>
<Placemark><name>Saint Petersburg, RU</name><styleUrl>#city</styleUrl><description>near miss: Venus passes 95.0′ from the limb (UTC)</description><Point><coordinates>30.31413,59.93863,0</coordinates></Point></Placemark>
<Placemark><name>Alexandria, EG</name><styleUrl>#city</styleUrl><description>near miss: Venus passes 87.8′ from the limb (UTC)</description><Point><coordinates>29.91582,31.20176,0</coordinates></Point></Placemark>
<Placemark><name>Kano, NG</name><styleUrl>#city</styleUrl><description>near miss: Venus passes 66.6′ from the limb (UTC)</description><Point><coordinates>8.51672,12.00012,0</coordinates></Point></Placemark>
<Placemark><name>Santiago, CL</name><styleUrl>#city</styleUrl><description>D1 09:29:28 · D2 09:32:30 · R1 10:01:48 · R2 10:04:58 (UTC)</description><Point><coordinates>-70.64827,-33.45694,0</coordinates></Point></Placemark>
<Placemark><name>Cape Town, ZA</name><styleUrl>#city</styleUrl><description>near miss: Venus passes 34.9′ from the limb (UTC)</description><Point><coordinates>18.42322,-33.92584,0</coordinates></Point></Placemark>
<Placemark><name>Jeddah, SA</name><styleUrl>#city</styleUrl><description>near miss: Venus passes 84.4′ from the limb (UTC)</description><Point><coordinates>39.18624,21.49012,0</coordinates></Point></Placemark>
<Placemark><name>Nairobi, KE</name><styleUrl>#city</styleUrl><description>near miss: Venus passes 67.4′ from the limb (UTC)</description><Point><coordinates>36.81667,-1.28333,0</coordinates></Point></Placemark>
<Placemark><name>Giza, EG</name><styleUrl>#city</styleUrl><description>near miss: Venus passes 87.6′ from the limb (UTC)</description><Point><coordinates>31.20861,30.00944,0</coordinates></Point></Placemark>
<Placemark><name>Bamako, ML</name><styleUrl>#city</styleUrl><description>near miss: Venus passes 55.8′ from the limb (UTC)</description><Point><coordinates>-7.97522,12.60915,0</coordinates></Point></Placemark>
<Placemark><name>Riyadh, SA</name><styleUrl>#city</styleUrl><description>near miss: Venus passes 86.3′ from the limb (UTC)</description><Point><coordinates>46.72185,24.68773,0</coordinates></Point></Placemark>
<Placemark><name>Addis Ababa, ET</name><styleUrl>#city</styleUrl><description>near miss: Venus passes 75.8′ from the limb (UTC)</description><Point><coordinates>38.74689,9.02497,0</coordinates></Point></Placemark>
<Placemark><name>Dubai, AE</name><styleUrl>#city</styleUrl><description>near miss: Venus passes 85.7′ from the limb (UTC)</description><Point><coordinates>55.30927,25.07725,0</coordinates></Point></Placemark>
<Placemark><name>Casablanca, MA</name><styleUrl>#city</styleUrl><description>near miss: Venus passes 70.7′ from the limb (UTC)</description><Point><coordinates>-7.61138,33.58831,0</coordinates></Point></Placemark>
<Placemark><name>Ibadan, NG</name><styleUrl>#city</styleUrl><description>near miss: Venus passes 60.4′ from the limb (UTC)</description><Point><coordinates>3.90591,7.37756,0</coordinates></Point></Placemark>
<Placemark><name>Ankara, TR</name><styleUrl>#city</styleUrl><description>near miss: Venus passes 91.8′ from the limb (UTC)</description><Point><coordinates>32.85427,39.91987,0</coordinates></Point></Placemark>
<Placemark><name>Berlin, DE</name><styleUrl>#city</styleUrl><description>near miss: Venus passes 89.6′ from the limb (UTC)</description><Point><coordinates>13.41053,52.52437,0</coordinates></Point></Placemark>
<Placemark><name>Durban, ZA</name><styleUrl>#city</styleUrl><description>near miss: Venus passes 40.6′ from the limb (UTC)</description><Point><coordinates>31.0292,-29.8579,0</coordinates></Point></Placemark>
<Placemark><name>Madrid, ES</name><styleUrl>#city</styleUrl><description>near miss: Venus passes 77.1′ from the limb (UTC)</description><Point><coordinates>-3.70256,40.4165,0</coordinates></Point></Placemark>
<Placemark><name>Bursa, TR</name><styleUrl>#city</styleUrl><description>near miss: Venus passes 90.9′ from the limb (UTC)</description><Point><coordinates>29.06013,40.19559,0</coordinates></Point></Placemark>
<Placemark><name>Caracas, VE</name><styleUrl>#city</styleUrl><description>near miss: Venus passes 27.8′ from the limb (UTC)</description><Point><coordinates>-66.87919,10.48801,0</coordinates></Point></Placemark>
<Placemark><name>Kyiv, UA</name><styleUrl>#city</styleUrl><description>near miss: Venus passes 93.9′ from the limb (UTC)</description><Point><coordinates>30.5238,50.45466,0</coordinates></Point></Placemark>
<Placemark><name>İzmir, TR</name><styleUrl>#city</styleUrl><description>near miss: Venus passes 89.8′ from the limb (UTC)</description><Point><coordinates>27.13838,38.41273,0</coordinates></Point></Placemark>
<Placemark><name>Buenos Aires, AR</name><styleUrl>#city</styleUrl><description>D1 09:45:24 · R2 09:56:30 (UTC)</description><Point><coordinates>-58.37723,-34.61315,0</coordinates></Point></Placemark>
<Placemark><name>Luanda, AO</name><styleUrl>#city</styleUrl><description>near miss: Venus passes 54.9′ from the limb (UTC)</description><Point><coordinates>13.23432,-8.83682,0</coordinates></Point></Placemark>
<Placemark><name>Belo Horizonte, BR</name><styleUrl>#city</styleUrl><description>near miss: Venus passes 13.0′ from the limb (UTC)</description><Point><coordinates>-43.93778,-19.92083,0</coordinates></Point></Placemark>
<Placemark><name>Salvador, BR</name><styleUrl>#city</styleUrl><description>near miss: Venus passes 19.8′ from the limb (UTC)</description><Point><coordinates>-38.49096,-12.97563,0</coordinates></Point></Placemark>
<Placemark><name>Abuja, NG</name><styleUrl>#city</styleUrl><description>near miss: Venus passes 64.0′ from the limb (UTC)</description><Point><coordinates>7.49508,9.05785,0</coordinates></Point></Placemark>
<Placemark><name>Dakar, SN</name><styleUrl>#city</styleUrl><description>near miss: Venus passes 51.3′ from the limb (UTC)</description><Point><coordinates>-17.44406,14.6937,0</coordinates></Point></Placemark>
<Placemark><name>Mogadishu, SO</name><styleUrl>#city</styleUrl><description>near miss: Venus passes 69.8′ from the limb (UTC)</description><Point><coordinates>45.34375,2.03711,0</coordinates></Point></Placemark>
<Placemark><name>Kumasi, GH</name><styleUrl>#city</styleUrl><description>near miss: Venus passes 56.1′ from the limb (UTC)</description><Point><coordinates>-1.62443,6.68848,0</coordinates></Point></Placemark>
<Placemark><name>Ouagadougou, BF</name><styleUrl>#city</styleUrl><description>near miss: Venus passes 60.0′ from the limb (UTC)</description><Point><coordinates>-1.53388,12.36566,0</coordinates></Point></Placemark>
<Placemark><name>Fortaleza, BR</name><styleUrl>#city</styleUrl><description>near miss: Venus passes 26.0′ from the limb (UTC)</description><Point><coordinates>-38.54306,-3.71722,0</coordinates></Point></Placemark>
<Placemark><name>Algiers, DZ</name><styleUrl>#city</styleUrl><description>near miss: Venus passes 78.3′ from the limb (UTC)</description><Point><coordinates>3.08746,36.73225,0</coordinates></Point></Placemark>
<Placemark><name>Baku, AZ</name><styleUrl>#city</styleUrl><description>near miss: Venus passes 93.6′ from the limb (UTC)</description><Point><coordinates>49.89201,40.37767,0</coordinates></Point></Placemark>
<Placemark><name>Rome, IT</name><styleUrl>#city</styleUrl><description>near miss: Venus passes 85.4′ from the limb (UTC)</description><Point><coordinates>12.51133,41.89193,0</coordinates></Point></Placemark>
<Placemark><name>Gaziantep, TR</name><styleUrl>#city</styleUrl><description>near miss: Venus passes 91.6′ from the limb (UTC)</description><Point><coordinates>37.3825,37.05944,0</coordinates></Point></Placemark>
<Placemark><name>Lubumbashi, CD</name><styleUrl>#city</styleUrl><description>near miss: Venus passes 57.5′ from the limb (UTC)</description><Point><coordinates>27.47938,-11.66089,0</coordinates></Point></Placemark>
<Placemark><name>Manaus, BR</name><styleUrl>#city</styleUrl><description>near miss: Venus passes 18.3′ from the limb (UTC)</description><Point><coordinates>-60.025,-3.10194,0</coordinates></Point></Placemark>
<Placemark><name>Lusaka, ZM</name><styleUrl>#city</styleUrl><description>near miss: Venus passes 54.2′ from the limb (UTC)</description><Point><coordinates>28.28713,-15.40669,0</coordinates></Point></Placemark>
<Placemark><name>Brasília, BR</name><styleUrl>#city</styleUrl><description>near miss: Venus passes 13.8′ from the limb (UTC)</description><Point><coordinates>-47.92972,-15.77972,0</coordinates></Point></Placemark>
<Placemark><name>Lomé, TG</name><styleUrl>#city</styleUrl><description>near miss: Venus passes 57.7′ from the limb (UTC)</description><Point><coordinates>1.22154,6.12874,0</coordinates></Point></Placemark>
<Placemark><name>Paris, FR</name><styleUrl>#city</styleUrl><description>near miss: Venus passes 84.2′ from the limb (UTC)</description><Point><coordinates>2.3488,48.85341,0</coordinates></Point></Placemark>
<Placemark><name>Port Harcourt, NG</name><styleUrl>#city</styleUrl><description>near miss: Venus passes 60.8′ from the limb (UTC)</description><Point><coordinates>7.0134,4.77742,0</coordinates></Point></Placemark>
<Placemark><name>Pretoria, ZA</name><styleUrl>#city</styleUrl><description>near miss: Venus passes 44.3′ from the limb (UTC)</description><Point><coordinates>28.18783,-25.74486,0</coordinates></Point></Placemark>
<Placemark><name>Córdoba, AR</name><styleUrl>#city</styleUrl><description>D1 09:35:35 · R2 09:52:36 (UTC)</description><Point><coordinates>-64.18853,-31.40648,0</coordinates></Point></Placemark>
<Placemark><name>Mbuji-Mayi, CD</name><styleUrl>#city</styleUrl><description>near miss: Venus passes 61.4′ from the limb (UTC)</description><Point><coordinates>23.58979,-6.13603,0</coordinates></Point></Placemark>
<Placemark><name>Aleppo, SY</name><styleUrl>#city</styleUrl><description>near miss: Venus passes 91.3′ from the limb (UTC)</description><Point><coordinates>37.16117,36.20124,0</coordinates></Point></Placemark>
<Placemark><name>Al Mawşil al Jadīdah, IQ</name><styleUrl>#city</styleUrl><description>near miss: Venus passes 92.0′ from the limb (UTC)</description><Point><coordinates>43.10555,36.33271,0</coordinates></Point></Placemark>
<Placemark><name>Al Başrah al Qadīmah, IQ</name><styleUrl>#city</styleUrl><description>near miss: Venus passes 89.4′ from the limb (UTC)</description><Point><coordinates>47.81507,30.50316,0</coordinates></Point></Placemark>
<Placemark><name>La Paz, BO</name><styleUrl>#city</styleUrl><description>near miss: Venus passes 6.8′ from the limb (UTC)</description><Point><coordinates>-68.15,-16.5,0</coordinates></Point></Placemark>
<Placemark><name>Brazzaville, CG</name><styleUrl>#city</styleUrl><description>near miss: Venus passes 59.5′ from the limb (UTC)</description><Point><coordinates>15.28318,-4.26613,0</coordinates></Point></Placemark>
<Placemark><name>Khartoum, SD</name><styleUrl>#city</styleUrl><description>near miss: Venus passes 79.9′ from the limb (UTC)</description><Point><coordinates>32.53241,15.55177,0</coordinates></Point></Placemark>
<Placemark><name>Hamburg, DE</name><styleUrl>#city</styleUrl><description>near miss: Venus passes 88.8′ from the limb (UTC)</description><Point><coordinates>9.99302,53.55073,0</coordinates></Point></Placemark>
<Placemark><name>Accra, GH</name><styleUrl>#city</styleUrl><description>near miss: Venus passes 56.3′ from the limb (UTC)</description><Point><coordinates>-0.1969,5.55602,0</coordinates></Point></Placemark>
<Placemark><name>Curitiba, BR</name><styleUrl>#city</styleUrl><description>near miss: Venus passes 7.8′ from the limb (UTC)</description><Point><coordinates>-49.27306,-25.42778,0</coordinates></Point></Placemark>
<Placemark><name>Sanaa, YE</name><styleUrl>#city</styleUrl><description>near miss: Venus passes 80.3′ from the limb (UTC)</description><Point><coordinates>44.20646,15.35452,0</coordinates></Point></Placemark>
<Placemark><name>Conakry, GN</name><styleUrl>#city</styleUrl><description>near miss: Venus passes 49.9′ from the limb (UTC)</description><Point><coordinates>-13.67729,9.53795,0</coordinates></Point></Placemark>
<Placemark><name>Beirut, LB</name><styleUrl>#city</styleUrl><description>near miss: Venus passes 90.1′ from the limb (UTC)</description><Point><coordinates>35.50157,33.89332,0</coordinates></Point></Placemark>
<Placemark><name>Bucharest, RO</name><styleUrl>#city</styleUrl><description>near miss: Venus passes 91.4′ from the limb (UTC)</description><Point><coordinates>26.10626,44.43225,0</coordinates></Point></Placemark>
<Placemark><name>Camayenne, GN</name><styleUrl>#city</styleUrl><description>near miss: Venus passes 49.9′ from the limb (UTC)</description><Point><coordinates>-13.68778,9.535,0</coordinates></Point></Placemark>
<Placemark><name>Kakamega, KE</name><styleUrl>#city</styleUrl><description>near miss: Venus passes 68.7′ from the limb (UTC)</description><Point><coordinates>34.75229,0.28422,0</coordinates></Point></Placemark>
<Placemark><name>Kaduna, NG</name><styleUrl>#city</styleUrl><description>near miss: Venus passes 64.9′ from the limb (UTC)</description><Point><coordinates>7.43879,10.52641,0</coordinates></Point></Placemark>
<Placemark><name>Omdurman, SD</name><styleUrl>#city</styleUrl><description>near miss: Venus passes 79.9′ from the limb (UTC)</description><Point><coordinates>32.47773,15.64453,0</coordinates></Point></Placemark>
<Placemark><name>Diyarbakır, TR</name><styleUrl>#city</styleUrl><description>near miss: Venus passes 92.3′ from the limb (UTC)</description><Point><coordinates>40.21721,37.91363,0</coordinates></Point></Placemark>
<Placemark><name>Santa Cruz de la Sierra, BO</name><styleUrl>#city</styleUrl><description>near miss: Venus passes 7.3′ from the limb (UTC)</description><Point><coordinates>-63.18117,-17.78629,0</coordinates></Point></Placemark>
<Placemark><name>Adana, TR</name><styleUrl>#city</styleUrl><description>near miss: Venus passes 91.3′ from the limb (UTC)</description><Point><coordinates>35.32531,36.98615,0</coordinates></Point></Placemark>
<Placemark><name>Abu Dhabi, AE</name><styleUrl>#city</styleUrl><description>near miss: Venus passes 85.4′ from the limb (UTC)</description><Point><coordinates>54.39696,24.45118,0</coordinates></Point></Placemark>
<Placemark><name>Sharjah, AE</name><styleUrl>#city</styleUrl><description>near miss: Venus passes 85.8′ from the limb (UTC)</description><Point><coordinates>55.41221,25.3342,0</coordinates></Point></Placemark>
<Placemark><name>Benin City, NG</name><styleUrl>#city</styleUrl><description>near miss: Venus passes 60.9′ from the limb (UTC)</description><Point><coordinates>5.62575,6.33815,0</coordinates></Point></Placemark>
<Placemark><name>Minsk, BY</name><styleUrl>#city</styleUrl><description>near miss: Venus passes 93.8′ from the limb (UTC)</description><Point><coordinates>27.56653,53.90019,0</coordinates></Point></Placemark>
<Placemark><name>Budapest, HU</name><styleUrl>#city</styleUrl><description>near miss: Venus passes 90.0′ from the limb (UTC)</description><Point><coordinates>19.04045,47.49835,0</coordinates></Point></Placemark>
<Placemark><name>Warsaw, PL</name><styleUrl>#city</styleUrl><description>near miss: Venus passes 91.9′ from the limb (UTC)</description><Point><coordinates>21.01178,52.22977,0</coordinates></Point></Placemark>
<Placemark><name>Soweto, ZA</name><styleUrl>#city</styleUrl><description>near miss: Venus passes 43.8′ from the limb (UTC)</description><Point><coordinates>27.85849,-26.26781,0</coordinates></Point></Placemark>
<Placemark><name>Vienna, AT</name><styleUrl>#city</styleUrl><description>near miss: Venus passes 89.3′ from the limb (UTC)</description><Point><coordinates>16.37208,48.20849,0</coordinates></Point></Placemark>
<Placemark><name>Barcelona, ES</name><styleUrl>#city</styleUrl><description>near miss: Venus passes 80.4′ from the limb (UTC)</description><Point><coordinates>2.15899,41.38879,0</coordinates></Point></Placemark>
<Placemark><name>Mosul, IQ</name><styleUrl>#city</styleUrl><description>near miss: Venus passes 92.0′ from the limb (UTC)</description><Point><coordinates>43.11889,36.335,0</coordinates></Point></Placemark>
<Placemark><name>Kampala, UG</name><styleUrl>#city</styleUrl><description>near miss: Venus passes 68.5′ from the limb (UTC)</description><Point><coordinates>32.58219,0.31628,0</coordinates></Point></Placemark>
<Placemark><name>Rabat, MA</name><styleUrl>#city</styleUrl><description>near miss: Venus passes 71.4′ from the limb (UTC)</description><Point><coordinates>-6.83255,34.01325,0</coordinates></Point></Placemark>
<Placemark><name>Recife, BR</name><styleUrl>#city</styleUrl><description>near miss: Venus passes 24.9′ from the limb (UTC)</description><Point><coordinates>-34.88111,-8.05389,0</coordinates></Point></Placemark>
<Placemark><name>Erbil, IQ</name><styleUrl>#city</styleUrl><description>near miss: Venus passes 92.0′ from the limb (UTC)</description><Point><coordinates>44.00943,36.19117,0</coordinates></Point></Placemark>
<Placemark><name>Makkah, SA</name><styleUrl>#city</styleUrl><description>near miss: Venus passes 84.3′ from the limb (UTC)</description><Point><coordinates>39.82563,21.42664,0</coordinates></Point></Placemark>
<Placemark><name>Damascus, SY</name><styleUrl>#city</styleUrl><description>near miss: Venus passes 90.1′ from the limb (UTC)</description><Point><coordinates>36.29128,33.5102,0</coordinates></Point></Placemark>
<Placemark><name>Onitsha, NG</name><styleUrl>#city</styleUrl><description>near miss: Venus passes 61.6′ from the limb (UTC)</description><Point><coordinates>6.78569,6.14978,0</coordinates></Point></Placemark>
<Placemark><name>Isfahan, IR</name><styleUrl>#city</styleUrl><description>near miss: Venus passes 90.3′ from the limb (UTC)</description><Point><coordinates>51.67462,32.65246,0</coordinates></Point></Placemark>
<Placemark><name>Harare, ZW</name><styleUrl>#city</styleUrl><description>near miss: Venus passes 52.2′ from the limb (UTC)</description><Point><coordinates>31.05337,-17.82772,0</coordinates></Point></Placemark>
<Placemark><name>Monrovia, LR</name><styleUrl>#city</styleUrl><description>near miss: Venus passes 49.5′ from the limb (UTC)</description><Point><coordinates>-10.7969,6.30054,0</coordinates></Point></Placemark>
<Placemark><name>Goiânia, BR</name><styleUrl>#city</styleUrl><description>near miss: Venus passes 12.7′ from the limb (UTC)</description><Point><coordinates>-49.25389,-16.67861,0</coordinates></Point></Placemark>
<Placemark><name>Stockholm, SE</name><styleUrl>#city</styleUrl><description>near miss: Venus passes 92.4′ from the limb (UTC)</description><Point><coordinates>18.06871,59.32938,0</coordinates></Point></Placemark>
<Placemark><name>Munich, DE</name><styleUrl>#city</styleUrl><description>near miss: Venus passes 87.5′ from the limb (UTC)</description><Point><coordinates>11.57549,48.13743,0</coordinates></Point></Placemark>
<Placemark><name>Belém, BR</name><styleUrl>#city</styleUrl><description>near miss: Venus passes 23.4′ from the limb (UTC)</description><Point><coordinates>-48.50444,-1.45583,0</coordinates></Point></Placemark>
<Placemark><name>Porto Alegre, BR</name><styleUrl>#city</styleUrl><description>near miss: Venus passes 4.7′ from the limb (UTC)</description><Point><coordinates>-51.23019,-30.03283,0</coordinates></Point></Placemark>
<Placemark><name>Asunción, PY</name><styleUrl>#city</styleUrl><description>near miss: Venus passes 4.8′ from the limb (UTC)</description><Point><coordinates>-57.647,-25.28646,0</coordinates></Point></Placemark>
<Placemark><name>Kayseri, TR</name><styleUrl>#city</styleUrl><description>near miss: Venus passes 91.9′ from the limb (UTC)</description><Point><coordinates>35.48528,38.73222,0</coordinates></Point></Placemark>
<Placemark><name>Karaj, IR</name><styleUrl>#city</styleUrl><description>near miss: Venus passes 91.8′ from the limb (UTC)</description><Point><coordinates>50.99155,35.83266,0</coordinates></Point></Placemark>
<Placemark><name>Konya, TR</name><styleUrl>#city</styleUrl><description>near miss: Venus passes 91.0′ from the limb (UTC)</description><Point><coordinates>32.48464,37.87135,0</coordinates></Point></Placemark>
<Placemark><name>Tabriz, IR</name><styleUrl>#city</styleUrl><description>near miss: Venus passes 92.7′ from the limb (UTC)</description><Point><coordinates>46.2919,38.08,0</coordinates></Point></Placemark>
<Placemark><name>Kharkiv, UA</name><styleUrl>#city</styleUrl><description>near miss: Venus passes 94.9′ from the limb (UTC)</description><Point><coordinates>36.25475,49.98177,0</coordinates></Point></Placemark>
<Placemark><name>Milan, IT</name><styleUrl>#city</styleUrl><description>near miss: Venus passes 85.5′ from the limb (UTC)</description><Point><coordinates>9.18951,45.46427,0</coordinates></Point></Placemark>
<Placemark><name>N&#x27;Djamena, TD</name><styleUrl>#city</styleUrl><description>near miss: Venus passes 70.8′ from the limb (UTC)</description><Point><coordinates>15.0444,12.10672,0</coordinates></Point></Placemark>
<Placemark><name>Antananarivo, MG</name><styleUrl>#city</styleUrl><description>near miss: Venus passes 50.4′ from the limb (UTC)</description><Point><coordinates>47.53613,-18.91368,0</coordinates></Point></Placemark>
<Placemark><name>Abobo, CI</name><styleUrl>#city</styleUrl><description>near miss: Venus passes 53.5′ from the limb (UTC)</description><Point><coordinates>-4.0159,5.41613,0</coordinates></Point></Placemark>
<Placemark><name>Douala, CM</name><styleUrl>#city</styleUrl><description>near miss: Venus passes 62.1′ from the limb (UTC)</description><Point><coordinates>9.70428,4.04827,0</coordinates></Point></Placemark>
<Placemark><name>Antalya, TR</name><styleUrl>#city</styleUrl><description>near miss: Venus passes 90.2′ from the limb (UTC)</description><Point><coordinates>30.69556,36.90812,0</coordinates></Point></Placemark>
<Placemark><name>Basrah, IQ</name><styleUrl>#city</styleUrl><description>near miss: Venus passes 89.4′ from the limb (UTC)</description><Point><coordinates>47.7804,30.50852,0</coordinates></Point></Placemark>
<Placemark><name>Niamey, NE</name><styleUrl>#city</styleUrl><description>near miss: Venus passes 63.2′ from the limb (UTC)</description><Point><coordinates>2.1098,13.51366,0</coordinates></Point></Placemark>
<Placemark><name>Tripoli, LY</name><styleUrl>#city</styleUrl><description>near miss: Venus passes 81.6′ from the limb (UTC)</description><Point><coordinates>13.18733,32.88743,0</coordinates></Point></Placemark>
<Placemark><name>Madinah, SA</name><styleUrl>#city</styleUrl><description>near miss: Venus passes 86.1′ from the limb (UTC)</description><Point><coordinates>39.61417,24.46861,0</coordinates></Point></Placemark>
<Placemark><name>Yaoundé, CM</name><styleUrl>#city</styleUrl><description>near miss: Venus passes 63.1′ from the limb (UTC)</description><Point><coordinates>11.51667,3.86667,0</coordinates></Point></Placemark>
</Folder></Document></kml>
