<?xml version="1.0" encoding="UTF-8"?>
<gpx version="1.1" creator="https://occult.alokm.com" xmlns="http://www.topografix.com/GPX/1/1">
<metadata><name>The Moon occults Venus — 2026-09-14 — graze limits</name></metadata>
<trk><name>north graze limit</name><trkseg><trkpt lat="29.9038" lon="66.0"/><trkpt lat="29.8275" lon="66.12"/><trkpt lat="29.747" lon="66.25"/><trkpt lat="29.6303" lon="66.45"/><trkpt lat="29.5192" lon="66.62"/><trkpt lat="29.4401" lon="66.75"/><trkpt lat="29.3658" lon="66.88"/><trkpt lat="29.2513" lon="67.07"/><trkpt lat="29.1406" lon="67.25"/><trkpt lat="29.0669" lon="67.38"/><trkpt lat="28.99" lon="67.51"/><trkpt lat="28.8684" lon="67.73"/><trkpt lat="28.7855" lon="67.88"/><trkpt lat="28.7196" lon="68.0"/><trkpt lat="28.6164" lon="68.19"/><trkpt lat="28.5149" lon="68.38"/><trkpt lat="28.45" lon="68.5"/><trkpt lat="28.3607" lon="68.67"/><trkpt lat="28.254" lon="68.88"/><trkpt lat="28.1947" lon="69.0"/><trkpt lat="28.1095" lon="69.17"/><trkpt lat="28.0082" lon="69.38"/><trkpt lat="27.9533" lon="69.5"/><trkpt lat="27.8609" lon="69.69"/><trkpt lat="27.7804" lon="69.88"/><trkpt lat="27.726" lon="70.0"/><trkpt lat="27.6147" lon="70.24"/><trkpt lat="27.5556" lon="70.38"/><trkpt lat="27.4917" lon="70.53"/><trkpt lat="27.3933" lon="70.75"/><trkpt lat="27.3387" lon="70.88"/><trkpt lat="27.2361" lon="71.13"/><trkpt lat="27.1901" lon="71.25"/><trkpt lat="27.1131" lon="71.45"/><trkpt lat="27.0471" lon="71.62"/><trkpt lat="26.9897" lon="71.78"/><trkpt lat="26.9079" lon="72.0"/><trkpt lat="26.8648" lon="72.12"/><trkpt lat="26.7727" lon="72.38"/><trkpt lat="26.7325" lon="72.5"/><trkpt lat="26.6509" lon="72.75"/><trkpt lat="26.6088" lon="72.88"/><trkpt lat="26.5313" lon="73.12"/><trkpt lat="26.4936" lon="73.25"/><trkpt lat="26.4188" lon="73.5"/><trkpt lat="26.379" lon="73.64"/><trkpt lat="26.3085" lon="73.88"/><trkpt lat="26.2485" lon="74.08"/><trkpt lat="26.2054" lon="74.25"/><trkpt lat="26.1371" lon="74.5"/><trkpt lat="26.1137" lon="74.62"/><trkpt lat="26.05" lon="74.88"/><trkpt lat="26.0083" lon="75.04"/><trkpt lat="25.9576" lon="75.25"/><trkpt lat="25.9034" lon="75.5"/><trkpt lat="25.8776" lon="75.62"/><trkpt lat="25.819" lon="75.88"/><trkpt lat="25.7647" lon="76.12"/><trkpt lat="25.7336" lon="76.25"/><trkpt lat="25.6819" lon="76.5"/><trkpt lat="25.6354" lon="76.75"/><trkpt lat="25.6118" lon="76.88"/><trkpt lat="25.5682" lon="77.12"/><trkpt lat="25.5315" lon="77.38"/><trkpt lat="25.4996" lon="77.59"/><trkpt lat="25.4744" lon="77.75"/><trkpt lat="25.4416" lon="78.0"/><trkpt lat="25.4101" lon="78.25"/><trkpt lat="25.3782" lon="78.5"/><trkpt lat="25.3623" lon="78.62"/><trkpt lat="25.3325" lon="78.88"/><trkpt lat="25.3057" lon="79.12"/><trkpt lat="25.2814" lon="79.38"/><trkpt lat="25.26" lon="79.62"/><trkpt lat="25.2469" lon="79.75"/><trkpt lat="25.2285" lon="80.0"/><trkpt lat="25.2079" lon="80.25"/><trkpt lat="25.1949" lon="80.5"/><trkpt lat="25.1792" lon="80.75"/><trkpt lat="25.1661" lon="81.0"/><trkpt lat="25.1518" lon="81.25"/><trkpt lat="25.1429" lon="81.5"/><trkpt lat="25.1376" lon="81.75"/><trkpt lat="25.1372" lon="82.0"/><trkpt lat="25.135" lon="82.25"/><trkpt lat="25.1325" lon="82.38"/><trkpt lat="25.1303" lon="82.62"/><trkpt lat="25.1264" lon="82.88"/><trkpt lat="25.1268" lon="83.12"/><trkpt lat="25.1284" lon="83.38"/><trkpt lat="25.1311" lon="83.5"/><trkpt lat="25.1378" lon="83.75"/><trkpt lat="25.1436" lon="84.0"/><trkpt lat="25.1552" lon="84.25"/><trkpt lat="25.1647" lon="84.5"/><trkpt lat="25.1757" lon="84.75"/><trkpt lat="25.1858" lon="85.0"/><trkpt lat="25.1993" lon="85.25"/><trkpt lat="25.2168" lon="85.5"/><trkpt lat="25.2371" lon="85.75"/><trkpt lat="25.2598" lon="86.0"/><trkpt lat="25.2723" lon="86.14"/><trkpt lat="25.2866" lon="86.38"/><trkpt lat="25.3108" lon="86.63"/><trkpt lat="25.3346" lon="86.88"/><trkpt lat="25.3547" lon="87.12"/><trkpt lat="25.3802" lon="87.38"/><trkpt lat="25.3938" lon="87.53"/><trkpt lat="25.4222" lon="87.75"/><trkpt lat="25.4477" lon="88.0"/><trkpt lat="25.475" lon="88.25"/><trkpt lat="25.501" lon="88.5"/><trkpt lat="25.5157" lon="88.63"/><trkpt lat="25.546" lon="88.88"/><trkpt lat="25.5787" lon="89.12"/><trkpt lat="25.6166" lon="89.38"/><trkpt lat="25.6413" lon="89.58"/><trkpt lat="25.6666" lon="89.75"/><trkpt lat="25.7022" lon="90.0"/><trkpt lat="25.7391" lon="90.25"/><trkpt lat="25.7671" lon="90.42"/><trkpt lat="25.7965" lon="90.62"/><trkpt lat="25.8395" lon="90.88"/><trkpt lat="25.8775" lon="91.12"/><trkpt lat="25.8999" lon="91.25"/><trkpt lat="25.9452" lon="91.5"/><trkpt lat="25.989" lon="91.75"/><trkpt lat="26.0176" lon="91.92"/><trkpt lat="26.0518" lon="92.12"/><trkpt lat="26.1" lon="92.38"/><trkpt lat="26.1442" lon="92.6"/><trkpt lat="26.1735" lon="92.75"/><trkpt lat="26.2224" lon="93.0"/><trkpt lat="26.2728" lon="93.25"/><trkpt lat="26.2992" lon="93.38"/><trkpt lat="26.3476" lon="93.62"/><trkpt lat="26.396" lon="93.86"/><trkpt lat="26.4237" lon="94.0"/><trkpt lat="26.4763" lon="94.25"/><trkpt lat="26.521" lon="94.46"/><trkpt lat="26.5552" lon="94.62"/><trkpt lat="26.6128" lon="94.88"/><trkpt lat="26.6467" lon="95.03"/><trkpt lat="26.6937" lon="95.25"/><trkpt lat="26.7504" lon="95.5"/><trkpt lat="26.7767" lon="95.62"/><trkpt lat="26.8336" lon="95.88"/><trkpt lat="26.8887" lon="96.12"/><trkpt lat="26.918" lon="96.25"/><trkpt lat="26.9771" lon="96.5"/><trkpt lat="27.0146" lon="96.65"/><trkpt lat="27.0743" lon="96.88"/><trkpt lat="27.1349" lon="97.12"/><trkpt lat="27.1672" lon="97.25"/><trkpt lat="27.2288" lon="97.5"/><trkpt lat="27.2661" lon="97.65"/><trkpt lat="27.3264" lon="97.88"/></trkseg></trk>
</gpx>
