<?xml version="1.0" encoding="UTF-8"?>
<gpx version="1.1" creator="https://occult.alokm.com" xmlns="http://www.topografix.com/GPX/1/1">
<metadata><name>The Moon occults Venus — 2028-09-15 — graze limits</name></metadata>
<trk><name>north graze limit</name><trkseg><trkpt lat="-22.5944" lon="170.0"/><trkpt lat="-22.3108" lon="171.0"/><trkpt lat="-22.028" lon="172.0"/><trkpt lat="-21.9959" lon="172.12"/><trkpt lat="-21.7468" lon="173.0"/><trkpt lat="-21.4918" lon="174.0"/><trkpt lat="-21.2277" lon="175.0"/><trkpt lat="-20.9807" lon="175.98"/><trkpt lat="-20.976" lon="176.0"/><trkpt lat="-20.74" lon="177.0"/><trkpt lat="-20.5174" lon="178.0"/><trkpt lat="-20.3041" lon="179.0"/><trkpt lat="-20.0958" lon="180.0"/></trkseg></trk>
<trk><name>north graze limit</name><trkseg><trkpt lat="-20.0958" lon="-180.0"/><trkpt lat="-19.9913" lon="-179.47"/><trkpt lat="-19.8992" lon="-179.0"/><trkpt lat="-19.7082" lon="-178.0"/><trkpt lat="-19.5377" lon="-177.0"/><trkpt lat="-19.3842" lon="-176.0"/><trkpt lat="-19.2403" lon="-175.0"/><trkpt lat="-19.11" lon="-174.0"/><trkpt lat="-18.9925" lon="-173.07"/><trkpt lat="-18.9828" lon="-173.0"/><trkpt lat="-18.8796" lon="-172.0"/><trkpt lat="-18.7896" lon="-171.0"/><trkpt lat="-18.718" lon="-170.0"/><trkpt lat="-18.6692" lon="-169.0"/><trkpt lat="-18.6346" lon="-168.0"/><trkpt lat="-18.606" lon="-167.0"/><trkpt lat="-18.6084" lon="-166.0"/><trkpt lat="-18.6331" lon="-165.0"/><trkpt lat="-18.6744" lon="-164.0"/><trkpt lat="-18.7373" lon="-163.0"/><trkpt lat="-18.833" lon="-162.0"/><trkpt lat="-18.9421" lon="-161.0"/><trkpt lat="-18.985" lon="-160.66"/><trkpt lat="-19.0796" lon="-160.0"/><trkpt lat="-19.2492" lon="-159.0"/><trkpt lat="-19.4506" lon="-158.0"/><trkpt lat="-19.6728" lon="-157.0"/><trkpt lat="-19.9243" lon="-156.0"/><trkpt lat="-20.0072" lon="-155.69"/><trkpt lat="-20.197" lon="-155.0"/><trkpt lat="-20.5014" lon="-154.0"/><trkpt lat="-20.836" lon="-153.0"/><trkpt lat="-20.9974" lon="-152.57"/><trkpt lat="-21.21" lon="-152.0"/><trkpt lat="-21.6114" lon="-151.0"/><trkpt lat="-21.9795" lon="-150.15"/><trkpt lat="-22.0493" lon="-150.0"/><trkpt lat="-22.5211" lon="-149.0"/><trkpt lat="-22.9854" lon="-148.1"/><trkpt lat="-23.0381" lon="-148.0"/><trkpt lat="-23.5852" lon="-147.0"/><trkpt lat="-23.9862" lon="-146.3"/><trkpt lat="-24.164" lon="-146.0"/><trkpt lat="-24.7831" lon="-145.0"/><trkpt lat="-24.985" lon="-144.68"/><trkpt lat="-25.4271" lon="-144.0"/><trkpt lat="-25.9938" lon="-143.17"/><trkpt lat="-26.1117" lon="-143.0"/><trkpt lat="-26.8184" lon="-142.0"/><trkpt lat="-26.9891" lon="-141.77"/><trkpt lat="-27.5594" lon="-141.0"/><trkpt lat="-27.9932" lon="-140.43"/><trkpt lat="-28.3259" lon="-140.0"/><trkpt lat="-28.9965" lon="-139.15"/><trkpt lat="-29.1167" lon="-139.0"/><trkpt lat="-29.922" lon="-138.0"/><trkpt lat="-29.9866" lon="-137.92"/><trkpt lat="-30.7489" lon="-137.0"/><trkpt lat="-30.9865" lon="-136.72"/><trkpt lat="-31.5964" lon="-136.0"/><trkpt lat="-31.9885" lon="-135.54"/><trkpt lat="-32.4519" lon="-135.0"/><trkpt lat="-32.9892" lon="-134.38"/><trkpt lat="-33.3187" lon="-134.0"/><trkpt lat="-33.9893" lon="-133.23"/><trkpt lat="-34.1907" lon="-133.0"/><trkpt lat="-34.9887" lon="-132.09"/><trkpt lat="-35.0679" lon="-132.0"/><trkpt lat="-35.9462" lon="-131.0"/><trkpt lat="-35.9902" lon="-130.95"/><trkpt lat="-36.8245" lon="-130.0"/><trkpt lat="-36.9907" lon="-129.81"/><trkpt lat="-37.699" lon="-129.0"/><trkpt lat="-37.9855" lon="-128.67"/><trkpt lat="-38.5657" lon="-128.0"/><trkpt lat="-38.9883" lon="-127.51"/><trkpt lat="-39.4263" lon="-127.0"/><trkpt lat="-39.9872" lon="-126.34"/><trkpt lat="-40.2728" lon="-126.0"/><trkpt lat="-40.9869" lon="-125.15"/><trkpt lat="-41.1115" lon="-125.0"/><trkpt lat="-41.9444" lon="-124.0"/><trkpt lat="-41.9941" lon="-123.94"/><trkpt lat="-42.7602" lon="-123.0"/><trkpt lat="-42.9929" lon="-122.71"/><trkpt lat="-43.5608" lon="-122.0"/><trkpt lat="-43.9932" lon="-121.45"/><trkpt lat="-44.3453" lon="-121.0"/><trkpt lat="-44.9931" lon="-120.16"/><trkpt lat="-45.1155" lon="-120.0"/><trkpt lat="-45.8744" lon="-119.0"/><trkpt lat="-45.9926" lon="-118.84"/><trkpt lat="-46.6088" lon="-118.0"/><trkpt lat="-46.9913" lon="-117.48"/><trkpt lat="-47.3404" lon="-117.0"/><trkpt lat="-47.9961" lon="-116.08"/><trkpt lat="-48.0524" lon="-116.0"/><trkpt lat="-48.7414" lon="-115.0"/><trkpt lat="-48.984" lon="-114.64"/><trkpt lat="-49.4171" lon="-114.0"/><trkpt lat="-49.9922" lon="-113.14"/><trkpt lat="-50.0846" lon="-113.0"/><trkpt lat="-50.7319" lon="-112.0"/><trkpt lat="-50.9875" lon="-111.6"/><trkpt lat="-51.3631" lon="-111.0"/><trkpt lat="-51.9823" lon="-110.0"/><trkpt lat="-51.9884" lon="-109.99"/><trkpt lat="-52.5863" lon="-109.0"/><trkpt lat="-52.9885" lon="-108.32"/><trkpt lat="-53.1765" lon="-108.0"/><trkpt lat="-53.75" lon="-107.0"/><trkpt lat="-53.9877" lon="-106.58"/><trkpt lat="-54.3102" lon="-106.0"/><trkpt lat="-54.8543" lon="-105.0"/><trkpt lat="-54.9828" lon="-104.76"/><trkpt lat="-55.3865" lon="-104.0"/><trkpt lat="-55.9057" lon="-103.0"/><trkpt lat="-55.9824" lon="-102.85"/><trkpt lat="-56.4156" lon="-102.0"/><trkpt lat="-56.9136" lon="-101.0"/><trkpt lat="-56.9856" lon="-100.85"/><trkpt lat="-57.394" lon="-100.0"/><trkpt lat="-57.8681" lon="-99.0"/><trkpt lat="-57.9899" lon="-98.74"/><trkpt lat="-58.3294" lon="-98.0"/><trkpt lat="-58.7757" lon="-97.0"/><trkpt lat="-58.9915" lon="-96.51"/><trkpt lat="-59.2127" lon="-96.0"/><trkpt lat="-59.6397" lon="-95.0"/></trkseg></trk>
</gpx>
