<?xml version="1.0" encoding="UTF-8"?>
<kml xmlns="http://www.opengis.net/kml/2.2"><Document><name>The Moon occults Venus — 2026-09-14</name>
<description>Graze limits from https://occult.alokm.com/venus-2026-09-14, traced against the real lunar limb (LRO LOLA).</description>
<Style id="graze"><LineStyle><color>ff06b6d9</color><width>4</width></LineStyle></Style>
<Placemark><name>north graze limit</name><styleUrl>#graze</styleUrl><LineString><tessellate>1</tessellate><coordinates>66.0,29.9038,0 66.12,29.8275,0 66.25,29.747,0 66.45,29.6303,0 66.62,29.5192,0 66.75,29.4401,0 66.88,29.3658,0 67.07,29.2513,0 67.25,29.1406,0 67.38,29.0669,0 67.51,28.99,0 67.73,28.8684,0 67.88,28.7855,0 68.0,28.7196,0 68.19,28.6164,0 68.38,28.5149,0 68.5,28.45,0 68.67,28.3607,0 68.88,28.254,0 69.0,28.1947,0 69.17,28.1095,0 69.38,28.0082,0 69.5,27.9533,0 69.69,27.8609,0 69.88,27.7804,0 70.0,27.726,0 70.24,27.6147,0 70.38,27.5556,0 70.53,27.4917,0 70.75,27.3933,0 70.88,27.3387,0 71.13,27.2361,0 71.25,27.1901,0 71.45,27.1131,0 71.62,27.0471,0 71.78,26.9897,0 72.0,26.9079,0 72.12,26.8648,0 72.38,26.7727,0 72.5,26.7325,0 72.75,26.6509,0 72.88,26.6088,0 73.12,26.5313,0 73.25,26.4936,0 73.5,26.4188,0 73.64,26.379,0 73.88,26.3085,0 74.08,26.2485,0 74.25,26.2054,0 74.5,26.1371,0 74.62,26.1137,0 74.88,26.05,0 75.04,26.0083,0 75.25,25.9576,0 75.5,25.9034,0 75.62,25.8776,0 75.88,25.819,0 76.12,25.7647,0 76.25,25.7336,0 76.5,25.6819,0 76.75,25.6354,0 76.88,25.6118,0 77.12,25.5682,0 77.38,25.5315,0 77.59,25.4996,0 77.75,25.4744,0 78.0,25.4416,0 78.25,25.4101,0 78.5,25.3782,0 78.62,25.3623,0 78.88,25.3325,0 79.12,25.3057,0 79.38,25.2814,0 79.62,25.26,0 79.75,25.2469,0 80.0,25.2285,0 80.25,25.2079,0 80.5,25.1949,0 80.75,25.1792,0 81.0,25.1661,0 81.25,25.1518,0 81.5,25.1429,0 81.75,25.1376,0 82.0,25.1372,0 82.25,25.135,0 82.38,25.1325,0 82.62,25.1303,0 82.88,25.1264,0 83.12,25.1268,0 83.38,25.1284,0 83.5,25.1311,0 83.75,25.1378,0 84.0,25.1436,0 84.25,25.1552,0 84.5,25.1647,0 84.75,25.1757,0 85.0,25.1858,0 85.25,25.1993,0 85.5,25.2168,0 85.75,25.2371,0 86.0,25.2598,0 86.14,25.2723,0 86.38,25.2866,0 86.63,25.3108,0 86.88,25.3346,0 87.12,25.3547,0 87.38,25.3802,0 87.53,25.3938,0 87.75,25.4222,0 88.0,25.4477,0 88.25,25.475,0 88.5,25.501,0 88.63,25.5157,0 88.88,25.546,0 89.12,25.5787,0 89.38,25.6166,0 89.58,25.6413,0 89.75,25.6666,0 90.0,25.7022,0 90.25,25.7391,0 90.42,25.7671,0 90.62,25.7965,0 90.88,25.8395,0 91.12,25.8775,0 91.25,25.8999,0 91.5,25.9452,0 91.75,25.989,0 91.92,26.0176,0 92.12,26.0518,0 92.38,26.1,0 92.6,26.1442,0 92.75,26.1735,0 93.0,26.2224,0 93.25,26.2728,0 93.38,26.2992,0 93.62,26.3476,0 93.86,26.396,0 94.0,26.4237,0 94.25,26.4763,0 94.46,26.521,0 94.62,26.5552,0 94.88,26.6128,0 95.03,26.6467,0 95.25,26.6937,0 95.5,26.7504,0 95.62,26.7767,0 95.88,26.8336,0 96.12,26.8887,0 96.25,26.918,0 96.5,26.9771,0 96.65,27.0146,0 96.88,27.0743,0 97.12,27.1349,0 97.25,27.1672,0 97.5,27.2288,0 97.65,27.2661,0 97.88,27.3264,0</coordinates></LineString></Placemark>
</Document></kml>
