<?xml version="1.0" encoding="UTF-8"?>
<kml xmlns="http://www.opengis.net/kml/2.2"><Document><name>The Moon occults Venus — 2029-01-13</name>
<description>Graze limits from https://occult.alokm.com/venus-2029-01-13, traced against the real lunar limb (LRO LOLA).</description>
<Style id="graze"><LineStyle><color>ff06b6d9</color><width>4</width></LineStyle></Style>
<Placemark><name>north graze limit</name><styleUrl>#graze</styleUrl><LineString><tessellate>1</tessellate><coordinates>-35.0,-39.5609,0 -34.04,-40.0009,0 -34.0,-40.0192,0 -33.0,-40.4785,0 -32.0,-40.9367,0 -31.86,-41.0006,0 -31.0,-41.393,0 -30.0,-41.8502,0 -29.66,-42.0052,0 -29.0,-42.3073,0 -28.0,-42.7602,0 -27.46,-43.0035,0 -27.0,-43.21,0 -26.0,-43.6576,0 -25.22,-44.0059,0 -25.0,-44.1039,0 -24.0,-44.5496,0 -23.0,-44.9861,0 -22.96,-45.0035,0 -22.0,-45.4234,0 -21.0,-45.855,0 -20.65,-46.0052,0 -20.0,-46.2826,0 -19.0,-46.699,0 -18.29,-46.9945,0 -18.0,-47.1155,0 -17.0,-47.528,0 -16.0,-47.9373,0 -15.85,-47.9978,0 -15.0,-48.3401,0 -14.0,-48.7362,0 -13.32,-49.0005,0 -13.0,-49.123,0 -12.0,-49.505,0 -11.0,-49.8825,0 -10.69,-49.9986,0 -10.0,-50.2505,0 -9.0,-50.6103,0 -8.0,-50.969,0 -7.91,-51.0002,0 -7.0,-51.3184,0 -6.0,-51.658,0 -5.0,-51.9854,0 -4.96,-51.9972,0 -4.0,-52.3108,0 -3.0,-52.6258,0 -2.0,-52.933,0 -1.77,-53.0022,0 -1.0,-53.2298,0 0.0,-53.5217,0 1.0,-53.8045,0 1.73,-54.0052,0 2.0,-54.0752,0 3.0,-54.34,0 4.0,-54.5944,0 5.0,-54.8456,0 5.67,-55.0069,0 6.0,-55.0845,0 7.0,-55.3106,0 8.0,-55.5307,0 9.0,-55.7453,0 10.0,-55.9553,0 10.26,-56.0077,0 11.0,-56.1545,0 12.0,-56.3423,0 13.0,-56.5208,0 14.0,-56.6922,0 15.0,-56.8515,0 16.0,-57.0026,0 16.03,-57.0071,0 17.0,-57.1437,0 18.0,-57.2761,0 19.0,-57.4044,0 20.0,-57.5264,0 21.0,-57.6367,0 22.0,-57.7395,0 23.0,-57.8355,0 24.0,-57.9216,0 24.95,-57.9967,0 25.0,-58.0018,0 26.0,-58.0745,0 27.0,-58.1302,0 28.0,-58.1873,0 29.0,-58.2311,0 30.0,-58.2646,0 31.0,-58.296,0 32.0,-58.3175,0 33.0,-58.3344,0 34.0,-58.3434,0 35.0,-58.3433,0 36.0,-58.3323,0 37.0,-58.3122,0 38.0,-58.2889,0 39.0,-58.2503,0 40.0,-58.2034,0 41.0,-58.1524,0 42.0,-58.0866,0 43.0,-58.0117,0 43.12,-58.0024,0 44.0,-57.9302,0 45.0,-57.8384,0 46.0,-57.741,0 47.0,-57.6311,0 48.0,-57.51,0 49.0,-57.3761,0 50.0,-57.2363,0 51.0,-57.0884,0 51.59,-56.9971,0 52.0,-56.9354,0 53.0,-56.7711,0 54.0,-56.5936,0 55.0,-56.4031,0 56.0,-56.2012,0 56.91,-56.0073,0 57.0,-55.9878,0 58.0,-55.7628,0 59.0,-55.5241,0 60.0,-55.2735,0 61.0,-55.0087,0 61.04,-54.9983,0 62.0,-54.739,0 63.0,-54.4538,0 64.0,-54.1557,0 64.49,-54.004,0 65.0,-53.8428,0 66.0,-53.5191,0 67.0,-53.1804,0 67.51,-53.0005,0 68.0,-52.8242,0 69.0,-52.4615,0 70.0,-52.0718,0 70.2,-51.9917,0 71.0,-51.6843,0 72.0,-51.2755,0 72.65,-50.9975,0 73.0,-50.8472,0 74.0,-50.411,0 74.91,-49.9986,0 75.0,-49.957,0 76.0,-49.4868,0 77.0,-49.003,0 77.01,-48.9982,0 78.0,-48.5087,0 79.0,-48.002,0 79.0,-48.002,0 80.0,-47.4742,0 80.89,-46.9988,0 81.0,-46.9382,0 82.0,-46.3849,0 82.7,-45.9947,0 83.0,-45.8278,0 84.0,-45.253,0 84.44,-44.9947,0 85.0,-44.6642,0 86.0,-44.0752,0 86.13,-43.9982,0 87.0,-43.4706,0 87.78,-42.9924,0 88.0,-42.8577,0 89.0,-42.2402,0 89.39,-41.9968,0 90.0,-41.6147,0 90.98,-40.9953,0 91.0,-40.9827,0 92.0,-40.3475,0 92.56,-39.9913,0 93.0,-39.7109,0 94.0,-39.0706,0 94.12,-38.9937,0 95.0,-38.4287,0 95.68,-37.9927,0 96.0,-37.7862,0 97.0,-37.1465,0 97.24,-36.9931,0 98.0,-36.5085,0 98.81,-35.9936,0 99.0,-35.8738,0 100.0,-35.2432,0 100.39,-34.998,0 101.0,-34.6157,0 102.0,-33.9944,0 102.0,-33.9944,0 103.0,-33.3787,0 103.62,-32.9977,0 104.0,-32.7655,0 105.0,-32.1628,0 105.28,-31.9966,0 106.0,-31.571,0 106.97,-30.9965,0 107.0,-30.979,0 108.0,-30.3982,0 108.7,-30.0003,0 109.0,-29.8297,0 110.0,-29.2673,0 110.48,-28.9993,0 111.0,-28.7107,0 112.0,-28.1666,0 112.31,-28.0005,0 113.0,-27.6342,0 114.0,-27.1055,0 114.21,-26.9956,0 115.0,-26.5921,0 116.0,-26.0825,0 116.16,-26.0018,0 117.0,-25.5833,0 118.0,-25.0933,0 118.2,-24.9955,0 119.0,-24.6131,0 120.0,-24.1451,0 120.31,-24.001,0</coordinates></LineString></Placemark>
</Document></kml>
