<?xml version="1.0" encoding="UTF-8"?>
<gpx version="1.1" creator="https://occult.alokm.com" xmlns="http://www.topografix.com/GPX/1/1">
<metadata><name>The Moon occults Venus — 2026-11-07 — graze limits</name></metadata>
<trk><name>north graze limit</name><trkseg><trkpt lat="-22.7254" lon="-82.0"/><trkpt lat="-22.9853" lon="-81.0"/><trkpt lat="-22.9953" lon="-80.96"/><trkpt lat="-23.2519" lon="-80.0"/><trkpt lat="-23.5427" lon="-79.0"/><trkpt lat="-23.8449" lon="-78.0"/><trkpt lat="-23.9898" lon="-77.54"/><trkpt lat="-24.1688" lon="-77.0"/><trkpt lat="-24.5104" lon="-76.0"/><trkpt lat="-24.8689" lon="-75.0"/><trkpt lat="-24.9993" lon="-74.65"/><trkpt lat="-25.2514" lon="-74.0"/><trkpt lat="-25.6468" lon="-73.0"/><trkpt lat="-26.0098" lon="-72.12"/><trkpt lat="-26.0599" lon="-72.0"/><trkpt lat="-26.4923" lon="-71.0"/><trkpt lat="-26.9412" lon="-70.0"/><trkpt lat="-27.0021" lon="-69.87"/><trkpt lat="-27.4154" lon="-69.0"/><trkpt lat="-27.9151" lon="-68.0"/><trkpt lat="-28.0047" lon="-67.83"/><trkpt lat="-28.4413" lon="-67.0"/><trkpt lat="-28.9856" lon="-66.0"/><trkpt lat="-29.0024" lon="-65.97"/><trkpt lat="-29.5617" lon="-65.0"/><trkpt lat="-30.0033" lon="-64.26"/><trkpt lat="-30.1612" lon="-64.0"/><trkpt lat="-30.7854" lon="-63.0"/><trkpt lat="-31.0042" lon="-62.66"/><trkpt lat="-31.4301" lon="-62.0"/><trkpt lat="-32.0031" lon="-61.16"/><trkpt lat="-32.1144" lon="-61.0"/><trkpt lat="-32.8216" lon="-60.0"/><trkpt lat="-32.9927" lon="-59.76"/><trkpt lat="-33.555" lon="-59.0"/><trkpt lat="-33.9873" lon="-58.43"/><trkpt lat="-34.319" lon="-58.0"/><trkpt lat="-34.9912" lon="-57.16"/><trkpt lat="-35.1213" lon="-57.0"/><trkpt lat="-35.9465" lon="-56.0"/><trkpt lat="-35.9887" lon="-55.95"/><trkpt lat="-36.8022" lon="-55.0"/><trkpt lat="-36.9861" lon="-54.79"/><trkpt lat="-37.6877" lon="-54.0"/><trkpt lat="-37.9778" lon="-53.68"/><trkpt lat="-38.6056" lon="-53.0"/><trkpt lat="-38.9804" lon="-52.6"/><trkpt lat="-39.5481" lon="-52.0"/><trkpt lat="-39.9803" lon="-51.55"/><trkpt lat="-40.5156" lon="-51.0"/><trkpt lat="-40.9786" lon="-50.53"/><trkpt lat="-41.5076" lon="-50.0"/><trkpt lat="-41.9812" lon="-49.53"/><trkpt lat="-42.5199" lon="-49.0"/><trkpt lat="-42.9817" lon="-48.55"/><trkpt lat="-43.5496" lon="-48.0"/><trkpt lat="-43.976" lon="-47.59"/><trkpt lat="-44.5928" lon="-47.0"/><trkpt lat="-44.9813" lon="-46.63"/><trkpt lat="-45.6443" lon="-46.0"/><trkpt lat="-45.982" lon="-45.68"/><trkpt lat="-46.7002" lon="-45.0"/><trkpt lat="-46.9745" lon="-44.74"/><trkpt lat="-47.7572" lon="-44.0"/><trkpt lat="-47.9793" lon="-43.79"/><trkpt lat="-48.8098" lon="-43.0"/><trkpt lat="-48.9786" lon="-42.84"/><trkpt lat="-49.8527" lon="-42.0"/><trkpt lat="-49.9779" lon="-41.88"/><trkpt lat="-50.886" lon="-41.0"/><trkpt lat="-50.9774" lon="-40.91"/><trkpt lat="-51.9026" lon="-40.0"/><trkpt lat="-51.9832" lon="-39.92"/><trkpt lat="-52.9005" lon="-39.0"/><trkpt lat="-52.9889" lon="-38.91"/><trkpt lat="-53.8709" lon="-38.0"/><trkpt lat="-53.9863" lon="-37.88"/><trkpt lat="-54.8185" lon="-37.0"/><trkpt lat="-54.9954" lon="-36.81"/><trkpt lat="-55.7402" lon="-36.0"/><trkpt lat="-55.9939" lon="-35.72"/><trkpt lat="-56.6379" lon="-35.0"/><trkpt lat="-57.0012" lon="-34.58"/><trkpt lat="-57.4937" lon="-34.0"/><trkpt lat="-58.0016" lon="-33.39"/><trkpt lat="-58.3299" lon="-33.0"/><trkpt lat="-59.0102" lon="-32.15"/><trkpt lat="-59.1297" lon="-32.0"/><trkpt lat="-59.8994" lon="-31.0"/><trkpt lat="-60.01" lon="-30.85"/><trkpt lat="-60.6342" lon="-30.0"/><trkpt lat="-61.0041" lon="-29.48"/><trkpt lat="-61.3422" lon="-29.0"/><trkpt lat="-62.0106" lon="-28.02"/><trkpt lat="-62.0235" lon="-28.0"/><trkpt lat="-62.6669" lon="-27.0"/><trkpt lat="-62.9976" lon="-26.48"/><trkpt lat="-63.2966" lon="-26.0"/><trkpt lat="-63.8985" lon="-25.0"/><trkpt lat="-64.0052" lon="-24.82"/><trkpt lat="-64.4807" lon="-24.0"/><trkpt lat="-65.0112" lon="-23.04"/><trkpt lat="-65.0326" lon="-23.0"/><trkpt lat="-65.5646" lon="-22.0"/><trkpt lat="-66.0125" lon="-21.11"/><trkpt lat="-66.0666" lon="-21.0"/><trkpt lat="-66.5473" lon="-20.0"/><trkpt lat="-66.9965" lon="-19.01"/><trkpt lat="-67.001" lon="-19.0"/><trkpt lat="-67.4457" lon="-18.0"/><trkpt lat="-67.8709" lon="-17.0"/><trkpt lat="-67.9992" lon="-16.69"/><trkpt lat="-68.2747" lon="-16.0"/><trkpt lat="-68.6663" lon="-15.0"/><trkpt lat="-68.9929" lon="-14.14"/><trkpt lat="-69.0445" lon="-14.0"/><trkpt lat="-69.4052" lon="-13.0"/><trkpt lat="-69.7482" lon="-12.0"/><trkpt lat="-69.9958" lon="-11.27"/><trkpt lat="-70.0856" lon="-11.0"/><trkpt lat="-70.4033" lon="-10.0"/><trkpt lat="-70.7086" lon="-9.0"/><trkpt lat="-71.0008" lon="-8.02"/><trkpt lat="-71.0065" lon="-8.0"/><trkpt lat="-71.2865" lon="-7.0"/><trkpt lat="-71.5556" lon="-6.0"/><trkpt lat="-71.8115" lon="-5.0"/><trkpt lat="-71.9899" lon="-4.27"/><trkpt lat="-72.0573" lon="-4.0"/><trkpt lat="-72.2972" lon="-3.0"/><trkpt lat="-72.5239" lon="-2.0"/><trkpt lat="-72.7465" lon="-1.0"/><trkpt lat="-72.9602" lon="0.0"/><trkpt lat="-72.9922" lon="0.15"/><trkpt lat="-73.1646" lon="1.0"/><trkpt lat="-73.359" lon="2.0"/><trkpt lat="-73.5471" lon="3.0"/><trkpt lat="-73.7269" lon="4.0"/><trkpt lat="-73.9016" lon="5.0"/><trkpt lat="-73.9914" lon="5.54"/><trkpt lat="-74.0678" lon="6.0"/><trkpt lat="-74.2256" lon="7.0"/><trkpt lat="-74.3783" lon="8.0"/><trkpt lat="-74.5264" lon="9.0"/><trkpt lat="-74.6661" lon="10.0"/><trkpt lat="-74.8009" lon="11.0"/><trkpt lat="-74.9298" lon="12.0"/><trkpt lat="-74.989" lon="12.48"/><trkpt lat="-75.0523" lon="13.0"/><trkpt lat="-75.1719" lon="14.0"/><trkpt lat="-75.2883" lon="15.0"/><trkpt lat="-75.3951" lon="16.0"/><trkpt lat="-75.4981" lon="17.0"/><trkpt lat="-75.5968" lon="18.0"/><trkpt lat="-75.6885" lon="19.0"/><trkpt lat="-75.7781" lon="20.0"/><trkpt lat="-75.864" lon="21.0"/><trkpt lat="-75.9442" lon="22.0"/><trkpt lat="-75.9912" lon="22.6"/><trkpt lat="-76.0204" lon="23.0"/><trkpt lat="-76.0899" lon="24.0"/><trkpt lat="-76.1566" lon="25.0"/><trkpt lat="-76.2225" lon="26.0"/><trkpt lat="-76.2812" lon="27.0"/><trkpt lat="-76.3378" lon="28.0"/><trkpt lat="-76.3907" lon="29.0"/><trkpt lat="-76.4401" lon="30.0"/><trkpt lat="-76.4857" lon="31.0"/><trkpt lat="-76.5277" lon="32.0"/><trkpt lat="-76.5658" lon="33.0"/><trkpt lat="-76.602" lon="34.0"/><trkpt lat="-76.632" lon="35.0"/><trkpt lat="-76.6619" lon="36.0"/><trkpt lat="-76.6914" lon="37.0"/><trkpt lat="-76.7162" lon="38.0"/><trkpt lat="-76.7339" lon="39.0"/><trkpt lat="-76.7528" lon="40.0"/><trkpt lat="-76.7669" lon="41.0"/><trkpt lat="-76.7751" lon="42.0"/><trkpt lat="-76.7787" lon="43.0"/><trkpt lat="-76.7774" lon="44.0"/><trkpt lat="-76.7755" lon="45.0"/><trkpt lat="-76.7723" lon="46.0"/><trkpt lat="-76.7642" lon="47.0"/><trkpt lat="-76.7555" lon="48.0"/><trkpt lat="-76.7451" lon="49.0"/><trkpt lat="-76.7292" lon="50.0"/><trkpt lat="-76.7104" lon="51.0"/><trkpt lat="-76.6881" lon="52.0"/><trkpt lat="-76.6654" lon="53.0"/><trkpt lat="-76.6412" lon="54.0"/><trkpt lat="-76.6116" lon="55.0"/><trkpt lat="-76.5834" lon="56.0"/><trkpt lat="-76.5459" lon="57.0"/><trkpt lat="-76.5042" lon="58.0"/><trkpt lat="-76.4599" lon="59.0"/><trkpt lat="-76.4139" lon="60.0"/><trkpt lat="-76.3633" lon="61.0"/><trkpt lat="-76.3073" lon="62.0"/><trkpt lat="-76.2452" lon="63.0"/><trkpt lat="-76.1814" lon="64.0"/><trkpt lat="-76.1145" lon="65.0"/><trkpt lat="-76.0419" lon="66.0"/><trkpt lat="-76.0006" lon="66.56"/><trkpt lat="-75.9682" lon="67.0"/><trkpt lat="-75.8891" lon="68.0"/><trkpt lat="-75.8102" lon="69.0"/><trkpt lat="-75.7264" lon="70.0"/><trkpt lat="-75.6376" lon="71.0"/><trkpt lat="-75.5477" lon="72.0"/><trkpt lat="-75.4539" lon="73.0"/><trkpt lat="-75.3572" lon="74.0"/><trkpt lat="-75.2559" lon="75.0"/><trkpt lat="-75.1473" lon="76.0"/><trkpt lat="-75.0336" lon="77.0"/><trkpt lat="-75.0203" lon="77.11"/><trkpt lat="-74.9129" lon="78.0"/><trkpt lat="-74.7896" lon="79.0"/><trkpt lat="-74.6604" lon="80.0"/><trkpt lat="-74.5289" lon="81.0"/><trkpt lat="-74.3886" lon="82.0"/><trkpt lat="-74.2469" lon="83.0"/><trkpt lat="-74.0946" lon="84.0"/><trkpt lat="-74.0172" lon="84.51"/><trkpt lat="-73.9405" lon="85.0"/><trkpt lat="-73.7815" lon="86.0"/><trkpt lat="-73.6185" lon="87.0"/><trkpt lat="-73.4525" lon="88.0"/><trkpt lat="-73.2785" lon="89.0"/><trkpt lat="-73.0888" lon="90.0"/><trkpt lat="-73.0151" lon="90.39"/><trkpt lat="-72.9001" lon="91.0"/><trkpt lat="-72.7095" lon="92.0"/><trkpt lat="-72.5123" lon="93.0"/><trkpt lat="-72.3057" lon="94.0"/><trkpt lat="-72.0913" lon="95.0"/><trkpt lat="-72.0217" lon="95.33"/><trkpt lat="-71.8732" lon="96.0"/></trkseg></trk>
</gpx>
