<?xml version="1.0" encoding="UTF-8"?>
<kml xmlns="http://www.opengis.net/kml/2.2"><Document><name>The Moon occults Venus — 2029-10-11</name>
<description>Graze limits from https://occult.alokm.com/venus-2029-10-11, traced against the real lunar limb (LRO LOLA).</description>
<Style id="graze"><LineStyle><color>ff06b6d9</color><width>4</width></LineStyle></Style>
<Placemark><name>south graze limit</name><styleUrl>#graze</styleUrl><LineString><tessellate>1</tessellate><coordinates>180.0,18.7344,0 179.56,18.9767,0 179.0,19.2854,0 178.0,19.8414,0 177.75,19.9841,0 177.0,20.4003,0 176.0,20.9675,0 175.97,20.9845,0 175.0,21.5378,0 174.22,21.9873,0 174.0,22.1144,0 173.0,22.6903,0 172.48,22.9902,0 172.0,23.2678,0 171.0,23.8464,0 170.75,23.991,0 170.0,24.4248,0 169.02,24.9912,0 169.0,25.0027,0 168.0,25.5793,0 167.29,25.9881,0 167.0,26.1546,0 166.0,26.7263,0 165.54,26.9882,0 165.0,27.294,0 164.0,27.8611,0 163.78,27.9857,0 163.0,28.4251,0 162.0,28.9878,0 162.0,28.9878,0 161.0,29.5407,0 160.2,29.981,0 160.0,30.0903,0 159.0,30.6365,0 158.37,30.977,0 158.0,31.1749,0 157.0,31.7063,0 156.51,31.9626,0 156.0,32.2304,0 155.0,32.748,0 154.61,32.948,0 154.0,33.2608,0 153.0,33.7713,0 152.67,33.9386,0 152.0,34.28,0 151.0,34.7826,0 150.7,34.9319,0 150.0,35.2803,0 149.0,35.7739,0 148.67,35.9354,0</coordinates></LineString></Placemark>
<Placemark><name>south graze limit</name><styleUrl>#graze</styleUrl><LineString><tessellate>1</tessellate><coordinates>-110.0,26.3826,0 -110.92,25.9593,0 -111.0,25.9224,0 -112.0,25.462,0 -113.0,25.0012,0 -113.09,24.9596,0 -114.0,24.5398,0 -115.0,24.0784,0 -115.25,23.9631,0 -116.0,23.6173,0 -117.0,23.1562,0 -117.43,22.9582,0 -118.0,22.6961,0 -119.0,22.2377,0 -119.6,21.9638,0 -120.0,21.7811,0 -121.0,21.3259,0 -121.8,20.9626,0 -122.0,20.8719,0 -123.0,20.4205,0 -124.0,19.9752,0 -124.02,19.9663,0 -125.0,19.5314,0 -126.0,19.0967,0 -126.29,18.971,0 -127.0,18.661,0 -128.0,18.2301,0 -128.6,17.9731,0 -129.0,17.8032,0 -130.0,17.3807,0 -130.99,16.9672,0 -131.0,16.9633,0 -132.0,16.5552,0 -133.0,16.1538,0 -133.49,15.9593,0 -134.0,15.7587,0 -135.0,15.3781,0 -136.0,15.0094,0 -136.14,14.96,0 -137.0,14.657,0 -138.0,14.3176,0 -139.0,13.9942,0 -139.03,13.9857,0 -140.0,13.6822,0 -141.0,13.3711,0 -142.0,13.0847,0 -142.32,12.9935,0 -143.0,12.8058,0 -144.0,12.5507,0 -145.0,12.306,0 -146.0,12.0804,0 -146.43,11.9899,0 -147.0,11.8813,0 -148.0,11.7003,0 -149.0,11.5412,0 -150.0,11.4055,0 -151.0,11.2883,0 -152.0,11.1907,0 -153.0,11.1206,0 -154.0,11.0881,0 -155.0,11.0667,0 -156.0,11.0341,0 -157.0,11.1155,0 -158.0,11.1695,0 -159.0,11.2192,0 -160.0,11.3464,0 -161.0,11.5251,0 -162.0,11.7085,0 -163.0,11.8889,0 -163.44,11.9721,0 -164.0,12.1013,0 -165.0,12.3491,0 -166.0,12.6053,0 -167.0,12.9109,0 -167.11,12.9505,0 -168.0,13.2785,0 -169.0,13.6329,0 -169.95,13.9594,0 -170.0,13.9784,0 -171.0,14.3551,0 -172.0,14.7633,0 -172.38,14.9324,0 -173.0,15.1939,0 -174.0,15.6497,0 -174.58,15.9195,0 -175.0,16.1256,0 -176.0,16.616,0 -176.63,16.931,0 -177.0,17.1193,0 -178.0,17.6402,0 -178.57,17.9491,0 -179.0,18.1851,0 -180.0,18.7344,0</coordinates></LineString></Placemark>
</Document></kml>
