<?xml version="1.0" encoding="UTF-8"?>
<gpx version="1.1" creator="https://occult.alokm.com" xmlns="http://www.topografix.com/GPX/1/1">
<metadata><name>The Moon occults Venus — 2028-03-30 — graze limits</name></metadata>
<trk><name>south graze limit</name><trkseg><trkpt lat="70.9497" lon="180.0"/><trkpt lat="70.9714" lon="179.0"/><trkpt lat="70.9923" lon="178.0"/><trkpt lat="71.0064" lon="177.0"/><trkpt lat="71.0173" lon="176.0"/><trkpt lat="71.0231" lon="175.0"/><trkpt lat="71.026" lon="174.18"/><trkpt lat="71.026" lon="174.0"/><trkpt lat="71.0255" lon="173.85"/><trkpt lat="71.0236" lon="173.0"/><trkpt lat="71.0216" lon="172.0"/><trkpt lat="71.011" lon="171.0"/><trkpt lat="70.9965" lon="170.0"/><trkpt lat="70.9768" lon="169.0"/><trkpt lat="70.9531" lon="168.0"/><trkpt lat="70.9237" lon="167.0"/><trkpt lat="70.8837" lon="166.0"/><trkpt lat="70.8391" lon="165.0"/><trkpt lat="70.7906" lon="164.0"/><trkpt lat="70.7386" lon="163.0"/><trkpt lat="70.6773" lon="162.0"/><trkpt lat="70.61" lon="161.0"/><trkpt lat="70.5377" lon="160.0"/><trkpt lat="70.4611" lon="159.0"/><trkpt lat="70.3777" lon="158.0"/><trkpt lat="70.2886" lon="157.0"/><trkpt lat="70.1982" lon="156.0"/><trkpt lat="70.1022" lon="155.0"/><trkpt lat="70.0204" lon="154.21"/><trkpt lat="69.9973" lon="154.0"/><trkpt lat="69.8804" lon="153.0"/><trkpt lat="69.7637" lon="152.0"/><trkpt lat="69.6394" lon="151.0"/><trkpt lat="69.5068" lon="150.0"/><trkpt lat="69.3726" lon="149.0"/><trkpt lat="69.2321" lon="148.0"/><trkpt lat="69.0864" lon="147.0"/><trkpt lat="69.0167" lon="146.54"/><trkpt lat="68.9323" lon="146.0"/><trkpt lat="68.7601" lon="145.0"/><trkpt lat="68.5823" lon="144.0"/><trkpt lat="68.3986" lon="143.0"/><trkpt lat="68.2171" lon="142.0"/><trkpt lat="68.0197" lon="141.0"/><trkpt lat="68.0117" lon="140.96"/><trkpt lat="67.8147" lon="140.0"/><trkpt lat="67.5986" lon="139.0"/><trkpt lat="67.3734" lon="138.0"/><trkpt lat="67.1422" lon="137.0"/><trkpt lat="67.0208" lon="136.48"/><trkpt lat="66.9029" lon="136.0"/><trkpt lat="66.6474" lon="135.0"/><trkpt lat="66.3821" lon="134.0"/><trkpt lat="66.11" lon="133.0"/><trkpt lat="66.0299" lon="132.71"/><trkpt lat="65.8249" lon="132.0"/><trkpt lat="65.5262" lon="131.0"/><trkpt lat="65.2114" lon="130.0"/><trkpt lat="65.0228" lon="129.43"/><trkpt lat="64.8796" lon="129.0"/><trkpt lat="64.5409" lon="128.0"/><trkpt lat="64.1896" lon="127.0"/><trkpt lat="64.0213" lon="126.53"/><trkpt lat="63.8241" lon="126.0"/><trkpt lat="63.4565" lon="125.0"/><trkpt lat="63.0695" lon="124.0"/><trkpt lat="63.0331" lon="123.91"/><trkpt lat="62.6588" lon="123.0"/><trkpt lat="62.2393" lon="122.0"/><trkpt lat="62.0401" lon="121.53"/><trkpt lat="61.8067" lon="121.0"/><trkpt lat="61.3565" lon="120.0"/><trkpt lat="61.0494" lon="119.34"/><trkpt lat="60.8869" lon="119.0"/><trkpt lat="60.4021" lon="118.0"/><trkpt lat="60.049" lon="117.29"/><trkpt lat="59.9031" lon="117.0"/><trkpt lat="59.3787" lon="116.0"/><trkpt lat="59.0488" lon="115.38"/><trkpt lat="58.8428" lon="115.0"/><trkpt lat="58.2738" lon="114.0"/><trkpt lat="58.0253" lon="113.57"/><trkpt lat="57.689" lon="113.0"/><trkpt lat="57.0837" lon="112.0"/><trkpt lat="56.9934" lon="111.85"/><trkpt lat="56.4766" lon="111.0"/><trkpt lat="55.9949" lon="110.21"/><trkpt lat="55.8651" lon="110.0"/><trkpt lat="55.2403" lon="109.0"/><trkpt lat="54.9986" lon="108.62"/><trkpt lat="54.602" lon="108.0"/><trkpt lat="54.0228" lon="107.09"/><trkpt lat="53.9644" lon="107.0"/><trkpt lat="53.3125" lon="106.0"/><trkpt lat="53.0381" lon="105.59"/><trkpt lat="52.6399" lon="105.0"/><trkpt lat="52.0359" lon="104.13"/><trkpt lat="51.9467" lon="104.0"/><trkpt lat="51.2556" lon="103.0"/><trkpt lat="51.0386" lon="102.69"/><trkpt lat="50.5582" lon="102.0"/><trkpt lat="50.0455" lon="101.27"/><trkpt lat="49.8543" lon="101.0"/><trkpt lat="49.1459" lon="100.0"/><trkpt lat="49.0461" lon="99.86"/><trkpt lat="48.4359" lon="99.0"/><trkpt lat="48.0512" lon="98.46"/><trkpt lat="47.7254" lon="98.0"/><trkpt lat="47.0503" lon="97.05"/><trkpt lat="47.0149" lon="97.0"/><trkpt lat="46.307" lon="96.0"/><trkpt lat="46.0529" lon="95.64"/><trkpt lat="45.6023" lon="95.0"/><trkpt lat="45.0491" lon="94.21"/><trkpt lat="44.9026" lon="94.0"/><trkpt lat="44.2069" lon="93.0"/><trkpt lat="44.0486" lon="92.77"/><trkpt lat="43.5188" lon="92.0"/><trkpt lat="43.0437" lon="91.3"/><trkpt lat="42.8409" lon="91.0"/><trkpt lat="42.1713" lon="90.0"/><trkpt lat="42.0381" lon="89.8"/><trkpt lat="41.5107" lon="89.0"/><trkpt lat="41.0352" lon="88.27"/><trkpt lat="40.8613" lon="88.0"/><trkpt lat="40.2234" lon="87.0"/><trkpt lat="40.0372" lon="86.7"/><trkpt lat="39.6015" lon="86.0"/><trkpt lat="39.0311" lon="85.08"/><trkpt lat="38.9809" lon="85.0"/><trkpt lat="38.3648" lon="84.0"/><trkpt lat="38.0011" lon="83.4"/><trkpt lat="37.7632" lon="83.0"/><trkpt lat="37.1821" lon="82.0"/><trkpt lat="36.9937" lon="81.67"/><trkpt lat="36.617" lon="81.0"/><trkpt lat="36.0623" lon="80.0"/><trkpt lat="35.986" lon="79.86"/><trkpt lat="35.5249" lon="79.0"/><trkpt lat="35.0075" lon="78.0"/><trkpt lat="34.9987" lon="77.98"/><trkpt lat="34.5101" lon="77.0"/><trkpt lat="34.0254" lon="76.01"/><trkpt lat="34.0205" lon="76.0"/><trkpt lat="33.5462" lon="75.0"/></trkseg></trk>
<trk><name>south graze limit</name><trkseg><trkpt lat="52.4649" lon="-108.0"/><trkpt lat="52.9475" lon="-109.0"/><trkpt lat="53.0103" lon="-109.13"/><trkpt lat="53.4312" lon="-110.0"/><trkpt lat="53.9096" lon="-111.0"/><trkpt lat="54.009" lon="-111.21"/><trkpt lat="54.3866" lon="-112.0"/><trkpt lat="54.8599" lon="-113.0"/><trkpt lat="55.0124" lon="-113.32"/><trkpt lat="55.3313" lon="-114.0"/><trkpt lat="55.7978" lon="-115.0"/><trkpt lat="56.0155" lon="-115.47"/><trkpt lat="56.2604" lon="-116.0"/><trkpt lat="56.7179" lon="-117.0"/><trkpt lat="57.0181" lon="-117.66"/><trkpt lat="57.171" lon="-118.0"/><trkpt lat="57.6168" lon="-119.0"/><trkpt lat="58.0198" lon="-119.91"/><trkpt lat="58.0587" lon="-120.0"/><trkpt lat="58.4992" lon="-121.0"/><trkpt lat="58.9299" lon="-122.0"/><trkpt lat="59.0278" lon="-122.23"/><trkpt lat="59.3502" lon="-123.0"/><trkpt lat="59.7613" lon="-124.0"/><trkpt lat="60.0241" lon="-124.65"/><trkpt lat="60.1656" lon="-125.0"/><trkpt lat="60.563" lon="-126.0"/><trkpt lat="60.9542" lon="-127.0"/><trkpt lat="61.0245" lon="-127.18"/><trkpt lat="61.3382" lon="-128.0"/><trkpt lat="61.7106" lon="-129.0"/><trkpt lat="62.0224" lon="-129.85"/><trkpt lat="62.0772" lon="-130.0"/><trkpt lat="62.4362" lon="-131.0"/><trkpt lat="62.7833" lon="-132.0"/><trkpt lat="63.0213" lon="-132.7"/><trkpt lat="63.123" lon="-133.0"/><trkpt lat="63.4628" lon="-134.0"/><trkpt lat="63.786" lon="-135.0"/><trkpt lat="64.025" lon="-135.75"/><trkpt lat="64.103" lon="-136.0"/><trkpt lat="64.4117" lon="-137.0"/><trkpt lat="64.7113" lon="-138.0"/><trkpt lat="64.9998" lon="-139.0"/><trkpt lat="65.0254" lon="-139.09"/><trkpt lat="65.2832" lon="-140.0"/><trkpt lat="65.5543" lon="-141.0"/><trkpt lat="65.8217" lon="-142.0"/><trkpt lat="66.0267" lon="-142.78"/><trkpt lat="66.0836" lon="-143.0"/><trkpt lat="66.3363" lon="-144.0"/><trkpt lat="66.5805" lon="-145.0"/><trkpt lat="66.8147" lon="-146.0"/><trkpt lat="67.0264" lon="-146.95"/><trkpt lat="67.0375" lon="-147.0"/><trkpt lat="67.2587" lon="-148.0"/><trkpt lat="67.4725" lon="-149.0"/><trkpt lat="67.6792" lon="-150.0"/><trkpt lat="67.8755" lon="-151.0"/><trkpt lat="68.029" lon="-151.81"/><trkpt lat="68.0651" lon="-152.0"/><trkpt lat="68.248" lon="-153.0"/><trkpt lat="68.4207" lon="-154.0"/><trkpt lat="68.5858" lon="-155.0"/><trkpt lat="68.7536" lon="-156.0"/><trkpt lat="68.916" lon="-157.0"/><trkpt lat="69.0349" lon="-157.76"/><trkpt lat="69.0702" lon="-158.0"/><trkpt lat="69.2172" lon="-159.0"/><trkpt lat="69.3577" lon="-160.0"/><trkpt lat="69.4899" lon="-161.0"/><trkpt lat="69.6166" lon="-162.0"/><trkpt lat="69.7343" lon="-163.0"/><trkpt lat="69.8447" lon="-164.0"/><trkpt lat="69.9508" lon="-165.0"/><trkpt lat="70.028" lon="-165.78"/><trkpt lat="70.0492" lon="-166.0"/><trkpt lat="70.1457" lon="-167.0"/><trkpt lat="70.2373" lon="-168.0"/><trkpt lat="70.3256" lon="-169.0"/><trkpt lat="70.4065" lon="-170.0"/><trkpt lat="70.4816" lon="-171.0"/><trkpt lat="70.5507" lon="-172.0"/><trkpt lat="70.6175" lon="-173.0"/><trkpt lat="70.6781" lon="-174.0"/><trkpt lat="70.7386" lon="-175.0"/><trkpt lat="70.7923" lon="-176.0"/><trkpt lat="70.8396" lon="-177.0"/><trkpt lat="70.8805" lon="-178.0"/><trkpt lat="70.917" lon="-179.0"/><trkpt lat="70.9497" lon="-180.0"/></trkseg></trk>
</gpx>
