<?xml version="1.0" encoding="UTF-8"?>
<gpx version="1.1" creator="https://occult.alokm.com" xmlns="http://www.topografix.com/GPX/1/1">
<metadata><name>The Moon occults Venus — 2029-01-13 — graze limits</name></metadata>
<trk><name>north graze limit</name><trkseg><trkpt lat="-39.5609" lon="-35.0"/><trkpt lat="-40.0009" lon="-34.04"/><trkpt lat="-40.0192" lon="-34.0"/><trkpt lat="-40.4785" lon="-33.0"/><trkpt lat="-40.9367" lon="-32.0"/><trkpt lat="-41.0006" lon="-31.86"/><trkpt lat="-41.393" lon="-31.0"/><trkpt lat="-41.8502" lon="-30.0"/><trkpt lat="-42.0052" lon="-29.66"/><trkpt lat="-42.3073" lon="-29.0"/><trkpt lat="-42.7602" lon="-28.0"/><trkpt lat="-43.0035" lon="-27.46"/><trkpt lat="-43.21" lon="-27.0"/><trkpt lat="-43.6576" lon="-26.0"/><trkpt lat="-44.0059" lon="-25.22"/><trkpt lat="-44.1039" lon="-25.0"/><trkpt lat="-44.5496" lon="-24.0"/><trkpt lat="-44.9861" lon="-23.0"/><trkpt lat="-45.0035" lon="-22.96"/><trkpt lat="-45.4234" lon="-22.0"/><trkpt lat="-45.855" lon="-21.0"/><trkpt lat="-46.0052" lon="-20.65"/><trkpt lat="-46.2826" lon="-20.0"/><trkpt lat="-46.699" lon="-19.0"/><trkpt lat="-46.9945" lon="-18.29"/><trkpt lat="-47.1155" lon="-18.0"/><trkpt lat="-47.528" lon="-17.0"/><trkpt lat="-47.9373" lon="-16.0"/><trkpt lat="-47.9978" lon="-15.85"/><trkpt lat="-48.3401" lon="-15.0"/><trkpt lat="-48.7362" lon="-14.0"/><trkpt lat="-49.0005" lon="-13.32"/><trkpt lat="-49.123" lon="-13.0"/><trkpt lat="-49.505" lon="-12.0"/><trkpt lat="-49.8825" lon="-11.0"/><trkpt lat="-49.9986" lon="-10.69"/><trkpt lat="-50.2505" lon="-10.0"/><trkpt lat="-50.6103" lon="-9.0"/><trkpt lat="-50.969" lon="-8.0"/><trkpt lat="-51.0002" lon="-7.91"/><trkpt lat="-51.3184" lon="-7.0"/><trkpt lat="-51.658" lon="-6.0"/><trkpt lat="-51.9854" lon="-5.0"/><trkpt lat="-51.9972" lon="-4.96"/><trkpt lat="-52.3108" lon="-4.0"/><trkpt lat="-52.6258" lon="-3.0"/><trkpt lat="-52.933" lon="-2.0"/><trkpt lat="-53.0022" lon="-1.77"/><trkpt lat="-53.2298" lon="-1.0"/><trkpt lat="-53.5217" lon="0.0"/><trkpt lat="-53.8045" lon="1.0"/><trkpt lat="-54.0052" lon="1.73"/><trkpt lat="-54.0752" lon="2.0"/><trkpt lat="-54.34" lon="3.0"/><trkpt lat="-54.5944" lon="4.0"/><trkpt lat="-54.8456" lon="5.0"/><trkpt lat="-55.0069" lon="5.67"/><trkpt lat="-55.0845" lon="6.0"/><trkpt lat="-55.3106" lon="7.0"/><trkpt lat="-55.5307" lon="8.0"/><trkpt lat="-55.7453" lon="9.0"/><trkpt lat="-55.9553" lon="10.0"/><trkpt lat="-56.0077" lon="10.26"/><trkpt lat="-56.1545" lon="11.0"/><trkpt lat="-56.3423" lon="12.0"/><trkpt lat="-56.5208" lon="13.0"/><trkpt lat="-56.6922" lon="14.0"/><trkpt lat="-56.8515" lon="15.0"/><trkpt lat="-57.0026" lon="16.0"/><trkpt lat="-57.0071" lon="16.03"/><trkpt lat="-57.1437" lon="17.0"/><trkpt lat="-57.2761" lon="18.0"/><trkpt lat="-57.4044" lon="19.0"/><trkpt lat="-57.5264" lon="20.0"/><trkpt lat="-57.6367" lon="21.0"/><trkpt lat="-57.7395" lon="22.0"/><trkpt lat="-57.8355" lon="23.0"/><trkpt lat="-57.9216" lon="24.0"/><trkpt lat="-57.9967" lon="24.95"/><trkpt lat="-58.0018" lon="25.0"/><trkpt lat="-58.0745" lon="26.0"/><trkpt lat="-58.1302" lon="27.0"/><trkpt lat="-58.1873" lon="28.0"/><trkpt lat="-58.2311" lon="29.0"/><trkpt lat="-58.2646" lon="30.0"/><trkpt lat="-58.296" lon="31.0"/><trkpt lat="-58.3175" lon="32.0"/><trkpt lat="-58.3344" lon="33.0"/><trkpt lat="-58.3434" lon="34.0"/><trkpt lat="-58.3433" lon="35.0"/><trkpt lat="-58.3323" lon="36.0"/><trkpt lat="-58.3122" lon="37.0"/><trkpt lat="-58.2889" lon="38.0"/><trkpt lat="-58.2503" lon="39.0"/><trkpt lat="-58.2034" lon="40.0"/><trkpt lat="-58.1524" lon="41.0"/><trkpt lat="-58.0866" lon="42.0"/><trkpt lat="-58.0117" lon="43.0"/><trkpt lat="-58.0024" lon="43.12"/><trkpt lat="-57.9302" lon="44.0"/><trkpt lat="-57.8384" lon="45.0"/><trkpt lat="-57.741" lon="46.0"/><trkpt lat="-57.6311" lon="47.0"/><trkpt lat="-57.51" lon="48.0"/><trkpt lat="-57.3761" lon="49.0"/><trkpt lat="-57.2363" lon="50.0"/><trkpt lat="-57.0884" lon="51.0"/><trkpt lat="-56.9971" lon="51.59"/><trkpt lat="-56.9354" lon="52.0"/><trkpt lat="-56.7711" lon="53.0"/><trkpt lat="-56.5936" lon="54.0"/><trkpt lat="-56.4031" lon="55.0"/><trkpt lat="-56.2012" lon="56.0"/><trkpt lat="-56.0073" lon="56.91"/><trkpt lat="-55.9878" lon="57.0"/><trkpt lat="-55.7628" lon="58.0"/><trkpt lat="-55.5241" lon="59.0"/><trkpt lat="-55.2735" lon="60.0"/><trkpt lat="-55.0087" lon="61.0"/><trkpt lat="-54.9983" lon="61.04"/><trkpt lat="-54.739" lon="62.0"/><trkpt lat="-54.4538" lon="63.0"/><trkpt lat="-54.1557" lon="64.0"/><trkpt lat="-54.004" lon="64.49"/><trkpt lat="-53.8428" lon="65.0"/><trkpt lat="-53.5191" lon="66.0"/><trkpt lat="-53.1804" lon="67.0"/><trkpt lat="-53.0005" lon="67.51"/><trkpt lat="-52.8242" lon="68.0"/><trkpt lat="-52.4615" lon="69.0"/><trkpt lat="-52.0718" lon="70.0"/><trkpt lat="-51.9917" lon="70.2"/><trkpt lat="-51.6843" lon="71.0"/><trkpt lat="-51.2755" lon="72.0"/><trkpt lat="-50.9975" lon="72.65"/><trkpt lat="-50.8472" lon="73.0"/><trkpt lat="-50.411" lon="74.0"/><trkpt lat="-49.9986" lon="74.91"/><trkpt lat="-49.957" lon="75.0"/><trkpt lat="-49.4868" lon="76.0"/><trkpt lat="-49.003" lon="77.0"/><trkpt lat="-48.9982" lon="77.01"/><trkpt lat="-48.5087" lon="78.0"/><trkpt lat="-48.002" lon="79.0"/><trkpt lat="-48.002" lon="79.0"/><trkpt lat="-47.4742" lon="80.0"/><trkpt lat="-46.9988" lon="80.89"/><trkpt lat="-46.9382" lon="81.0"/><trkpt lat="-46.3849" lon="82.0"/><trkpt lat="-45.9947" lon="82.7"/><trkpt lat="-45.8278" lon="83.0"/><trkpt lat="-45.253" lon="84.0"/><trkpt lat="-44.9947" lon="84.44"/><trkpt lat="-44.6642" lon="85.0"/><trkpt lat="-44.0752" lon="86.0"/><trkpt lat="-43.9982" lon="86.13"/><trkpt lat="-43.4706" lon="87.0"/><trkpt lat="-42.9924" lon="87.78"/><trkpt lat="-42.8577" lon="88.0"/><trkpt lat="-42.2402" lon="89.0"/><trkpt lat="-41.9968" lon="89.39"/><trkpt lat="-41.6147" lon="90.0"/><trkpt lat="-40.9953" lon="90.98"/><trkpt lat="-40.9827" lon="91.0"/><trkpt lat="-40.3475" lon="92.0"/><trkpt lat="-39.9913" lon="92.56"/><trkpt lat="-39.7109" lon="93.0"/><trkpt lat="-39.0706" lon="94.0"/><trkpt lat="-38.9937" lon="94.12"/><trkpt lat="-38.4287" lon="95.0"/><trkpt lat="-37.9927" lon="95.68"/><trkpt lat="-37.7862" lon="96.0"/><trkpt lat="-37.1465" lon="97.0"/><trkpt lat="-36.9931" lon="97.24"/><trkpt lat="-36.5085" lon="98.0"/><trkpt lat="-35.9936" lon="98.81"/><trkpt lat="-35.8738" lon="99.0"/><trkpt lat="-35.2432" lon="100.0"/><trkpt lat="-34.998" lon="100.39"/><trkpt lat="-34.6157" lon="101.0"/><trkpt lat="-33.9944" lon="102.0"/><trkpt lat="-33.9944" lon="102.0"/><trkpt lat="-33.3787" lon="103.0"/><trkpt lat="-32.9977" lon="103.62"/><trkpt lat="-32.7655" lon="104.0"/><trkpt lat="-32.1628" lon="105.0"/><trkpt lat="-31.9966" lon="105.28"/><trkpt lat="-31.571" lon="106.0"/><trkpt lat="-30.9965" lon="106.97"/><trkpt lat="-30.979" lon="107.0"/><trkpt lat="-30.3982" lon="108.0"/><trkpt lat="-30.0003" lon="108.7"/><trkpt lat="-29.8297" lon="109.0"/><trkpt lat="-29.2673" lon="110.0"/><trkpt lat="-28.9993" lon="110.48"/><trkpt lat="-28.7107" lon="111.0"/><trkpt lat="-28.1666" lon="112.0"/><trkpt lat="-28.0005" lon="112.31"/><trkpt lat="-27.6342" lon="113.0"/><trkpt lat="-27.1055" lon="114.0"/><trkpt lat="-26.9956" lon="114.21"/><trkpt lat="-26.5921" lon="115.0"/><trkpt lat="-26.0825" lon="116.0"/><trkpt lat="-26.0018" lon="116.16"/><trkpt lat="-25.5833" lon="117.0"/><trkpt lat="-25.0933" lon="118.0"/><trkpt lat="-24.9955" lon="118.2"/><trkpt lat="-24.6131" lon="119.0"/><trkpt lat="-24.1451" lon="120.0"/><trkpt lat="-24.001" lon="120.31"/></trkseg></trk>
</gpx>
