<?xml version="1.0" encoding="UTF-8"?>
<gpx version="1.1" creator="https://occult.alokm.com" xmlns="http://www.topografix.com/GPX/1/1">
<metadata><name>The Moon occults Venus — 2027-11-30 — graze limits</name></metadata>
<trk><name>north graze limit</name><trkseg><trkpt lat="-45.5386" lon="-87.0"/><trkpt lat="-45.994" lon="-86.13"/><trkpt lat="-46.0619" lon="-86.0"/><trkpt lat="-46.587" lon="-85.0"/><trkpt lat="-46.9976" lon="-84.22"/><trkpt lat="-47.1134" lon="-84.0"/><trkpt lat="-47.6412" lon="-83.0"/><trkpt lat="-47.9995" lon="-82.32"/><trkpt lat="-48.1659" lon="-82.0"/><trkpt lat="-48.6895" lon="-81.0"/><trkpt lat="-48.9997" lon="-80.41"/><trkpt lat="-49.2155" lon="-80.0"/><trkpt lat="-49.7368" lon="-79.0"/><trkpt lat="-49.9963" lon="-78.5"/><trkpt lat="-50.2563" lon="-78.0"/><trkpt lat="-50.7756" lon="-77.0"/><trkpt lat="-51.003" lon="-76.56"/><trkpt lat="-51.291" lon="-76.0"/><trkpt lat="-51.797" lon="-75.0"/><trkpt lat="-51.9953" lon="-74.61"/><trkpt lat="-52.3049" lon="-74.0"/><trkpt lat="-52.8104" lon="-73.0"/><trkpt lat="-53.0014" lon="-72.61"/><trkpt lat="-53.2998" lon="-72.0"/><trkpt lat="-53.7871" lon="-71.0"/><trkpt lat="-53.9949" lon="-70.58"/><trkpt lat="-54.2788" lon="-70.0"/><trkpt lat="-54.7609" lon="-69.0"/><trkpt lat="-55.0093" lon="-68.48"/><trkpt lat="-55.2335" lon="-68.0"/><trkpt lat="-55.6916" lon="-67.0"/><trkpt lat="-56.0069" lon="-66.32"/><trkpt lat="-56.1541" lon="-66.0"/><trkpt lat="-56.5956" lon="-65.0"/><trkpt lat="-56.9964" lon="-64.08"/><trkpt lat="-57.031" lon="-64.0"/><trkpt lat="-57.4638" lon="-63.0"/><trkpt lat="-57.8833" lon="-62.0"/><trkpt lat="-57.9971" lon="-61.73"/><trkpt lat="-58.3001" lon="-61.0"/><trkpt lat="-58.6956" lon="-60.0"/><trkpt lat="-58.9937" lon="-59.25"/><trkpt lat="-59.0918" lon="-59.0"/><trkpt lat="-59.4794" lon="-58.0"/><trkpt lat="-59.8524" lon="-57.0"/><trkpt lat="-59.997" lon="-56.61"/><trkpt lat="-60.2217" lon="-56.0"/><trkpt lat="-60.5774" lon="-55.0"/><trkpt lat="-60.9246" lon="-54.0"/><trkpt lat="-60.9993" lon="-53.78"/><trkpt lat="-61.2598" lon="-53.0"/><trkpt lat="-61.5831" lon="-52.0"/><trkpt lat="-61.8976" lon="-51.0"/><trkpt lat="-61.9898" lon="-50.7"/><trkpt lat="-62.2053" lon="-50.0"/><trkpt lat="-62.5039" lon="-49.0"/><trkpt lat="-62.7923" lon="-48.0"/><trkpt lat="-62.9933" lon="-47.28"/><trkpt lat="-63.0677" lon="-47.0"/><trkpt lat="-63.3341" lon="-46.0"/><trkpt lat="-63.595" lon="-45.0"/><trkpt lat="-63.8425" lon="-44.0"/><trkpt lat="-63.9858" lon="-43.43"/><trkpt lat="-64.0891" lon="-43.0"/><trkpt lat="-64.3243" lon="-42.0"/><trkpt lat="-64.55" lon="-41.0"/><trkpt lat="-64.7679" lon="-40.0"/><trkpt lat="-64.9808" lon="-39.0"/><trkpt lat="-64.9912" lon="-38.95"/><trkpt lat="-65.1823" lon="-38.0"/><trkpt lat="-65.3805" lon="-37.0"/><trkpt lat="-65.5643" lon="-36.0"/><trkpt lat="-65.7383" lon="-35.0"/><trkpt lat="-65.9111" lon="-34.0"/><trkpt lat="-66.0021" lon="-33.46"/><trkpt lat="-66.0771" lon="-33.0"/><trkpt lat="-66.2298" lon="-32.0"/><trkpt lat="-66.3764" lon="-31.0"/><trkpt lat="-66.5194" lon="-30.0"/><trkpt lat="-66.6535" lon="-29.0"/><trkpt lat="-66.777" lon="-28.0"/><trkpt lat="-66.8959" lon="-27.0"/><trkpt lat="-67.0069" lon="-26.04"/><trkpt lat="-67.0116" lon="-26.0"/><trkpt lat="-67.118" lon="-25.0"/><trkpt lat="-67.2108" lon="-24.0"/><trkpt lat="-67.3017" lon="-23.0"/><trkpt lat="-67.385" lon="-22.0"/><trkpt lat="-67.4623" lon="-21.0"/><trkpt lat="-67.5371" lon="-20.0"/><trkpt lat="-67.6042" lon="-19.0"/><trkpt lat="-67.6652" lon="-18.0"/><trkpt lat="-67.721" lon="-17.0"/><trkpt lat="-67.771" lon="-16.0"/><trkpt lat="-67.8149" lon="-15.0"/><trkpt lat="-67.8537" lon="-14.0"/><trkpt lat="-67.8814" lon="-13.0"/><trkpt lat="-67.9081" lon="-12.0"/><trkpt lat="-67.9273" lon="-11.0"/><trkpt lat="-67.939" lon="-10.0"/><trkpt lat="-67.9467" lon="-9.0"/><trkpt lat="-67.942" lon="-8.0"/><trkpt lat="-67.9368" lon="-7.0"/><trkpt lat="-67.9266" lon="-6.0"/><trkpt lat="-67.9081" lon="-5.0"/><trkpt lat="-67.8873" lon="-4.0"/><trkpt lat="-67.8582" lon="-3.0"/><trkpt lat="-67.8237" lon="-2.0"/><trkpt lat="-67.7828" lon="-1.0"/><trkpt lat="-67.7337" lon="0.0"/><trkpt lat="-67.6811" lon="1.0"/><trkpt lat="-67.6202" lon="2.0"/><trkpt lat="-67.5553" lon="3.0"/><trkpt lat="-67.4832" lon="4.0"/><trkpt lat="-67.4029" lon="5.0"/><trkpt lat="-67.3159" lon="6.0"/><trkpt lat="-67.2217" lon="7.0"/><trkpt lat="-67.1216" lon="8.0"/><trkpt lat="-67.0152" lon="9.0"/><trkpt lat="-66.9981" lon="9.15"/><trkpt lat="-66.8969" lon="10.0"/><trkpt lat="-66.7709" lon="11.0"/><trkpt lat="-66.6404" lon="12.0"/><trkpt lat="-66.5034" lon="13.0"/><trkpt lat="-66.3603" lon="14.0"/><trkpt lat="-66.2066" lon="15.0"/><trkpt lat="-66.0456" lon="16.0"/><trkpt lat="-65.9959" lon="16.29"/><trkpt lat="-65.8742" lon="17.0"/><trkpt lat="-65.6979" lon="18.0"/><trkpt lat="-65.5116" lon="19.0"/><trkpt lat="-65.3111" lon="20.0"/><trkpt lat="-65.1043" lon="21.0"/><trkpt lat="-64.9981" lon="21.49"/><trkpt lat="-64.8868" lon="22.0"/><trkpt lat="-64.6562" lon="23.0"/><trkpt lat="-64.4225" lon="24.0"/><trkpt lat="-64.1753" lon="25.0"/><trkpt lat="-64.0085" lon="25.67"/><trkpt lat="-63.9224" lon="26.0"/><trkpt lat="-63.6525" lon="27.0"/><trkpt lat="-63.368" lon="28.0"/><trkpt lat="-63.0713" lon="29.0"/><trkpt lat="-63.0043" lon="29.22"/><trkpt lat="-62.7628" lon="30.0"/><trkpt lat="-62.4408" lon="31.0"/><trkpt lat="-62.1191" lon="32.0"/><trkpt lat="-62.0118" lon="32.31"/><trkpt lat="-61.7686" lon="33.0"/><trkpt lat="-61.4068" lon="34.0"/><trkpt lat="-61.0266" lon="35.0"/><trkpt lat="-61.0036" lon="35.06"/><trkpt lat="-60.6335" lon="36.0"/><trkpt lat="-60.2308" lon="37.0"/><trkpt lat="-59.9996" lon="37.56"/><trkpt lat="-59.8134" lon="38.0"/><trkpt lat="-59.3811" lon="39.0"/><trkpt lat="-59.0054" lon="39.84"/><trkpt lat="-58.9327" lon="40.0"/><trkpt lat="-58.4671" lon="41.0"/><trkpt lat="-58.0023" lon="41.96"/><trkpt lat="-57.9827" lon="42.0"/><trkpt lat="-57.488" lon="43.0"/><trkpt lat="-57.0084" lon="43.94"/><trkpt lat="-56.9773" lon="44.0"/><trkpt lat="-56.4366" lon="45.0"/><trkpt lat="-56.0039" lon="45.8"/><trkpt lat="-55.8941" lon="46.0"/><trkpt lat="-55.3371" lon="47.0"/><trkpt lat="-55.0022" lon="47.58"/><trkpt lat="-54.7588" lon="48.0"/><trkpt lat="-54.1774" lon="49.0"/><trkpt lat="-54.0196" lon="49.27"/><trkpt lat="-53.5795" lon="50.0"/><trkpt lat="-53.0209" lon="50.9"/><trkpt lat="-52.9584" lon="51.0"/><trkpt lat="-52.323" lon="52.0"/><trkpt lat="-52.0194" lon="52.47"/><trkpt lat="-51.6736" lon="53.0"/><trkpt lat="-51.0138" lon="54.0"/><trkpt lat="-51.0072" lon="54.01"/><trkpt lat="-50.347" lon="55.0"/><trkpt lat="-50.0032" lon="55.51"/><trkpt lat="-49.674" lon="56.0"/><trkpt lat="-49.0079" lon="56.98"/><trkpt lat="-48.9943" lon="57.0"/><trkpt lat="-48.3079" lon="58.0"/><trkpt lat="-48.0032" lon="58.44"/><trkpt lat="-47.6138" lon="59.0"/><trkpt lat="-47.0019" lon="59.88"/><trkpt lat="-46.9187" lon="60.0"/><trkpt lat="-46.2227" lon="61.0"/><trkpt lat="-46.0063" lon="61.31"/><trkpt lat="-45.5256" lon="62.0"/><trkpt lat="-45.0024" lon="62.75"/><trkpt lat="-44.8285" lon="63.0"/><trkpt lat="-44.1343" lon="64.0"/><trkpt lat="-44.0028" lon="64.19"/><trkpt lat="-43.4433" lon="65.0"/><trkpt lat="-43.0037" lon="65.64"/><trkpt lat="-42.7573" lon="66.0"/><trkpt lat="-42.0759" lon="67.0"/><trkpt lat="-42.0013" lon="67.11"/><trkpt lat="-41.4008" lon="68.0"/><trkpt lat="-41.0058" lon="68.59"/><trkpt lat="-40.7331" lon="69.0"/><trkpt lat="-40.0751" lon="70.0"/><trkpt lat="-40.0095" lon="70.1"/><trkpt lat="-39.4238" lon="71.0"/><trkpt lat="-39.0038" lon="71.65"/><trkpt lat="-38.7796" lon="72.0"/><trkpt lat="-38.1452" lon="73.0"/><trkpt lat="-38.007" lon="73.22"/><trkpt lat="-37.524" lon="74.0"/><trkpt lat="-37.0093" lon="74.84"/><trkpt lat="-36.9121" lon="75.0"/><trkpt lat="-36.3125" lon="76.0"/><trkpt lat="-36.0116" lon="76.51"/><trkpt lat="-35.7251" lon="77.0"/><trkpt lat="-35.1488" lon="78.0"/><trkpt lat="-35.0174" lon="78.23"/><trkpt lat="-34.5814" lon="79.0"/><trkpt lat="-34.023" lon="80.0"/><trkpt lat="-34.023" lon="80.0"/><trkpt lat="-33.4718" lon="81.0"/><trkpt lat="-33.0072" lon="81.85"/><trkpt lat="-32.9268" lon="82.0"/><trkpt lat="-32.3982" lon="83.0"/></trkseg></trk>
</gpx>
