<?xml version="1.0" encoding="UTF-8"?>
<gpx version="1.1" creator="https://occult.alokm.com" xmlns="http://www.topografix.com/GPX/1/1">
<metadata><name>The Moon occults Venus — 2029-10-11 — graze limits</name></metadata>
<trk><name>south graze limit</name><trkseg><trkpt lat="18.7344" lon="180.0"/><trkpt lat="18.9767" lon="179.56"/><trkpt lat="19.2854" lon="179.0"/><trkpt lat="19.8414" lon="178.0"/><trkpt lat="19.9841" lon="177.75"/><trkpt lat="20.4003" lon="177.0"/><trkpt lat="20.9675" lon="176.0"/><trkpt lat="20.9845" lon="175.97"/><trkpt lat="21.5378" lon="175.0"/><trkpt lat="21.9873" lon="174.22"/><trkpt lat="22.1144" lon="174.0"/><trkpt lat="22.6903" lon="173.0"/><trkpt lat="22.9902" lon="172.48"/><trkpt lat="23.2678" lon="172.0"/><trkpt lat="23.8464" lon="171.0"/><trkpt lat="23.991" lon="170.75"/><trkpt lat="24.4248" lon="170.0"/><trkpt lat="24.9912" lon="169.02"/><trkpt lat="25.0027" lon="169.0"/><trkpt lat="25.5793" lon="168.0"/><trkpt lat="25.9881" lon="167.29"/><trkpt lat="26.1546" lon="167.0"/><trkpt lat="26.7263" lon="166.0"/><trkpt lat="26.9882" lon="165.54"/><trkpt lat="27.294" lon="165.0"/><trkpt lat="27.8611" lon="164.0"/><trkpt lat="27.9857" lon="163.78"/><trkpt lat="28.4251" lon="163.0"/><trkpt lat="28.9878" lon="162.0"/><trkpt lat="28.9878" lon="162.0"/><trkpt lat="29.5407" lon="161.0"/><trkpt lat="29.981" lon="160.2"/><trkpt lat="30.0903" lon="160.0"/><trkpt lat="30.6365" lon="159.0"/><trkpt lat="30.977" lon="158.37"/><trkpt lat="31.1749" lon="158.0"/><trkpt lat="31.7063" lon="157.0"/><trkpt lat="31.9626" lon="156.51"/><trkpt lat="32.2304" lon="156.0"/><trkpt lat="32.748" lon="155.0"/><trkpt lat="32.948" lon="154.61"/><trkpt lat="33.2608" lon="154.0"/><trkpt lat="33.7713" lon="153.0"/><trkpt lat="33.9386" lon="152.67"/><trkpt lat="34.28" lon="152.0"/><trkpt lat="34.7826" lon="151.0"/><trkpt lat="34.9319" lon="150.7"/><trkpt lat="35.2803" lon="150.0"/><trkpt lat="35.7739" lon="149.0"/><trkpt lat="35.9354" lon="148.67"/></trkseg></trk>
<trk><name>south graze limit</name><trkseg><trkpt lat="26.3826" lon="-110.0"/><trkpt lat="25.9593" lon="-110.92"/><trkpt lat="25.9224" lon="-111.0"/><trkpt lat="25.462" lon="-112.0"/><trkpt lat="25.0012" lon="-113.0"/><trkpt lat="24.9596" lon="-113.09"/><trkpt lat="24.5398" lon="-114.0"/><trkpt lat="24.0784" lon="-115.0"/><trkpt lat="23.9631" lon="-115.25"/><trkpt lat="23.6173" lon="-116.0"/><trkpt lat="23.1562" lon="-117.0"/><trkpt lat="22.9582" lon="-117.43"/><trkpt lat="22.6961" lon="-118.0"/><trkpt lat="22.2377" lon="-119.0"/><trkpt lat="21.9638" lon="-119.6"/><trkpt lat="21.7811" lon="-120.0"/><trkpt lat="21.3259" lon="-121.0"/><trkpt lat="20.9626" lon="-121.8"/><trkpt lat="20.8719" lon="-122.0"/><trkpt lat="20.4205" lon="-123.0"/><trkpt lat="19.9752" lon="-124.0"/><trkpt lat="19.9663" lon="-124.02"/><trkpt lat="19.5314" lon="-125.0"/><trkpt lat="19.0967" lon="-126.0"/><trkpt lat="18.971" lon="-126.29"/><trkpt lat="18.661" lon="-127.0"/><trkpt lat="18.2301" lon="-128.0"/><trkpt lat="17.9731" lon="-128.6"/><trkpt lat="17.8032" lon="-129.0"/><trkpt lat="17.3807" lon="-130.0"/><trkpt lat="16.9672" lon="-130.99"/><trkpt lat="16.9633" lon="-131.0"/><trkpt lat="16.5552" lon="-132.0"/><trkpt lat="16.1538" lon="-133.0"/><trkpt lat="15.9593" lon="-133.49"/><trkpt lat="15.7587" lon="-134.0"/><trkpt lat="15.3781" lon="-135.0"/><trkpt lat="15.0094" lon="-136.0"/><trkpt lat="14.96" lon="-136.14"/><trkpt lat="14.657" lon="-137.0"/><trkpt lat="14.3176" lon="-138.0"/><trkpt lat="13.9942" lon="-139.0"/><trkpt lat="13.9857" lon="-139.03"/><trkpt lat="13.6822" lon="-140.0"/><trkpt lat="13.3711" lon="-141.0"/><trkpt lat="13.0847" lon="-142.0"/><trkpt lat="12.9935" lon="-142.32"/><trkpt lat="12.8058" lon="-143.0"/><trkpt lat="12.5507" lon="-144.0"/><trkpt lat="12.306" lon="-145.0"/><trkpt lat="12.0804" lon="-146.0"/><trkpt lat="11.9899" lon="-146.43"/><trkpt lat="11.8813" lon="-147.0"/><trkpt lat="11.7003" lon="-148.0"/><trkpt lat="11.5412" lon="-149.0"/><trkpt lat="11.4055" lon="-150.0"/><trkpt lat="11.2883" lon="-151.0"/><trkpt lat="11.1907" lon="-152.0"/><trkpt lat="11.1206" lon="-153.0"/><trkpt lat="11.0881" lon="-154.0"/><trkpt lat="11.0667" lon="-155.0"/><trkpt lat="11.0341" lon="-156.0"/><trkpt lat="11.1155" lon="-157.0"/><trkpt lat="11.1695" lon="-158.0"/><trkpt lat="11.2192" lon="-159.0"/><trkpt lat="11.3464" lon="-160.0"/><trkpt lat="11.5251" lon="-161.0"/><trkpt lat="11.7085" lon="-162.0"/><trkpt lat="11.8889" lon="-163.0"/><trkpt lat="11.9721" lon="-163.44"/><trkpt lat="12.1013" lon="-164.0"/><trkpt lat="12.3491" lon="-165.0"/><trkpt lat="12.6053" lon="-166.0"/><trkpt lat="12.9109" lon="-167.0"/><trkpt lat="12.9505" lon="-167.11"/><trkpt lat="13.2785" lon="-168.0"/><trkpt lat="13.6329" lon="-169.0"/><trkpt lat="13.9594" lon="-169.95"/><trkpt lat="13.9784" lon="-170.0"/><trkpt lat="14.3551" lon="-171.0"/><trkpt lat="14.7633" lon="-172.0"/><trkpt lat="14.9324" lon="-172.38"/><trkpt lat="15.1939" lon="-173.0"/><trkpt lat="15.6497" lon="-174.0"/><trkpt lat="15.9195" lon="-174.58"/><trkpt lat="16.1256" lon="-175.0"/><trkpt lat="16.616" lon="-176.0"/><trkpt lat="16.931" lon="-176.63"/><trkpt lat="17.1193" lon="-177.0"/><trkpt lat="17.6402" lon="-178.0"/><trkpt lat="17.9491" lon="-178.57"/><trkpt lat="18.1851" lon="-179.0"/><trkpt lat="18.7344" lon="-180.0"/></trkseg></trk>
</gpx>
