<?xml version="1.0" encoding="UTF-8"?>
<kml xmlns="http://www.opengis.net/kml/2.2"><Document><name>The Moon occults Venus — 2028-09-15</name>
<description>Graze limits from https://occult.alokm.com/venus-2028-09-15, traced against the real lunar limb (LRO LOLA).</description>
<Style id="graze"><LineStyle><color>ff06b6d9</color><width>4</width></LineStyle></Style>
<Placemark><name>north graze limit</name><styleUrl>#graze</styleUrl><LineString><tessellate>1</tessellate><coordinates>170.0,-22.5944,0 171.0,-22.3108,0 172.0,-22.028,0 172.12,-21.9959,0 173.0,-21.7468,0 174.0,-21.4918,0 175.0,-21.2277,0 175.98,-20.9807,0 176.0,-20.976,0 177.0,-20.74,0 178.0,-20.5174,0 179.0,-20.3041,0 180.0,-20.0958,0</coordinates></LineString></Placemark>
<Placemark><name>north graze limit</name><styleUrl>#graze</styleUrl><LineString><tessellate>1</tessellate><coordinates>-180.0,-20.0958,0 -179.47,-19.9913,0 -179.0,-19.8992,0 -178.0,-19.7082,0 -177.0,-19.5377,0 -176.0,-19.3842,0 -175.0,-19.2403,0 -174.0,-19.11,0 -173.07,-18.9925,0 -173.0,-18.9828,0 -172.0,-18.8796,0 -171.0,-18.7896,0 -170.0,-18.718,0 -169.0,-18.6692,0 -168.0,-18.6346,0 -167.0,-18.606,0 -166.0,-18.6084,0 -165.0,-18.6331,0 -164.0,-18.6744,0 -163.0,-18.7373,0 -162.0,-18.833,0 -161.0,-18.9421,0 -160.66,-18.985,0 -160.0,-19.0796,0 -159.0,-19.2492,0 -158.0,-19.4506,0 -157.0,-19.6728,0 -156.0,-19.9243,0 -155.69,-20.0072,0 -155.0,-20.197,0 -154.0,-20.5014,0 -153.0,-20.836,0 -152.57,-20.9974,0 -152.0,-21.21,0 -151.0,-21.6114,0 -150.15,-21.9795,0 -150.0,-22.0493,0 -149.0,-22.5211,0 -148.1,-22.9854,0 -148.0,-23.0381,0 -147.0,-23.5852,0 -146.3,-23.9862,0 -146.0,-24.164,0 -145.0,-24.7831,0 -144.68,-24.985,0 -144.0,-25.4271,0 -143.17,-25.9938,0 -143.0,-26.1117,0 -142.0,-26.8184,0 -141.77,-26.9891,0 -141.0,-27.5594,0 -140.43,-27.9932,0 -140.0,-28.3259,0 -139.15,-28.9965,0 -139.0,-29.1167,0 -138.0,-29.922,0 -137.92,-29.9866,0 -137.0,-30.7489,0 -136.72,-30.9865,0 -136.0,-31.5964,0 -135.54,-31.9885,0 -135.0,-32.4519,0 -134.38,-32.9892,0 -134.0,-33.3187,0 -133.23,-33.9893,0 -133.0,-34.1907,0 -132.09,-34.9887,0 -132.0,-35.0679,0 -131.0,-35.9462,0 -130.95,-35.9902,0 -130.0,-36.8245,0 -129.81,-36.9907,0 -129.0,-37.699,0 -128.67,-37.9855,0 -128.0,-38.5657,0 -127.51,-38.9883,0 -127.0,-39.4263,0 -126.34,-39.9872,0 -126.0,-40.2728,0 -125.15,-40.9869,0 -125.0,-41.1115,0 -124.0,-41.9444,0 -123.94,-41.9941,0 -123.0,-42.7602,0 -122.71,-42.9929,0 -122.0,-43.5608,0 -121.45,-43.9932,0 -121.0,-44.3453,0 -120.16,-44.9931,0 -120.0,-45.1155,0 -119.0,-45.8744,0 -118.84,-45.9926,0 -118.0,-46.6088,0 -117.48,-46.9913,0 -117.0,-47.3404,0 -116.08,-47.9961,0 -116.0,-48.0524,0 -115.0,-48.7414,0 -114.64,-48.984,0 -114.0,-49.4171,0 -113.14,-49.9922,0 -113.0,-50.0846,0 -112.0,-50.7319,0 -111.6,-50.9875,0 -111.0,-51.3631,0 -110.0,-51.9823,0 -109.99,-51.9884,0 -109.0,-52.5863,0 -108.32,-52.9885,0 -108.0,-53.1765,0 -107.0,-53.75,0 -106.58,-53.9877,0 -106.0,-54.3102,0 -105.0,-54.8543,0 -104.76,-54.9828,0 -104.0,-55.3865,0 -103.0,-55.9057,0 -102.85,-55.9824,0 -102.0,-56.4156,0 -101.0,-56.9136,0 -100.85,-56.9856,0 -100.0,-57.394,0 -99.0,-57.8681,0 -98.74,-57.9899,0 -98.0,-58.3294,0 -97.0,-58.7757,0 -96.51,-58.9915,0 -96.0,-59.2127,0 -95.0,-59.6397,0</coordinates></LineString></Placemark>
</Document></kml>
